{"type": "FeatureCollection", "source": {"provider": "EasyWay (owner-named ground truth)", "route": {"route_id_easyway": 21, "name": "№5 Железнодорожный вокзал Бендеры-1 — ул. Дружбы — ул. 50 лет ВЛКСМ", "owner_stop_streets_forward": ["Тираспольская улица", "улица Титова", "Кишинёвская улица", "улица Богдана Хмельницкого", "улица 50 лет ВЛКСМ", "улица Осипенко"], "owner_access_corridor": ["Кишинёв-Тирасполь", "улица Петровского", "улица Ермакова", "Кишинёвская улица"]}, "easyway_web_status": "HTTP 403 (bot-blocked); polyline NOT fetched, NOT fabricated", "verification": "corridor matched to OSM car ways; путепровод bridge=yes layer=2 oneway=yes; all ways present in the local OSRM graph", "usage": "proof of car connectivity only; маршрутка stops NOT enforced, full PT length NOT used as a driver route", "directions": "forward and reverse are distinct because the interchange ramps are oneway", "owner_review_required": true}, "features": [{"type": "Feature", "geometry": {"type": "LineString", "coordinates": [[29.476434, 46.8404679], [29.4776911, 46.8407681]]}, "properties": {"corridor_street": "Кишинёв-Тирасполь", "osm_way_id": 28796004, "highway": "primary", "bridge": "yes", "layer": "2", "oneway": "yes", "access": "", "direction_note": "oneway interchange ramp — forward/reverse differ"}}, {"type": "Feature", "geometry": {"type": "LineString", "coordinates": [[29.4776911, 46.8407681], [29.4780518, 46.8408307], [29.478373, 46.840867], [29.4785923, 46.8408428], [29.4788012, 46.8407789], [29.478985, 46.8407026], [29.4792231, 46.8405736]]}, "properties": {"corridor_street": "Кишинёв-Тирасполь", "osm_way_id": 28796006, "highway": "primary", "bridge": "", "layer": "", "oneway": "yes", "access": "", "direction_note": "oneway interchange ramp — forward/reverse differ"}}, {"type": "Feature", "geometry": {"type": "LineString", "coordinates": [[29.4863232, 46.8327067], [29.4863117, 46.8323708]]}, "properties": {"corridor_street": "Кишинёв-Тирасполь", "osm_way_id": 28796008, "highway": "primary", "bridge": "yes", "layer": "2", "oneway": "yes", "access": "", "direction_note": "oneway interchange ramp — forward/reverse differ"}}, {"type": "Feature", "geometry": {"type": "LineString", "coordinates": [[29.4863117, 46.8323708], [29.4863153, 46.8323161], [29.486333, 46.8322711], [29.4867689, 46.831597]]}, "properties": {"corridor_street": "Кишинёв-Тирасполь", "osm_way_id": 28796010, "highway": "primary", "bridge": "", "layer": "", "oneway": "yes", "access": "", "direction_note": "oneway interchange ramp — forward/reverse differ"}}, {"type": "Feature", "geometry": {"type": "LineString", "coordinates": [[29.4856573, 46.83345], [29.4859503, 46.833326], [29.4861561, 46.8331939], [29.4862784, 46.8330567], [29.4863469, 46.8329031], [29.4863232, 46.8327067]]}, "properties": {"corridor_street": "Кишинёв-Тирасполь", "osm_way_id": 38633102, "highway": "primary", "bridge": "", "layer": "", "oneway": "yes", "access": "", "direction_note": "oneway interchange ramp — forward/reverse differ"}}, {"type": "Feature", "geometry": {"type": "LineString", "coordinates": [[29.4737202, 46.8412223], [29.4744088, 46.8406459]]}, "properties": {"corridor_street": "Кишинёв-Тирасполь", "osm_way_id": 38633114, "highway": "primary", "bridge": "", "layer": "", "oneway": "yes", "access": "", "direction_note": "oneway interchange ramp — forward/reverse differ"}}, {"type": "Feature", "geometry": {"type": "LineString", "coordinates": [[29.4581422, 46.8445636], [29.4580809, 46.8446621], [29.4580177, 46.8447636], [29.4580183, 46.8448797], [29.4580808, 46.8449514], [29.4581545, 46.8449943], [29.4583495, 46.8450408]]}, "properties": {"corridor_street": "Кишинёв-Тирасполь", "osm_way_id": 38633124, "highway": "primary_link", "bridge": "", "layer": "", "oneway": "yes", "access": "", "direction_note": "oneway interchange ramp — forward/reverse differ"}}, {"type": "Feature", "geometry": {"type": "LineString", "coordinates": [[29.4872032, 46.8304663], [29.4872606, 46.8303615], [29.487319, 46.8303129], [29.4873969, 46.8302814], [29.4874995, 46.8302645], [29.4875951, 46.8302693], [29.4876836, 46.8302935], [29.487802, 46.8303615]]}, "properties": {"corridor_street": "Кишинёв-Тирасполь", "osm_way_id": 58427503, "highway": "primary_link", "bridge": "", "layer": "", "oneway": "yes", "access": "", "direction_note": "oneway interchange ramp — forward/reverse differ"}}, {"type": "Feature", "geometry": {"type": "LineString", "coordinates": [[29.4878888, 46.8310511], [29.4880408, 46.8313138], [29.488122, 46.8314341], [29.4881597, 46.8314724], [29.4882246, 46.8315383], [29.4883262, 46.8316242], [29.4884357, 46.8316973], [29.4886935, 46.8318213], [29.4887836, 46.8318525], [29.4889333, 46.8318956], [29.4890656, 46.8319302], [29.4892249, 46.8319611], [29.4898712, 46.8320538]]}, "properties": {"corridor_street": "Кишинёв-Тирасполь", "osm_way_id": 132957184, "highway": "primary", "bridge": "", "layer": "", "oneway": "yes", "access": "", "direction_note": "oneway interchange ramp — forward/reverse differ"}}, {"type": "Feature", "geometry": {"type": "LineString", "coordinates": [[29.487802, 46.8303615], [29.4878316, 46.8305551], [29.4878379, 46.8306098], [29.4878888, 46.8310511]]}, "properties": {"corridor_street": "Кишинёв-Тирасполь", "osm_way_id": 132957188, "highway": "primary", "bridge": "", "layer": "", "oneway": "yes", "access": "", "direction_note": "oneway interchange ramp — forward/reverse differ"}}, {"type": "Feature", "geometry": {"type": "LineString", "coordinates": [[29.4867689, 46.831597], [29.4868784, 46.8314409], [29.4870054, 46.8312465], [29.4871018, 46.8310062], [29.4871557, 46.8308336], [29.4871857, 46.8306724], [29.4872032, 46.8304663]]}, "properties": {"corridor_street": "Кишинёв-Тирасполь", "osm_way_id": 133143205, "highway": "primary", "bridge": "", "layer": "", "oneway": "yes", "access": "", "direction_note": "oneway interchange ramp — forward/reverse differ"}}, {"type": "Feature", "geometry": {"type": "LineString", "coordinates": [[29.4524313, 46.847908], [29.451697, 46.8485172], [29.4513972, 46.8487659], [29.4489753, 46.8507749], [29.4479673, 46.8516435], [29.44777, 46.8518], [29.4472065, 46.8522793], [29.445718, 46.8535362], [29.4439726, 46.8549438], [29.4434118, 46.8553694], [29.4431526, 46.8555607], [29.4426634, 46.8558796], [29.4425357, 46.8559664], [29.4415991, 46.8565556], [29.4413949, 46.8566767], [29.4404537, 46.8572348]]}, "properties": {"corridor_street": "Кишинёв-Тирасполь", "osm_way_id": 185144051, "highway": "primary", "bridge": "", "layer": "", "oneway": "", "access": "", "direction_note": "two-way"}}, {"type": "Feature", "geometry": {"type": "LineString", "coordinates": [[29.4744088, 46.8406459], [29.4746739, 46.8405078], [29.4750035, 46.8404088], [29.4753438, 46.8403567], [29.4759351, 46.8403534], [29.476434, 46.8404679]]}, "properties": {"corridor_street": "Кишинёв-Тирасполь", "osm_way_id": 385234576, "highway": "primary", "bridge": "", "layer": "", "oneway": "yes", "access": "", "direction_note": "oneway interchange ramp — forward/reverse differ"}}, {"type": "Feature", "geometry": {"type": "LineString", "coordinates": [[29.4792537, 46.8405324], [29.4793174, 46.8401511], [29.4793312, 46.8400696], [29.4793636, 46.8398926]]}, "properties": {"corridor_street": "Кишинёв-Тирасполь", "osm_way_id": 415365320, "highway": "primary", "bridge": "", "layer": "", "oneway": "yes", "access": "", "direction_note": "oneway interchange ramp — forward/reverse differ"}}, {"type": "Feature", "geometry": {"type": "LineString", "coordinates": [[29.4929321, 46.8324241], [29.4934748, 46.8324899], [29.4935511, 46.8324991], [29.4966144, 46.8328998], [29.4997848, 46.8332594], [29.5009244, 46.8333905], [29.5035186, 46.8337797]]}, "properties": {"corridor_street": "Кишинёв-Тирасполь", "osm_way_id": 28584680, "highway": "primary", "bridge": "", "layer": "", "oneway": "yes", "access": "", "direction_note": "oneway interchange ramp — forward/reverse differ"}}, {"type": "Feature", "geometry": {"type": "LineString", "coordinates": [[29.5058753, 46.8344185], [29.505414, 46.8343518], [29.5050592, 46.8342627], [29.5047194, 46.8341617], [29.5045954, 46.8341248], [29.5045287, 46.834105], [29.5044675, 46.8340873], [29.5042997, 46.8340389], [29.5041813, 46.8340048], [29.5035625, 46.8338823], [29.5017912, 46.8335991], [29.5008138, 46.8334662], [29.498412, 46.8331869], [29.4964453, 46.8329647], [29.4935148, 46.8325936], [29.4934486, 46.8325855], [29.4929082, 46.8325196]]}, "properties": {"corridor_street": "Кишинёв-Тирасполь", "osm_way_id": 83039093, "highway": "primary", "bridge": "", "layer": "", "oneway": "yes", "access": "", "direction_note": "oneway interchange ramp — forward/reverse differ"}}, {"type": "Feature", "geometry": {"type": "LineString", "coordinates": [[29.5035186, 46.8337797], [29.5043459, 46.8339127], [29.5045472, 46.8339451], [29.5046502, 46.8339616], [29.504794, 46.8339847], [29.50502, 46.8340211], [29.5055054, 46.834101], [29.5059799, 46.8341903]]}, "properties": {"corridor_street": "Кишинёв-Тирасполь", "osm_way_id": 83039114, "highway": "primary", "bridge": "", "layer": "", "oneway": "yes", "access": "", "direction_note": "oneway interchange ramp — forward/reverse differ"}}, {"type": "Feature", "geometry": {"type": "LineString", "coordinates": [[29.5323031, 46.8362031], [29.5332605, 46.8362819], [29.5336685, 46.8363155], [29.5357423, 46.8364705], [29.5359557, 46.8364865], [29.5367903, 46.8365488], [29.5375403, 46.8366049], [29.545342, 46.8369699], [29.5458724, 46.8369638], [29.5462642, 46.8369667]]}, "properties": {"corridor_street": "Кишинёв-Тирасполь", "osm_way_id": 83039154, "highway": "primary", "bridge": "", "layer": "", "oneway": "", "access": "", "direction_note": "two-way"}}, {"type": "Feature", "geometry": {"type": "LineString", "coordinates": [[29.5308618, 46.8360844], [29.5323031, 46.8362031]]}, "properties": {"corridor_street": "Кишинёв-Тирасполь", "osm_way_id": 614526735, "highway": "primary", "bridge": "", "layer": "", "oneway": "", "access": "", "direction_note": "two-way"}}, {"type": "Feature", "geometry": {"type": "LineString", "coordinates": [[29.5059799, 46.8341903], [29.5061479, 46.8342246], [29.5066041, 46.8343178], [29.5074293, 46.8344454], [29.5082608, 46.8346068], [29.5086632, 46.8346985]]}, "properties": {"corridor_street": "Кишинёв-Тирасполь", "osm_way_id": 614526736, "highway": "primary", "bridge": "", "layer": "", "oneway": "yes", "access": "", "direction_note": "oneway interchange ramp — forward/reverse differ"}}, {"type": "Feature", "geometry": {"type": "LineString", "coordinates": [[29.5086632, 46.8346985], [29.5081197, 46.8346507], [29.5075022, 46.8345819], [29.5058753, 46.8344185]]}, "properties": {"corridor_street": "Кишинёв-Тирасполь", "osm_way_id": 614526737, "highway": "primary", "bridge": "", "layer": "", "oneway": "yes", "access": "", "direction_note": "oneway interchange ramp — forward/reverse differ"}}, {"type": "Feature", "geometry": {"type": "LineString", "coordinates": [[29.439591, 46.8577422], [29.439848, 46.8575538]]}, "properties": {"corridor_street": "Кишинёв-Тирасполь", "osm_way_id": 617252894, "highway": "primary", "bridge": "", "layer": "", "oneway": "yes", "access": "", "direction_note": "oneway interchange ramp — forward/reverse differ"}}, {"type": "Feature", "geometry": {"type": "LineString", "coordinates": [[29.4401082, 46.8574596], [29.4399953, 46.8575261], [29.4398918, 46.8575871]]}, "properties": {"corridor_street": "Кишинёв-Тирасполь", "osm_way_id": 617252895, "highway": "primary", "bridge": "", "layer": "", "oneway": "yes", "access": "", "direction_note": "oneway interchange ramp — forward/reverse differ"}}, {"type": "Feature", "geometry": {"type": "LineString", "coordinates": [[29.4387922, 46.8582542], [29.439591, 46.8577422]]}, "properties": {"corridor_street": "Кишинёв-Тирасполь", "osm_way_id": 685641259, "highway": "primary", "bridge": "", "layer": "", "oneway": "", "access": "", "direction_note": "two-way"}}, {"type": "Feature", "geometry": {"type": "LineString", "coordinates": [[29.439848, 46.8575538], [29.4399507, 46.8574912], [29.4400612, 46.8574238]]}, "properties": {"corridor_street": "Кишинёв-Тирасполь", "osm_way_id": 795416596, "highway": "primary", "bridge": "", "layer": "", "oneway": "yes", "access": "", "direction_note": "oneway interchange ramp — forward/reverse differ"}}, {"type": "Feature", "geometry": {"type": "LineString", "coordinates": [[29.4398918, 46.8575871], [29.439591, 46.8577422]]}, "properties": {"corridor_street": "Кишинёв-Тирасполь", "osm_way_id": 795416597, "highway": "primary", "bridge": "", "layer": "", "oneway": "yes", "access": "", "direction_note": "oneway interchange ramp — forward/reverse differ"}}, {"type": "Feature", "geometry": {"type": "LineString", "coordinates": [[29.4404537, 46.8572348], [29.4401082, 46.8574596]]}, "properties": {"corridor_street": "Кишинёв-Тирасполь", "osm_way_id": 795416598, "highway": "primary", "bridge": "", "layer": "", "oneway": "yes", "access": "", "direction_note": "oneway interchange ramp — forward/reverse differ"}}, {"type": "Feature", "geometry": {"type": "LineString", "coordinates": [[29.4400612, 46.8574238], [29.4404537, 46.8572348]]}, "properties": {"corridor_street": "Кишинёв-Тирасполь", "osm_way_id": 795416599, "highway": "primary", "bridge": "", "layer": "", "oneway": "yes", "access": "", "direction_note": "oneway interchange ramp — forward/reverse differ"}}, {"type": "Feature", "geometry": {"type": "LineString", "coordinates": [[29.4723918, 46.8308999], [29.4723625, 46.8309706], [29.4723113, 46.8310397], [29.4715376, 46.8317883], [29.4706326, 46.8326228], [29.4700349, 46.8331882], [29.4699286, 46.8332948], [29.4693078, 46.8338109], [29.4686573, 46.8344165], [29.4681498, 46.8350094], [29.4670975, 46.8360654], [29.4669465, 46.8362429]]}, "properties": {"corridor_street": "Кишинёвская улица", "osm_way_id": 41749663, "highway": "tertiary", "bridge": "", "layer": "", "oneway": "", "access": "", "direction_note": "two-way"}}, {"type": "Feature", "geometry": {"type": "LineString", "coordinates": [[29.4564865, 46.8454774], [29.454765, 46.8464916], [29.4542814, 46.8467851], [29.4538297, 46.8470532], [29.4537653, 46.8470914], [29.4524313, 46.847908]]}, "properties": {"corridor_street": "Кишинёвская улица", "osm_way_id": 62383007, "highway": "primary", "bridge": "", "layer": "", "oneway": "", "access": "", "direction_note": "two-way"}}, {"type": "Feature", "geometry": {"type": "LineString", "coordinates": [[29.4669465, 46.8362429], [29.4661982, 46.8371051], [29.4655567, 46.8377948], [29.4651789, 46.8381978], [29.4649966, 46.8384013], [29.4645217, 46.8389043], [29.4639849, 46.8394405], [29.463752, 46.8396805], [29.4632232, 46.8401972], [29.4631471, 46.8402705], [29.4627444, 46.8406643], [29.4620417, 46.8413472], [29.4618856, 46.8415145], [29.4610341, 46.8423121], [29.4609314, 46.8424108], [29.4607401, 46.8425915], [29.4606959, 46.8426327], [29.4604651, 46.8428465], [29.4598725, 46.8434041], [29.4595589, 46.8436857], [29.4593309, 46.8438427], [29.458747, 46.8442116], [29.4581422, 46.8445636]]}, "properties": {"corridor_street": "Кишинёвская улица", "osm_way_id": 63221794, "highway": "primary", "bridge": "", "layer": "", "oneway": "", "access": "", "direction_note": "two-way"}}, {"type": "Feature", "geometry": {"type": "LineString", "coordinates": [[29.4581422, 46.8445636], [29.4575572, 46.8448818], [29.4574766, 46.8449257], [29.457246, 46.8450511]]}, "properties": {"corridor_street": "Кишинёвская улица", "osm_way_id": 133062213, "highway": "primary", "bridge": "", "layer": "", "oneway": "", "access": "", "direction_note": "two-way"}}, {"type": "Feature", "geometry": {"type": "LineString", "coordinates": [[29.4564865, 46.8454774], [29.457246, 46.8450511]]}, "properties": {"corridor_street": "Кишинёвская улица", "osm_way_id": 133068144, "highway": "primary", "bridge": "", "layer": "", "oneway": "", "access": "", "direction_note": "two-way"}}, {"type": "Feature", "geometry": {"type": "LineString", "coordinates": [[29.4583129, 46.8451488], [29.4577094, 46.8451201], [29.4574643, 46.8451121], [29.457333, 46.8450823], [29.457246, 46.8450511]]}, "properties": {"corridor_street": "Кишинёвская улица", "osm_way_id": 133068155, "highway": "primary_link", "bridge": "", "layer": "", "oneway": "yes", "access": "", "direction_note": "oneway interchange ramp — forward/reverse differ"}}, {"type": "Feature", "geometry": {"type": "LineString", "coordinates": [[29.4772654, 46.8304776], [29.4792577, 46.8302545], [29.4809548, 46.8300256], [29.4812184, 46.8299887]]}, "properties": {"corridor_street": "Тираспольская улица", "osm_way_id": 38633109, "highway": "residential", "bridge": "", "layer": "", "oneway": "", "access": "", "direction_note": "two-way"}}, {"type": "Feature", "geometry": {"type": "LineString", "coordinates": [[29.4868982, 46.8293162], [29.4870717, 46.8292947], [29.4877439, 46.8292113]]}, "properties": {"corridor_street": "Тираспольская улица", "osm_way_id": 94330335, "highway": "secondary", "bridge": "", "layer": "", "oneway": "yes", "access": "", "direction_note": "oneway interchange ramp — forward/reverse differ"}}, {"type": "Feature", "geometry": {"type": "LineString", "coordinates": [[29.4868982, 46.8293162], [29.4867614, 46.8293321], [29.4850113, 46.8295358], [29.4847733, 46.8295635], [29.4844871, 46.8296], [29.4843548, 46.8296169], [29.4837963, 46.8296883], [29.4834705, 46.8297299], [29.4829306, 46.8297989], [29.4826648, 46.8298329], [29.481956, 46.8299194], [29.4812184, 46.8299887]]}, "properties": {"corridor_street": "Тираспольская улица", "osm_way_id": 228367336, "highway": "secondary", "bridge": "", "layer": "", "oneway": "", "access": "", "direction_note": "two-way"}}, {"type": "Feature", "geometry": {"type": "LineString", "coordinates": [[29.4647233, 46.8307459], [29.4642782, 46.8308328]]}, "properties": {"corridor_street": "улица 50 лет ВЛКСМ", "osm_way_id": 64716999, "highway": "tertiary", "bridge": "", "layer": "", "oneway": "no", "access": "", "direction_note": "two-way"}}, {"type": "Feature", "geometry": {"type": "LineString", "coordinates": [[29.4619318, 46.8306715], [29.4617707, 46.8305972], [29.4615673, 46.8305033], [29.4607903, 46.8301766], [29.4605238, 46.830081], [29.4604813, 46.8300658], [29.4593383, 46.829681], [29.459174, 46.8296257], [29.4588954, 46.8295403], [29.4587267, 46.8294885], [29.4575713, 46.8291339], [29.4573605, 46.8290666], [29.4572341, 46.829022], [29.4567723, 46.828859], [29.4562112, 46.8286609]]}, "properties": {"corridor_street": "улица 50 лет ВЛКСМ", "osm_way_id": 133068147, "highway": "tertiary", "bridge": "", "layer": "", "oneway": "no", "access": "", "direction_note": "two-way"}}, {"type": "Feature", "geometry": {"type": "LineString", "coordinates": [[29.4651173, 46.831715], [29.4653034, 46.8316296], [29.4653702, 46.8316313], [29.4654371, 46.8316425], [29.4666895, 46.8323919]]}, "properties": {"corridor_street": "улица 50 лет ВЛКСМ", "osm_way_id": 222986033, "highway": "residential", "bridge": "", "layer": "", "oneway": "", "access": "", "direction_note": "two-way"}}, {"type": "Feature", "geometry": {"type": "LineString", "coordinates": [[29.4642782, 46.8308328], [29.4635053, 46.8309912], [29.4632748, 46.8310338], [29.4631031, 46.8310472], [29.4629232, 46.8310131], [29.4625624, 46.8308956], [29.4622198, 46.8307699], [29.4619318, 46.8306715]]}, "properties": {"corridor_street": "улица 50 лет ВЛКСМ", "osm_way_id": 532560333, "highway": "tertiary", "bridge": "", "layer": "", "oneway": "no", "access": "", "direction_note": "two-way"}}, {"type": "Feature", "geometry": {"type": "LineString", "coordinates": [[29.4562112, 46.8286609], [29.4561729, 46.8286474], [29.4561307, 46.8286325], [29.4557989, 46.8285154], [29.4553737, 46.8283653], [29.4547915, 46.8281598], [29.4542467, 46.8279706], [29.4538603, 46.8278365]]}, "properties": {"corridor_street": "улица 50 лет ВЛКСМ", "osm_way_id": 1465814212, "highway": "tertiary", "bridge": "", "layer": "", "oneway": "no", "access": "", "direction_note": "two-way"}}, {"type": "Feature", "geometry": {"type": "LineString", "coordinates": [[29.4616823, 46.8347404], [29.4619524, 46.8347486], [29.4621882, 46.8347351], [29.4624803, 46.8346906], [29.4635642, 46.8345097], [29.4648095, 46.8342636], [29.4660669, 46.8340093]]}, "properties": {"corridor_street": "улица Богдана Хмельницкого", "osm_way_id": 46581879, "highway": "residential", "bridge": "", "layer": "", "oneway": "", "access": "", "direction_note": "two-way"}}, {"type": "Feature", "geometry": {"type": "LineString", "coordinates": [[29.4763602, 46.8011179], [29.4757298, 46.8016283], [29.4754336, 46.8018557], [29.4748994, 46.802281], [29.4745358, 46.8025705], [29.4742959, 46.8027615], [29.4735973, 46.8033305], [29.473161, 46.8036652], [29.4722536, 46.8044056], [29.4715649, 46.8049359], [29.4710274, 46.8053601], [29.4701859, 46.8060244], [29.4695179, 46.8065517], [29.4687174, 46.8071835], [29.4686558, 46.8072321], [29.4673488, 46.8071999]]}, "properties": {"corridor_street": "улица Дружбы", "osm_way_id": 45858821, "highway": "primary", "bridge": "", "layer": "", "oneway": "", "access": "", "direction_note": "two-way"}}, {"type": "Feature", "geometry": {"type": "LineString", "coordinates": [[29.4686558, 46.8072321], [29.4679188, 46.8078151]]}, "properties": {"corridor_street": "улица Дружбы", "osm_way_id": 103643505, "highway": "secondary", "bridge": "", "layer": "", "oneway": "yes", "access": "", "direction_note": "oneway interchange ramp — forward/reverse differ"}}, {"type": "Feature", "geometry": {"type": "LineString", "coordinates": [[29.5124429, 46.8583187], [29.5118361, 46.8608199], [29.5111195, 46.8639246]]}, "properties": {"corridor_street": "улица Дружбы", "osm_way_id": 83039115, "highway": "residential", "bridge": "", "layer": "", "oneway": "", "access": "", "direction_note": "two-way"}}, {"type": "Feature", "geometry": {"type": "LineString", "coordinates": [[29.4739232, 46.8413001], [29.4731004, 46.8419913], [29.4727955, 46.8422551], [29.4721212, 46.8428385]]}, "properties": {"corridor_street": "улица Ермакова", "osm_way_id": 38633120, "highway": "primary", "bridge": "", "layer": "", "oneway": "yes", "access": "", "direction_note": "oneway interchange ramp — forward/reverse differ"}}, {"type": "Feature", "geometry": {"type": "LineString", "coordinates": [[29.4593038, 46.8450159], [29.4609702, 46.8448848], [29.4612776, 46.8448605]]}, "properties": {"corridor_street": "улица Ермакова", "osm_way_id": 58426018, "highway": "primary", "bridge": "", "layer": "", "oneway": "", "access": "", "direction_note": "two-way"}}, {"type": "Feature", "geometry": {"type": "LineString", "coordinates": [[29.4705408, 46.8443775], [29.470266, 46.8444139], [29.4699126, 46.8444065], [29.4690237, 46.84439], [29.4684203, 46.8443755], [29.4682066, 46.8443673], [29.4680007, 46.8443765], [29.466466, 46.8444947], [29.4657909, 46.8445393], [29.4656671, 46.8445321]]}, "properties": {"corridor_street": "улица Ермакова", "osm_way_id": 63221753, "highway": "primary", "bridge": "", "layer": "", "oneway": "yes", "access": "", "direction_note": "oneway interchange ramp — forward/reverse differ"}}, {"type": "Feature", "geometry": {"type": "LineString", "coordinates": [[29.4651388, 46.844564], [29.465351, 46.8445523], [29.4654888, 46.8445447]]}, "properties": {"corridor_street": "улица Ермакова", "osm_way_id": 132957175, "highway": "primary", "bridge": "", "layer": "", "oneway": "", "access": "", "direction_note": "two-way"}}, {"type": "Feature", "geometry": {"type": "LineString", "coordinates": [[29.4656671, 46.8445321], [29.4657811, 46.8445038], [29.4667378, 46.8443924], [29.4680129, 46.8442709], [29.4681993, 46.8442278], [29.4686343, 46.8441414], [29.4692031, 46.8440285], [29.4692959, 46.8440126], [29.4698731, 46.8438808], [29.4703913, 46.8436939], [29.4708975, 46.8434608], [29.4714959, 46.843117]]}, "properties": {"corridor_street": "улица Ермакова", "osm_way_id": 222673638, "highway": "primary", "bridge": "", "layer": "", "oneway": "yes", "access": "", "direction_note": "oneway interchange ramp — forward/reverse differ"}}, {"type": "Feature", "geometry": {"type": "LineString", "coordinates": [[29.4612776, 46.8448605], [29.4627862, 46.8447291]]}, "properties": {"corridor_street": "улица Ермакова", "osm_way_id": 746365743, "highway": "primary", "bridge": "", "layer": "", "oneway": "", "access": "", "direction_note": "two-way"}}, {"type": "Feature", "geometry": {"type": "LineString", "coordinates": [[29.4627862, 46.8447291], [29.4634277, 46.8446779], [29.4649402, 46.8445772], [29.4651388, 46.844564]]}, "properties": {"corridor_street": "улица Ермакова", "osm_way_id": 746365744, "highway": "primary", "bridge": "", "layer": "", "oneway": "", "access": "", "direction_note": "two-way"}}, {"type": "Feature", "geometry": {"type": "LineString", "coordinates": [[29.4714959, 46.843117], [29.4715808, 46.8430642], [29.4716346, 46.8430254]]}, "properties": {"corridor_street": "улица Ермакова", "osm_way_id": 813128460, "highway": "primary", "bridge": "", "layer": "", "oneway": "yes", "access": "", "direction_note": "oneway interchange ramp — forward/reverse differ"}}, {"type": "Feature", "geometry": {"type": "LineString", "coordinates": [[29.4716346, 46.8430254], [29.4719913, 46.8427634], [29.4721779, 46.842624], [29.4726738, 46.8421697], [29.4733225, 46.8415804], [29.4737202, 46.8412223]]}, "properties": {"corridor_street": "улица Ермакова", "osm_way_id": 813128461, "highway": "primary", "bridge": "", "layer": "", "oneway": "yes", "access": "", "direction_note": "oneway interchange ramp — forward/reverse differ"}}, {"type": "Feature", "geometry": {"type": "LineString", "coordinates": [[29.4717074, 46.8432076], [29.4714785, 46.8434118], [29.4712061, 46.8437096], [29.4708708, 46.8440471], [29.4706179, 46.8443001], [29.4705408, 46.8443775]]}, "properties": {"corridor_street": "улица Ермакова", "osm_way_id": 813128463, "highway": "primary", "bridge": "", "layer": "", "oneway": "yes", "access": "", "direction_note": "oneway interchange ramp — forward/reverse differ"}}, {"type": "Feature", "geometry": {"type": "LineString", "coordinates": [[29.4721212, 46.8428385], [29.4717929, 46.8431225], [29.4717074, 46.8432076]]}, "properties": {"corridor_street": "улица Ермакова", "osm_way_id": 916379244, "highway": "primary", "bridge": "", "layer": "", "oneway": "yes", "access": "", "direction_note": "oneway interchange ramp — forward/reverse differ"}}, {"type": "Feature", "geometry": {"type": "LineString", "coordinates": [[29.4654888, 46.8445447], [29.4656671, 46.8445321]]}, "properties": {"corridor_street": "улица Ермакова", "osm_way_id": 943960891, "highway": "primary", "bridge": "", "layer": "", "oneway": "", "access": "", "direction_note": "two-way"}}, {"type": "Feature", "geometry": {"type": "LineString", "coordinates": [[29.4572018, 46.8247602], [29.4578446, 46.8263986], [29.4583463, 46.8276797], [29.4589016, 46.8289642], [29.4589949, 46.8291907], [29.459174, 46.8296257]]}, "properties": {"corridor_street": "улица Осипенко", "osm_way_id": 45858827, "highway": "residential", "bridge": "", "layer": "", "oneway": "", "access": "", "direction_note": "two-way"}}, {"type": "Feature", "geometry": {"type": "LineString", "coordinates": [[29.4752488, 46.8418], [29.4739232, 46.8413001], [29.4737202, 46.8412223], [29.4726887, 46.8408442], [29.4720773, 46.840596], [29.4716171, 46.8404197], [29.4709094, 46.8401428], [29.4696997, 46.8397115]]}, "properties": {"corridor_street": "улица Петровского", "osm_way_id": 60739704, "highway": "residential", "bridge": "", "layer": "", "oneway": "", "access": "", "direction_note": "two-way"}}, {"type": "Feature", "geometry": {"type": "LineString", "coordinates": [[29.4696997, 46.8397115], [29.4696021, 46.8397155], [29.4694626, 46.8397797], [29.4692534, 46.83991], [29.4689611, 46.8400971], [29.4682351, 46.8405051], [29.4672418, 46.841064], [29.4662004, 46.8416161], [29.4654744, 46.841997], [29.464894, 46.842346]]}, "properties": {"corridor_street": "улица Петровского", "osm_way_id": 165763754, "highway": "residential", "bridge": "", "layer": "", "oneway": "", "access": "", "direction_note": "two-way"}}, {"type": "Feature", "geometry": {"type": "LineString", "coordinates": [[29.469983, 46.8448917], [29.4711759, 46.8455206], [29.4722029, 46.8460516], [29.4723648, 46.8459478], [29.4726095, 46.8456997], [29.472615, 46.8456941], [29.4727022, 46.8456056], [29.4727429, 46.8455718], [29.4736214, 46.8447355], [29.4739556, 46.844412], [29.4717074, 46.8432076]]}, "properties": {"corridor_street": "улица Титова", "osm_way_id": 87499736, "highway": "residential", "bridge": "", "layer": "", "oneway": "", "access": "", "direction_note": "two-way"}}, {"type": "Feature", "geometry": {"type": "LineString", "coordinates": [[29.4744088, 46.8406459], [29.474237, 46.8405448], [29.4725712, 46.8399273], [29.4698624, 46.8388957]]}, "properties": {"corridor_street": "улица Титова", "osm_way_id": 116073586, "highway": "tertiary", "bridge": "", "layer": "", "oneway": "yes", "access": "", "direction_note": "oneway interchange ramp — forward/reverse differ"}}, {"type": "Feature", "geometry": {"type": "LineString", "coordinates": [[29.4631081, 46.8408566], [29.4627444, 46.8406643]]}, "properties": {"corridor_street": "улица Титова", "osm_way_id": 161630389, "highway": "residential", "bridge": "", "layer": "", "oneway": "", "access": "", "direction_note": "two-way"}}, {"type": "Feature", "geometry": {"type": "LineString", "coordinates": [[29.4659771, 46.8392014], [29.4652936, 46.8394722], [29.4647205, 46.8398018], [29.4643707, 46.8400364], [29.4641152, 46.840224], [29.4636085, 46.8405714], [29.4631081, 46.8408566], [29.4623504, 46.8413115]]}, "properties": {"corridor_street": "улица Титова", "osm_way_id": 385234575, "highway": "residential", "bridge": "", "layer": "", "oneway": "", "access": "", "direction_note": "two-way"}}, {"type": "Feature", "geometry": {"type": "LineString", "coordinates": [[29.4698624, 46.8388957], [29.468541, 46.8387606], [29.4682349, 46.8387271], [29.4678376, 46.8387238], [29.4674337, 46.8387505], [29.4665837, 46.8390075], [29.4659771, 46.8392014]]}, "properties": {"corridor_street": "улица Титова", "osm_way_id": 493891920, "highway": "tertiary", "bridge": "", "layer": "", "oneway": "yes", "access": "", "direction_note": "oneway interchange ramp — forward/reverse differ"}}, {"type": "Feature", "geometry": {"type": "LineString", "coordinates": [[29.4717074, 46.8432076], [29.4714959, 46.843117]]}, "properties": {"corridor_street": "улица Титова", "osm_way_id": 813128462, "highway": "residential", "bridge": "", "layer": "", "oneway": "", "access": "", "direction_note": "two-way"}}]}