{"type": "FeatureCollection", "features": [{"type": "Feature", "geometry": {"type": "Point", "coordinates": [29.4778554, 46.8008761]}, "properties": {"node_id": 315293436, "railway": "level_crossing"}}, {"type": "Feature", "geometry": {"type": "Point", "coordinates": [29.4738889, 46.8653157]}, "properties": {"node_id": 760366847, "railway": "level_crossing"}}, {"type": "Feature", "geometry": {"type": "Point", "coordinates": [29.4801399, 46.8543725]}, "properties": {"node_id": 760366878, "railway": "level_crossing"}}, {"type": "Feature", "geometry": {"type": "Point", "coordinates": [29.4734005, 46.8625276]}, "properties": {"node_id": 760366945, "railway": "level_crossing"}}, {"type": "Feature", "geometry": {"type": "Point", "coordinates": [29.4779761, 46.8009196]}, "properties": {"node_id": 1303507563, "railway": "level_crossing"}}, {"type": "Feature", "geometry": {"type": "Point", "coordinates": [29.4681549, 46.8259467]}, "properties": {"node_id": 1955645994, "railway": "level_crossing"}}, {"type": "Feature", "geometry": {"type": "Point", "coordinates": [29.4726675, 46.8305289]}, "properties": {"node_id": 1955646223, "railway": "level_crossing"}}, {"type": "Feature", "geometry": {"type": "Point", "coordinates": [29.4763809, 46.8372918]}, "properties": {"node_id": 1955646381, "railway": "level_crossing"}}, {"type": "Feature", "geometry": {"type": "Point", "coordinates": [29.4767552, 46.8373012]}, "properties": {"node_id": 1955646382, "railway": "level_crossing"}}, {"type": "Feature", "geometry": {"type": "Point", "coordinates": [29.4817838, 46.8325141]}, "properties": {"node_id": 1955661817, "railway": "level_crossing"}}, {"type": "Feature", "geometry": {"type": "Point", "coordinates": [29.4819504, 46.8334196]}, "properties": {"node_id": 1955661820, "railway": "level_crossing"}}, {"type": "Feature", "geometry": {"type": "Point", "coordinates": [29.4819404, 46.8334991]}, "properties": {"node_id": 1955661823, "railway": "level_crossing"}}, {"type": "Feature", "geometry": {"type": "Point", "coordinates": [29.4726106, 46.849895]}, "properties": {"node_id": 2512444941, "railway": "level_crossing"}}, {"type": "Feature", "geometry": {"type": "Point", "coordinates": [29.4659288, 46.8212582]}, "properties": {"node_id": 3244986655, "railway": "level_crossing"}}, {"type": "Feature", "geometry": {"type": "Point", "coordinates": [29.4665628, 46.8216635]}, "properties": {"node_id": 3244986658, "railway": "level_crossing"}}, {"type": "Feature", "geometry": {"type": "Point", "coordinates": [29.4675335, 46.8248445]}, "properties": {"node_id": 4410412294, "railway": "level_crossing"}}, {"type": "Feature", "geometry": {"type": "Point", "coordinates": [29.4739408, 46.865306]}, "properties": {"node_id": 4747122942, "railway": "level_crossing"}}, {"type": "Feature", "geometry": {"type": "Point", "coordinates": [29.4710251, 46.8267321]}, "properties": {"node_id": 4747642249, "railway": "level_crossing"}}, {"type": "Feature", "geometry": {"type": "Point", "coordinates": [29.4647905, 46.8185442]}, "properties": {"node_id": 4747642253, "railway": "level_crossing"}}, {"type": "Feature", "geometry": {"type": "Point", "coordinates": [29.4712187, 46.8266626]}, "properties": {"node_id": 4747642270, "railway": "level_crossing"}}, {"type": "Feature", "geometry": {"type": "Point", "coordinates": [29.4650465, 46.8184626]}, "properties": {"node_id": 4747642282, "railway": "level_crossing"}}, {"type": "Feature", "geometry": {"type": "Point", "coordinates": [29.4710859, 46.8267104]}, "properties": {"node_id": 4747642288, "railway": "level_crossing"}}, {"type": "Feature", "geometry": {"type": "Point", "coordinates": [29.4716141, 46.8266022]}, "properties": {"node_id": 4747642444, "railway": "level_crossing"}}, {"type": "Feature", "geometry": {"type": "Point", "coordinates": [29.4733318, 46.8288071]}, "properties": {"node_id": 4747642445, "railway": "level_crossing"}}, {"type": "Feature", "geometry": {"type": "Point", "coordinates": [29.4751122, 46.8317047]}, "properties": {"node_id": 4747642454, "railway": "level_crossing"}}, {"type": "Feature", "geometry": {"type": "Point", "coordinates": [29.473114, 46.8538214]}, "properties": {"node_id": 4747642507, "railway": "level_crossing"}}, {"type": "Feature", "geometry": {"type": "Point", "coordinates": [29.4727467, 46.8499718]}, "properties": {"node_id": 4747642516, "railway": "level_crossing"}}, {"type": "Feature", "geometry": {"type": "Point", "coordinates": [29.4727903, 46.8500198]}, "properties": {"node_id": 4747642517, "railway": "level_crossing"}}, {"type": "Feature", "geometry": {"type": "Point", "coordinates": [29.4734582, 46.8624942]}, "properties": {"node_id": 4747642631, "railway": "level_crossing"}}, {"type": "Feature", "geometry": {"type": "Point", "coordinates": [29.4766479, 46.8317191]}, "properties": {"node_id": 6771777576, "railway": "level_crossing"}}, {"type": "Feature", "geometry": {"type": "Point", "coordinates": [29.4732032, 46.8628309]}, "properties": {"node_id": 6812000370, "railway": "level_crossing"}}, {"type": "Feature", "geometry": {"type": "Point", "coordinates": [29.4773835, 46.8478583]}, "properties": {"node_id": 6839424731, "railway": "level_crossing"}}, {"type": "Feature", "geometry": {"type": "Point", "coordinates": [29.4696049, 46.8290005]}, "properties": {"node_id": 7077736499, "railway": "level_crossing"}}, {"type": "Feature", "geometry": {"type": "Point", "coordinates": [29.4680594, 46.8212366]}, "properties": {"node_id": 7077910638, "railway": "level_crossing"}}, {"type": "Feature", "geometry": {"type": "Point", "coordinates": [29.4728253, 46.8507457]}, "properties": {"node_id": 7985360519, "railway": "level_crossing"}}, {"type": "Feature", "geometry": {"type": "Point", "coordinates": [29.472869, 46.8507516]}, "properties": {"node_id": 7985396034, "railway": "level_crossing"}}, {"type": "Feature", "geometry": {"type": "Point", "coordinates": [29.464912, 46.8185013]}, "properties": {"node_id": 7990695112, "railway": "level_crossing"}}, {"type": "Feature", "geometry": {"type": "Point", "coordinates": [29.4750249, 46.8317322]}, "properties": {"node_id": 7990743194, "railway": "level_crossing"}}, {"type": "Feature", "geometry": {"type": "Point", "coordinates": [29.4712994, 46.8266391]}, "properties": {"node_id": 7990743197, "railway": "level_crossing"}}, {"type": "Feature", "geometry": {"type": "Point", "coordinates": [29.4711581, 46.8266866]}, "properties": {"node_id": 7990813087, "railway": "level_crossing"}}, {"type": "Feature", "geometry": {"type": "Point", "coordinates": [29.4748776, 46.8317757]}, "properties": {"node_id": 7990813096, "railway": "level_crossing"}}, {"type": "Feature", "geometry": {"type": "Point", "coordinates": [29.4749462, 46.8317562]}, "properties": {"node_id": 7990813100, "railway": "level_crossing"}}, {"type": "Feature", "geometry": {"type": "Point", "coordinates": [29.471248, 46.8526311]}, "properties": {"node_id": 7990844241, "railway": "level_crossing"}}, {"type": "Feature", "geometry": {"type": "Point", "coordinates": [29.469928, 46.8502786]}, "properties": {"node_id": 7990844242, "railway": "level_crossing"}}, {"type": "Feature", "geometry": {"type": "Point", "coordinates": [29.470858, 46.826792]}, "properties": {"node_id": 7990957112, "railway": "level_crossing"}}, {"type": "Feature", "geometry": {"type": "Point", "coordinates": [29.4747554, 46.831816]}, "properties": {"node_id": 7991203042, "railway": "level_crossing"}}, {"type": "Feature", "geometry": {"type": "Point", "coordinates": [29.4750908, 46.831711]}, "properties": {"node_id": 7991762526, "railway": "level_crossing"}}, {"type": "Feature", "geometry": {"type": "Point", "coordinates": [29.4713708, 46.8266151]}, "properties": {"node_id": 7991762533, "railway": "level_crossing"}}, {"type": "Feature", "geometry": {"type": "Point", "coordinates": [29.4714583, 46.8265827]}, "properties": {"node_id": 7991762547, "railway": "level_crossing"}}, {"type": "Feature", "geometry": {"type": "Point", "coordinates": [29.4732076, 46.8288466]}, "properties": {"node_id": 7991762548, "railway": "level_crossing"}}, {"type": "Feature", "geometry": {"type": "Point", "coordinates": [29.4709714, 46.8267511]}, "properties": {"node_id": 7991921920, "railway": "level_crossing"}}, {"type": "Feature", "geometry": {"type": "Point", "coordinates": [29.4709114, 46.8267735]}, "properties": {"node_id": 7991921931, "railway": "level_crossing"}}, {"type": "Feature", "geometry": {"type": "Point", "coordinates": [29.4708045, 46.8268112]}, "properties": {"node_id": 7991982812, "railway": "level_crossing"}}, {"type": "Feature", "geometry": {"type": "Point", "coordinates": [29.4706245, 46.8267717]}, "properties": {"node_id": 7991982837, "railway": "level_crossing"}}, {"type": "Feature", "geometry": {"type": "Point", "coordinates": [29.4706801, 46.8267506]}, "properties": {"node_id": 7992010395, "railway": "level_crossing"}}, {"type": "Feature", "geometry": {"type": "Point", "coordinates": [29.4705711, 46.82679]}, "properties": {"node_id": 7992066526, "railway": "level_crossing"}}, {"type": "Feature", "geometry": {"type": "Point", "coordinates": [29.4653757, 46.8236538]}, "properties": {"node_id": 7992220072, "railway": "level_crossing"}}, {"type": "Feature", "geometry": {"type": "Point", "coordinates": [29.4675399, 46.8231937]}, "properties": {"node_id": 7993772367, "railway": "level_crossing"}}, {"type": "Feature", "geometry": {"type": "Point", "coordinates": [29.4684408, 46.8247919]}, "properties": {"node_id": 7993772376, "railway": "level_crossing"}}, {"type": "Feature", "geometry": {"type": "Point", "coordinates": [29.4693334, 46.8279737]}, "properties": {"node_id": 7993802620, "railway": "level_crossing"}}, {"type": "Feature", "geometry": {"type": "Point", "coordinates": [29.4686877, 46.8285143]}, "properties": {"node_id": 7993826271, "railway": "level_crossing"}}, {"type": "Feature", "geometry": {"type": "Point", "coordinates": [29.4705029, 46.8274508]}, "properties": {"node_id": 7993905173, "railway": "level_crossing"}}, {"type": "Feature", "geometry": {"type": "Point", "coordinates": [29.4701636, 46.8266262]}, "properties": {"node_id": 7993942344, "railway": "level_crossing"}}, {"type": "Feature", "geometry": {"type": "Point", "coordinates": [29.46835, 46.8247479]}, "properties": {"node_id": 7993946415, "railway": "level_crossing"}}, {"type": "Feature", "geometry": {"type": "Point", "coordinates": [29.466521, 46.8237847]}, "properties": {"node_id": 7994093240, "railway": "level_crossing"}}, {"type": "Feature", "geometry": {"type": "Point", "coordinates": [29.4666413, 46.8238867]}, "properties": {"node_id": 7994093266, "railway": "level_crossing"}}, {"type": "Feature", "geometry": {"type": "Point", "coordinates": [29.467589, 46.8231802]}, "properties": {"node_id": 7994118121, "railway": "level_crossing"}}, {"type": "Feature", "geometry": {"type": "Point", "coordinates": [29.4673679, 46.8232063]}, "properties": {"node_id": 7994118140, "railway": "level_crossing"}}, {"type": "Feature", "geometry": {"type": "Point", "coordinates": [29.4666967, 46.8217163]}, "properties": {"node_id": 7994118143, "railway": "level_crossing"}}, {"type": "Feature", "geometry": {"type": "Point", "coordinates": [29.466043, 46.8213094]}, "properties": {"node_id": 7994256008, "railway": "level_crossing"}}, {"type": "Feature", "geometry": {"type": "Point", "coordinates": [29.4661182, 46.8213493]}, "properties": {"node_id": 7994256018, "railway": "level_crossing"}}, {"type": "Feature", "geometry": {"type": "Point", "coordinates": [29.4675832, 46.8248805]}, "properties": {"node_id": 7994370750, "railway": "level_crossing"}}, {"type": "Feature", "geometry": {"type": "Point", "coordinates": [29.4685111, 46.82478]}, "properties": {"node_id": 7994408161, "railway": "level_crossing"}}, {"type": "Feature", "geometry": {"type": "Point", "coordinates": [29.470477, 46.8274525]}, "properties": {"node_id": 7994657673, "railway": "level_crossing"}}, {"type": "Feature", "geometry": {"type": "Point", "coordinates": [29.4783849, 46.7901351]}, "properties": {"node_id": 7994814465, "railway": "level_crossing"}}, {"type": "Feature", "geometry": {"type": "Point", "coordinates": [29.4697097, 46.8090073]}, "properties": {"node_id": 7996243029, "railway": "level_crossing"}}, {"type": "Feature", "geometry": {"type": "Point", "coordinates": [29.4796623, 46.8014693]}, "properties": {"node_id": 7996322476, "railway": "level_crossing"}}, {"type": "Feature", "geometry": {"type": "Point", "coordinates": [29.478357, 46.8010502]}, "properties": {"node_id": 7996326105, "railway": "level_crossing"}}, {"type": "Feature", "geometry": {"type": "Point", "coordinates": [29.4797491, 46.7983349]}, "properties": {"node_id": 7996326115, "railway": "level_crossing"}}, {"type": "Feature", "geometry": {"type": "Point", "coordinates": [29.488297, 46.7980019]}, "properties": {"node_id": 7996326161, "railway": "level_crossing"}}, {"type": "Feature", "geometry": {"type": "Point", "coordinates": [29.4909546, 46.7985338]}, "properties": {"node_id": 7996326166, "railway": "level_crossing"}}, {"type": "Feature", "geometry": {"type": "Point", "coordinates": [29.4788697, 46.8000266]}, "properties": {"node_id": 7996326187, "railway": "level_crossing"}}, {"type": "Feature", "geometry": {"type": "Point", "coordinates": [29.4804395, 46.8006746]}, "properties": {"node_id": 7996326188, "railway": "level_crossing"}}, {"type": "Feature", "geometry": {"type": "Point", "coordinates": [29.4883012, 46.7979921]}, "properties": {"node_id": 7996356809, "railway": "level_crossing"}}, {"type": "Feature", "geometry": {"type": "Point", "coordinates": [29.4799157, 46.7922698]}, "properties": {"node_id": 7996391097, "railway": "level_crossing"}}, {"type": "Feature", "geometry": {"type": "Point", "coordinates": [29.479918, 46.7915405]}, "properties": {"node_id": 7996391129, "railway": "level_crossing"}}, {"type": "Feature", "geometry": {"type": "Point", "coordinates": [29.4799628, 46.7918747]}, "properties": {"node_id": 7996391166, "railway": "level_crossing"}}, {"type": "Feature", "geometry": {"type": "Point", "coordinates": [29.4766412, 46.8317673]}, "properties": {"node_id": 7996474548, "railway": "level_crossing"}}, {"type": "Feature", "geometry": {"type": "Point", "coordinates": [29.4751745, 46.8316863]}, "properties": {"node_id": 7996474550, "railway": "level_crossing"}}, {"type": "Feature", "geometry": {"type": "Point", "coordinates": [29.4764953, 46.8354205]}, "properties": {"node_id": 7996662065, "railway": "level_crossing"}}, {"type": "Feature", "geometry": {"type": "Point", "coordinates": [29.4764265, 46.8354188]}, "properties": {"node_id": 7996662072, "railway": "level_crossing"}}, {"type": "Feature", "geometry": {"type": "Point", "coordinates": [29.4762989, 46.8372897]}, "properties": {"node_id": 7996662073, "railway": "level_crossing"}}, {"type": "Feature", "geometry": {"type": "Point", "coordinates": [29.4762336, 46.837288]}, "properties": {"node_id": 7996662076, "railway": "level_crossing"}}, {"type": "Feature", "geometry": {"type": "Point", "coordinates": [29.4763631, 46.8354172]}, "properties": {"node_id": 7996662079, "railway": "level_crossing"}}, {"type": "Feature", "geometry": {"type": "Point", "coordinates": [29.4761701, 46.8372864]}, "properties": {"node_id": 7996682786, "railway": "level_crossing"}}, {"type": "Feature", "geometry": {"type": "Point", "coordinates": [29.4767881, 46.8354279]}, "properties": {"node_id": 7996715386, "railway": "level_crossing"}}, {"type": "Feature", "geometry": {"type": "Point", "coordinates": [29.4766722, 46.8354249]}, "properties": {"node_id": 7996715398, "railway": "level_crossing"}}, {"type": "Feature", "geometry": {"type": "Point", "coordinates": [29.4765958, 46.8372972]}, "properties": {"node_id": 7996715406, "railway": "level_crossing"}}, {"type": "Feature", "geometry": {"type": "Point", "coordinates": [29.4765237, 46.8372954]}, "properties": {"node_id": 7996715421, "railway": "level_crossing"}}, {"type": "Feature", "geometry": {"type": "Point", "coordinates": [29.4766294, 46.8354239]}, "properties": {"node_id": 7996715429, "railway": "level_crossing"}}, {"type": "Feature", "geometry": {"type": "Point", "coordinates": [29.4768565, 46.8395429]}, "properties": {"node_id": 7996728219, "railway": "level_crossing"}}, {"type": "Feature", "geometry": {"type": "Point", "coordinates": [29.4767374, 46.8354266]}, "properties": {"node_id": 7996741448, "railway": "level_crossing"}}, {"type": "Feature", "geometry": {"type": "Point", "coordinates": [29.4766691, 46.8372991]}, "properties": {"node_id": 7996741458, "railway": "level_crossing"}}, {"type": "Feature", "geometry": {"type": "Point", "coordinates": [29.4768937, 46.8373047]}, "properties": {"node_id": 7996741470, "railway": "level_crossing"}}, {"type": "Feature", "geometry": {"type": "Point", "coordinates": [29.4768393, 46.8373034]}, "properties": {"node_id": 7996759385, "railway": "level_crossing"}}, {"type": "Feature", "geometry": {"type": "Point", "coordinates": [29.4769574, 46.8373064]}, "properties": {"node_id": 7996759405, "railway": "level_crossing"}}, {"type": "Feature", "geometry": {"type": "Point", "coordinates": [29.476825, 46.8354288]}, "properties": {"node_id": 7996907275, "railway": "level_crossing"}}, {"type": "Feature", "geometry": {"type": "Point", "coordinates": [29.4763534, 46.8354169]}, "properties": {"node_id": 7996907276, "railway": "level_crossing"}}, {"type": "Feature", "geometry": {"type": "Point", "coordinates": [29.4697682, 46.8090678]}, "properties": {"node_id": 8026857514, "railway": "level_crossing"}}, {"type": "Feature", "geometry": {"type": "Point", "coordinates": [29.4835422, 46.8608558]}, "properties": {"node_id": 8064180816, "railway": "level_crossing"}}, {"type": "Feature", "geometry": {"type": "Point", "coordinates": [29.4827653, 46.8590925]}, "properties": {"node_id": 8064180831, "railway": "level_crossing"}}, {"type": "Feature", "geometry": {"type": "Point", "coordinates": [29.4726866, 46.8499373]}, "properties": {"node_id": 8294592240, "railway": "level_crossing"}}, {"type": "Feature", "geometry": {"type": "Point", "coordinates": [29.4813845, 46.7855653]}, "properties": {"node_id": 11056116401, "railway": "level_crossing"}}, {"type": "Feature", "geometry": {"type": "Point", "coordinates": [29.4636429, 46.8142817]}, "properties": {"node_id": 12536407565, "railway": "level_crossing"}}, {"type": "Feature", "geometry": {"type": "Point", "coordinates": [29.4639414, 46.8144397]}, "properties": {"node_id": 12536407566, "railway": "level_crossing"}}, {"type": "Feature", "geometry": {"type": "Point", "coordinates": [29.478806, 46.8001541]}, "properties": {"node_id": 13093023686, "railway": "level_crossing"}}]}