{"type": "FeatureCollection", "note": "All real car entries per district (Stage 09B), connectivity by shared graph node.", "features": [{"type": "Feature", "geometry": {"type": "Point", "coordinates": [29.491285, 46.832225]}, "properties": {"entry_id": "Пар-000", "district_or_settlement": "Парканы", "basis": "osm_admin_boundary", "road_name": "Бендерский мост", "highway": "primary", "connected_to_city_graph": "True", "owner_review_required": "False"}}, {"type": "Feature", "geometry": {"type": "Point", "coordinates": [29.491253, 46.832322]}, "properties": {"entry_id": "Пар-001", "district_or_settlement": "Парканы", "basis": "osm_admin_boundary", "road_name": "Бендерский мост", "highway": "primary", "connected_to_city_graph": "True", "owner_review_required": "False"}}, {"type": "Feature", "geometry": {"type": "Point", "coordinates": [29.533922, 46.836334]}, "properties": {"entry_id": "Пар-002", "district_or_settlement": "Парканы", "basis": "osm_admin_boundary", "road_name": "Кишинёв-Тирасполь", "highway": "primary", "connected_to_city_graph": "True", "owner_review_required": "False"}}, {"type": "Feature", "geometry": {"type": "Point", "coordinates": [29.57089, 46.939957]}, "properties": {"entry_id": "Пар-003", "district_or_settlement": "Парканы", "basis": "osm_admin_boundary", "road_name": "", "highway": "tertiary", "connected_to_city_graph": "True", "owner_review_required": "False"}}, {"type": "Feature", "geometry": {"type": "Point", "coordinates": [29.526882, 46.781672]}, "properties": {"entry_id": "Пар-004", "district_or_settlement": "Парканы", "basis": "osm_admin_boundary", "road_name": "", "highway": "service", "connected_to_city_graph": "False", "owner_review_required": "True"}}, {"type": "Feature", "geometry": {"type": "Point", "coordinates": [29.532009, 46.896726]}, "properties": {"entry_id": "Пар-005", "district_or_settlement": "Парканы", "basis": "osm_admin_boundary", "road_name": "", "highway": "residential", "connected_to_city_graph": "True", "owner_review_required": "False"}}, {"type": "Feature", "geometry": {"type": "Point", "coordinates": [29.594368, 46.903775]}, "properties": {"entry_id": "Пар-006", "district_or_settlement": "Парканы", "basis": "osm_admin_boundary", "road_name": "", "highway": "trunk", "connected_to_city_graph": "True", "owner_review_required": "False"}}, {"type": "Feature", "geometry": {"type": "Point", "coordinates": [29.64796, 46.919275]}, "properties": {"entry_id": "Пар-007", "district_or_settlement": "Парканы", "basis": "osm_admin_boundary", "road_name": "", "highway": "trunk", "connected_to_city_graph": "True", "owner_review_required": "False"}}, {"type": "Feature", "geometry": {"type": "Point", "coordinates": [29.482058, 46.917176]}, "properties": {"entry_id": "Пар-008", "district_or_settlement": "Парканы", "basis": "osm_admin_boundary", "road_name": "улица Мира", "highway": "residential", "connected_to_city_graph": "False", "owner_review_required": "True"}}, {"type": "Feature", "geometry": {"type": "Point", "coordinates": [29.487143, 46.917002]}, "properties": {"entry_id": "Пар-009", "district_or_settlement": "Парканы", "basis": "osm_admin_boundary", "road_name": "Парканы-Бычок", "highway": "primary", "connected_to_city_graph": "True", "owner_review_required": "False"}}, {"type": "Feature", "geometry": {"type": "Point", "coordinates": [29.518134, 46.882923]}, "properties": {"entry_id": "Пар-010", "district_or_settlement": "Парканы", "basis": "osm_admin_boundary", "road_name": "", "highway": "residential", "connected_to_city_graph": "True", "owner_review_required": "False"}}, {"type": "Feature", "geometry": {"type": "Point", "coordinates": [29.535444, 46.821731]}, "properties": {"entry_id": "Пар-011", "district_or_settlement": "Парканы", "basis": "osm_admin_boundary", "road_name": "", "highway": "service", "connected_to_city_graph": "True", "owner_review_required": "False"}}, {"type": "Feature", "geometry": {"type": "Point", "coordinates": [29.534498, 46.833151]}, "properties": {"entry_id": "Пар-012", "district_or_settlement": "Парканы", "basis": "osm_admin_boundary", "road_name": "", "highway": "service", "connected_to_city_graph": "True", "owner_review_required": "False"}}, {"type": "Feature", "geometry": {"type": "Point", "coordinates": [29.571287, 46.940054]}, "properties": {"entry_id": "Пар-013", "district_or_settlement": "Парканы", "basis": "osm_admin_boundary", "road_name": "", "highway": "trunk", "connected_to_city_graph": "True", "owner_review_required": "False"}}, {"type": "Feature", "geometry": {"type": "Point", "coordinates": [29.511815, 46.922016]}, "properties": {"entry_id": "Пар-014", "district_or_settlement": "Парканы", "basis": "osm_admin_boundary", "road_name": "", "highway": "trunk", "connected_to_city_graph": "True", "owner_review_required": "False"}}, {"type": "Feature", "geometry": {"type": "Point", "coordinates": [29.476038, 46.799618]}, "properties": {"entry_id": "Гис-015", "district_or_settlement": "Гиска", "basis": "osm_admin_boundary", "road_name": "", "highway": "service", "connected_to_city_graph": "True", "owner_review_required": "False"}}, {"type": "Feature", "geometry": {"type": "Point", "coordinates": [29.476557, 46.799336]}, "properties": {"entry_id": "Гис-016", "district_or_settlement": "Гиска", "basis": "osm_admin_boundary", "road_name": "", "highway": "service", "connected_to_city_graph": "True", "owner_review_required": "False"}}, {"type": "Feature", "geometry": {"type": "Point", "coordinates": [29.460823, 46.800285]}, "properties": {"entry_id": "Гис-017", "district_or_settlement": "Гиска", "basis": "osm_admin_boundary", "road_name": "улица Ленина", "highway": "secondary", "connected_to_city_graph": "True", "owner_review_required": "False"}}, {"type": "Feature", "geometry": {"type": "Point", "coordinates": [29.476478, 46.790453]}, "properties": {"entry_id": "Гис-018", "district_or_settlement": "Гиска", "basis": "osm_admin_boundary", "road_name": "улица Мира", "highway": "residential", "connected_to_city_graph": "True", "owner_review_required": "False"}}, {"type": "Feature", "geometry": {"type": "Point", "coordinates": [29.476503, 46.792173]}, "properties": {"entry_id": "Гис-019", "district_or_settlement": "Гиска", "basis": "osm_admin_boundary", "road_name": "улица Суворова", "highway": "residential", "connected_to_city_graph": "True", "owner_review_required": "False"}}, {"type": "Feature", "geometry": {"type": "Point", "coordinates": [29.476548, 46.798739]}, "properties": {"entry_id": "Гис-020", "district_or_settlement": "Гиска", "basis": "osm_admin_boundary", "road_name": "", "highway": "service", "connected_to_city_graph": "True", "owner_review_required": "False"}}, {"type": "Feature", "geometry": {"type": "Point", "coordinates": [29.462873, 46.802748]}, "properties": {"entry_id": "Гис-021", "district_or_settlement": "Гиска", "basis": "osm_admin_boundary", "road_name": "", "highway": "service", "connected_to_city_graph": "True", "owner_review_required": "False"}}, {"type": "Feature", "geometry": {"type": "Point", "coordinates": [29.462491, 46.802343]}, "properties": {"entry_id": "Гис-022", "district_or_settlement": "Гиска", "basis": "osm_admin_boundary", "road_name": "", "highway": "service", "connected_to_city_graph": "True", "owner_review_required": "False"}}, {"type": "Feature", "geometry": {"type": "Point", "coordinates": [29.402227, 46.789332]}, "properties": {"entry_id": "Гис-023", "district_or_settlement": "Гиска", "basis": "osm_admin_boundary", "road_name": "Strada Ștefan cel Mare și Sfânt", "highway": "tertiary", "connected_to_city_graph": "True", "owner_review_required": "False"}}, {"type": "Feature", "geometry": {"type": "Point", "coordinates": [29.476295, 46.78173]}, "properties": {"entry_id": "Гис-024", "district_or_settlement": "Гиска", "basis": "osm_admin_boundary", "road_name": "улица 40 лет МССР", "highway": "residential", "connected_to_city_graph": "True", "owner_review_required": "False"}}, {"type": "Feature", "geometry": {"type": "Point", "coordinates": [29.47604, 46.78428]}, "properties": {"entry_id": "Гис-025", "district_or_settlement": "Гиска", "basis": "osm_admin_boundary", "road_name": "", "highway": "service", "connected_to_city_graph": "True", "owner_review_required": "False"}}, {"type": "Feature", "geometry": {"type": "Point", "coordinates": [29.400109, 46.775717]}, "properties": {"entry_id": "Гис-026", "district_or_settlement": "Гиска", "basis": "osm_admin_boundary", "road_name": "Гыска-Золотиевка", "highway": "secondary", "connected_to_city_graph": "True", "owner_review_required": "False"}}, {"type": "Feature", "geometry": {"type": "Point", "coordinates": [29.476185, 46.780447]}, "properties": {"entry_id": "Гис-027", "district_or_settlement": "Гиска", "basis": "osm_admin_boundary", "road_name": "", "highway": "service", "connected_to_city_graph": "True", "owner_review_required": "False"}}, {"type": "Feature", "geometry": {"type": "Point", "coordinates": [29.45027, 46.815936]}, "properties": {"entry_id": "Про-028", "district_or_settlement": "Протягайловка", "basis": "osm_admin_boundary", "road_name": "Главная улица", "highway": "residential", "connected_to_city_graph": "True", "owner_review_required": "False"}}, {"type": "Feature", "geometry": {"type": "Point", "coordinates": [29.447572, 46.830804]}, "properties": {"entry_id": "Про-029", "district_or_settlement": "Протягайловка", "basis": "osm_admin_boundary", "road_name": "улица Интернационалистов", "highway": "residential", "connected_to_city_graph": "True", "owner_review_required": "False"}}, {"type": "Feature", "geometry": {"type": "Point", "coordinates": [29.449523, 46.826609]}, "properties": {"entry_id": "Про-030", "district_or_settlement": "Протягайловка", "basis": "osm_admin_boundary", "road_name": "улица Кошевого", "highway": "residential", "connected_to_city_graph": "True", "owner_review_required": "False"}}, {"type": "Feature", "geometry": {"type": "Point", "coordinates": [29.452682, 46.81737]}, "properties": {"entry_id": "Про-031", "district_or_settlement": "Протягайловка", "basis": "osm_admin_boundary", "road_name": "Комсомольская улица", "highway": "residential", "connected_to_city_graph": "True", "owner_review_required": "False"}}, {"type": "Feature", "geometry": {"type": "Point", "coordinates": [29.451511, 46.848671]}, "properties": {"entry_id": "Про-032", "district_or_settlement": "Протягайловка", "basis": "osm_admin_boundary", "road_name": "Кишинёв-Тирасполь", "highway": "primary", "connected_to_city_graph": "True", "owner_review_required": "False"}}, {"type": "Feature", "geometry": {"type": "Point", "coordinates": [29.450435, 46.824941]}, "properties": {"entry_id": "Про-033", "district_or_settlement": "Протягайловка", "basis": "osm_admin_boundary", "road_name": "Санаторная улица", "highway": "residential", "connected_to_city_graph": "True", "owner_review_required": "False"}}, {"type": "Feature", "geometry": {"type": "Point", "coordinates": [29.451105, 46.822561]}, "properties": {"entry_id": "Про-034", "district_or_settlement": "Протягайловка", "basis": "osm_admin_boundary", "road_name": "Гербовецкая улица", "highway": "tertiary", "connected_to_city_graph": "True", "owner_review_required": "False"}}, {"type": "Feature", "geometry": {"type": "Point", "coordinates": [29.455148, 46.818624]}, "properties": {"entry_id": "Про-035", "district_or_settlement": "Протягайловка", "basis": "osm_admin_boundary", "road_name": "переулок Куйбышева", "highway": "residential", "connected_to_city_graph": "True", "owner_review_required": "False"}}, {"type": "Feature", "geometry": {"type": "Point", "coordinates": [29.453872, 46.81955]}, "properties": {"entry_id": "Про-036", "district_or_settlement": "Протягайловка", "basis": "osm_admin_boundary", "road_name": "", "highway": "service", "connected_to_city_graph": "True", "owner_review_required": "True"}}, {"type": "Feature", "geometry": {"type": "Point", "coordinates": [29.454004, 46.836556]}, "properties": {"entry_id": "Про-037", "district_or_settlement": "Протягайловка", "basis": "osm_admin_boundary", "road_name": "Пионерская улица", "highway": "residential", "connected_to_city_graph": "True", "owner_review_required": "False"}}, {"type": "Feature", "geometry": {"type": "Point", "coordinates": [29.448304, 46.828928]}, "properties": {"entry_id": "Про-038", "district_or_settlement": "Протягайловка", "basis": "osm_admin_boundary", "road_name": "переулок Полоза", "highway": "residential", "connected_to_city_graph": "True", "owner_review_required": "False"}}, {"type": "Feature", "geometry": {"type": "Point", "coordinates": [29.447001, 46.832976]}, "properties": {"entry_id": "Про-039", "district_or_settlement": "Протягайловка", "basis": "osm_admin_boundary", "road_name": "", "highway": "unclassified", "connected_to_city_graph": "True", "owner_review_required": "False"}}, {"type": "Feature", "geometry": {"type": "Point", "coordinates": [29.448158, 46.831018]}, "properties": {"entry_id": "Про-040", "district_or_settlement": "Протягайловка", "basis": "osm_admin_boundary", "road_name": "", "highway": "residential", "connected_to_city_graph": "True", "owner_review_required": "False"}}, {"type": "Feature", "geometry": {"type": "Point", "coordinates": [29.446649, 46.834376]}, "properties": {"entry_id": "Про-041", "district_or_settlement": "Протягайловка", "basis": "osm_admin_boundary", "road_name": "", "highway": "unclassified", "connected_to_city_graph": "True", "owner_review_required": "False"}}, {"type": "Feature", "geometry": {"type": "Point", "coordinates": [29.4557, 46.841477]}, "properties": {"entry_id": "Про-042", "district_or_settlement": "Протягайловка", "basis": "osm_admin_boundary", "road_name": "", "highway": "service", "connected_to_city_graph": "True", "owner_review_required": "False"}}, {"type": "Feature", "geometry": {"type": "Point", "coordinates": [29.449606, 46.835231]}, "properties": {"entry_id": "Про-043", "district_or_settlement": "Протягайловка", "basis": "osm_admin_boundary", "road_name": "", "highway": "service", "connected_to_city_graph": "True", "owner_review_required": "False"}}, {"type": "Feature", "geometry": {"type": "Point", "coordinates": [29.447901, 46.834716]}, "properties": {"entry_id": "Про-044", "district_or_settlement": "Протягайловка", "basis": "osm_admin_boundary", "road_name": "", "highway": "service", "connected_to_city_graph": "True", "owner_review_required": "False"}}, {"type": "Feature", "geometry": {"type": "Point", "coordinates": [29.446689, 46.833786]}, "properties": {"entry_id": "Про-045", "district_or_settlement": "Протягайловка", "basis": "osm_admin_boundary", "road_name": "", "highway": "service", "connected_to_city_graph": "True", "owner_review_required": "False"}}, {"type": "Feature", "geometry": {"type": "Point", "coordinates": [29.44883, 46.835019]}, "properties": {"entry_id": "Про-046", "district_or_settlement": "Протягайловка", "basis": "osm_admin_boundary", "road_name": "", "highway": "service", "connected_to_city_graph": "True", "owner_review_required": "False"}}, {"type": "Feature", "geometry": {"type": "Point", "coordinates": [29.39751, 46.834688]}, "properties": {"entry_id": "Про-047", "district_or_settlement": "Протягайловка", "basis": "osm_admin_boundary", "road_name": "", "highway": "tertiary", "connected_to_city_graph": "True", "owner_review_required": "False"}}, {"type": "Feature", "geometry": {"type": "Point", "coordinates": [29.438791, 46.858255]}, "properties": {"entry_id": "Про-048", "district_or_settlement": "Протягайловка", "basis": "osm_admin_boundary", "road_name": "Chișinău-Bender", "highway": "primary", "connected_to_city_graph": "True", "owner_review_required": "False"}}, {"type": "Feature", "geometry": {"type": "Point", "coordinates": [29.476708, 46.840533]}, "properties": {"entry_id": "Бор-049", "district_or_settlement": "Борисовка", "basis": "address_hull_buffer", "road_name": "Кишинёв-Тирасполь", "highway": "primary", "connected_to_city_graph": "True", "owner_review_required": "False"}}, {"type": "Feature", "geometry": {"type": "Point", "coordinates": [29.476599, 46.840723]}, "properties": {"entry_id": "Бор-050", "district_or_settlement": "Борисовка", "basis": "address_hull_buffer", "road_name": "", "highway": "primary", "connected_to_city_graph": "True", "owner_review_required": "False"}}, {"type": "Feature", "geometry": {"type": "Point", "coordinates": [29.469746, 46.845129]}, "properties": {"entry_id": "Бор-051", "district_or_settlement": "Борисовка", "basis": "address_hull_buffer", "road_name": "Ленинградская улица", "highway": "tertiary", "connected_to_city_graph": "True", "owner_review_required": "False"}}, {"type": "Feature", "geometry": {"type": "Point", "coordinates": [29.478226, 46.832931]}, "properties": {"entry_id": "Бор-052", "district_or_settlement": "Борисовка", "basis": "address_hull_buffer", "road_name": "", "highway": "service", "connected_to_city_graph": "True", "owner_review_required": "False"}}, {"type": "Feature", "geometry": {"type": "Point", "coordinates": [29.46182, 46.830387]}, "properties": {"entry_id": "Бор-053", "district_or_settlement": "Борисовка", "basis": "address_hull_buffer", "road_name": "Железнодорожная улица", "highway": "residential", "connected_to_city_graph": "True", "owner_review_required": "False"}}, {"type": "Feature", "geometry": {"type": "Point", "coordinates": [29.460185, 46.84311]}, "properties": {"entry_id": "Бор-054", "district_or_settlement": "Борисовка", "basis": "address_hull_buffer", "road_name": "Кишинёвская улица", "highway": "primary", "connected_to_city_graph": "True", "owner_review_required": "False"}}, {"type": "Feature", "geometry": {"type": "Point", "coordinates": [29.476431, 46.831474]}, "properties": {"entry_id": "Бор-055", "district_or_settlement": "Борисовка", "basis": "address_hull_buffer", "road_name": "улица Дзержинского", "highway": "residential", "connected_to_city_graph": "True", "owner_review_required": "False"}}, {"type": "Feature", "geometry": {"type": "Point", "coordinates": [29.475193, 46.842196]}, "properties": {"entry_id": "Бор-056", "district_or_settlement": "Борисовка", "basis": "address_hull_buffer", "road_name": "", "highway": "residential", "connected_to_city_graph": "True", "owner_review_required": "False"}}, {"type": "Feature", "geometry": {"type": "Point", "coordinates": [29.463462, 46.845472]}, "properties": {"entry_id": "Бор-057", "district_or_settlement": "Борисовка", "basis": "address_hull_buffer", "road_name": "улица Зои Космодемьянской", "highway": "residential", "connected_to_city_graph": "True", "owner_review_required": "False"}}, {"type": "Feature", "geometry": {"type": "Point", "coordinates": [29.470175, 46.844993]}, "properties": {"entry_id": "Бор-058", "district_or_settlement": "Борисовка", "basis": "address_hull_buffer", "road_name": "улица Титова", "highway": "residential", "connected_to_city_graph": "True", "owner_review_required": "False"}}, {"type": "Feature", "geometry": {"type": "Point", "coordinates": [29.468271, 46.845408]}, "properties": {"entry_id": "Бор-059", "district_or_settlement": "Борисовка", "basis": "address_hull_buffer", "road_name": "Спортивная улица", "highway": "residential", "connected_to_city_graph": "True", "owner_review_required": "False"}}, {"type": "Feature", "geometry": {"type": "Point", "coordinates": [29.450934, 46.831701]}, "properties": {"entry_id": "Бор-060", "district_or_settlement": "Борисовка", "basis": "address_hull_buffer", "road_name": "улица Интернационалистов", "highway": "residential", "connected_to_city_graph": "True", "owner_review_required": "False"}}, {"type": "Feature", "geometry": {"type": "Point", "coordinates": [29.461395, 46.830431]}, "properties": {"entry_id": "Бор-061", "district_or_settlement": "Борисовка", "basis": "address_hull_buffer", "road_name": "улица 50 лет ВЛКСМ", "highway": "tertiary", "connected_to_city_graph": "True", "owner_review_required": "False"}}, {"type": "Feature", "geometry": {"type": "Point", "coordinates": [29.461743, 46.830395]}, "properties": {"entry_id": "Бор-062", "district_or_settlement": "Борисовка", "basis": "address_hull_buffer", "road_name": "", "highway": "service", "connected_to_city_graph": "True", "owner_review_required": "False"}}, {"type": "Feature", "geometry": {"type": "Point", "coordinates": [29.464806, 46.845706]}, "properties": {"entry_id": "Бор-063", "district_or_settlement": "Борисовка", "basis": "address_hull_buffer", "road_name": "", "highway": "service", "connected_to_city_graph": "True", "owner_review_required": "False"}}, {"type": "Feature", "geometry": {"type": "Point", "coordinates": [29.465418, 46.845731]}, "properties": {"entry_id": "Бор-064", "district_or_settlement": "Борисовка", "basis": "address_hull_buffer", "road_name": "", "highway": "service", "connected_to_city_graph": "True", "owner_review_required": "False"}}, {"type": "Feature", "geometry": {"type": "Point", "coordinates": [29.462671, 46.844961]}, "properties": {"entry_id": "Бор-065", "district_or_settlement": "Борисовка", "basis": "address_hull_buffer", "road_name": "Варницкий переулок", "highway": "residential", "connected_to_city_graph": "True", "owner_review_required": "False"}}, {"type": "Feature", "geometry": {"type": "Point", "coordinates": [29.461375, 46.844072]}, "properties": {"entry_id": "Бор-066", "district_or_settlement": "Борисовка", "basis": "address_hull_buffer", "road_name": "", "highway": "service", "connected_to_city_graph": "True", "owner_review_required": "False"}}, {"type": "Feature", "geometry": {"type": "Point", "coordinates": [29.460842, 46.843686]}, "properties": {"entry_id": "Бор-067", "district_or_settlement": "Борисовка", "basis": "address_hull_buffer", "road_name": "", "highway": "service", "connected_to_city_graph": "True", "owner_review_required": "False"}}, {"type": "Feature", "geometry": {"type": "Point", "coordinates": [29.454551, 46.831173]}, "properties": {"entry_id": "Бор-068", "district_or_settlement": "Борисовка", "basis": "address_hull_buffer", "road_name": "улица Павлика Морозова", "highway": "residential", "connected_to_city_graph": "True", "owner_review_required": "False"}}, {"type": "Feature", "geometry": {"type": "Point", "coordinates": [29.460521, 46.830521]}, "properties": {"entry_id": "Бор-069", "district_or_settlement": "Борисовка", "basis": "address_hull_buffer", "road_name": "Пионерская улица", "highway": "service", "connected_to_city_graph": "True", "owner_review_required": "False"}}, {"type": "Feature", "geometry": {"type": "Point", "coordinates": [29.45656, 46.830951]}, "properties": {"entry_id": "Бор-070", "district_or_settlement": "Борисовка", "basis": "address_hull_buffer", "road_name": "", "highway": "service", "connected_to_city_graph": "True", "owner_review_required": "False"}}, {"type": "Feature", "geometry": {"type": "Point", "coordinates": [29.458819, 46.830702]}, "properties": {"entry_id": "Бор-071", "district_or_settlement": "Борисовка", "basis": "address_hull_buffer", "road_name": "", "highway": "service", "connected_to_city_graph": "True", "owner_review_required": "False"}}, {"type": "Feature", "geometry": {"type": "Point", "coordinates": [29.458176, 46.830773]}, "properties": {"entry_id": "Бор-072", "district_or_settlement": "Борисовка", "basis": "address_hull_buffer", "road_name": "переулок Осипенко", "highway": "residential", "connected_to_city_graph": "True", "owner_review_required": "False"}}, {"type": "Feature", "geometry": {"type": "Point", "coordinates": [29.451338, 46.831541]}, "properties": {"entry_id": "Бор-073", "district_or_settlement": "Борисовка", "basis": "address_hull_buffer", "road_name": "", "highway": "service", "connected_to_city_graph": "True", "owner_review_required": "False"}}, {"type": "Feature", "geometry": {"type": "Point", "coordinates": [29.453295, 46.837054]}, "properties": {"entry_id": "Бор-074", "district_or_settlement": "Борисовка", "basis": "address_hull_buffer", "road_name": "Пионерская улица", "highway": "residential", "connected_to_city_graph": "True", "owner_review_required": "False"}}, {"type": "Feature", "geometry": {"type": "Point", "coordinates": [29.470118, 46.829527]}, "properties": {"entry_id": "Бор-075", "district_or_settlement": "Борисовка", "basis": "address_hull_buffer", "road_name": "Деповская улица", "highway": "residential", "connected_to_city_graph": "True", "owner_review_required": "False"}}, {"type": "Feature", "geometry": {"type": "Point", "coordinates": [29.472417, 46.829488]}, "properties": {"entry_id": "Бор-076", "district_or_settlement": "Борисовка", "basis": "address_hull_buffer", "road_name": "Деповская улица", "highway": "residential", "connected_to_city_graph": "True", "owner_review_required": "False"}}, {"type": "Feature", "geometry": {"type": "Point", "coordinates": [29.457958, 46.841152]}, "properties": {"entry_id": "Бор-077", "district_or_settlement": "Борисовка", "basis": "address_hull_buffer", "road_name": "", "highway": "service", "connected_to_city_graph": "True", "owner_review_required": "False"}}, {"type": "Feature", "geometry": {"type": "Point", "coordinates": [29.46777, 46.845497]}, "properties": {"entry_id": "Бор-078", "district_or_settlement": "Борисовка", "basis": "address_hull_buffer", "road_name": "", "highway": "service", "connected_to_city_graph": "True", "owner_review_required": "False"}}, {"type": "Feature", "geometry": {"type": "Point", "coordinates": [29.451156, 46.831596]}, "properties": {"entry_id": "Бор-079", "district_or_settlement": "Борисовка", "basis": "address_hull_buffer", "road_name": "", "highway": "service", "connected_to_city_graph": "True", "owner_review_required": "False"}}, {"type": "Feature", "geometry": {"type": "Point", "coordinates": [29.45601, 46.83944]}, "properties": {"entry_id": "Бор-080", "district_or_settlement": "Борисовка", "basis": "address_hull_buffer", "road_name": "", "highway": "service", "connected_to_city_graph": "True", "owner_review_required": "False"}}, {"type": "Feature", "geometry": {"type": "Point", "coordinates": [29.460538, 46.84342]}, "properties": {"entry_id": "Бор-081", "district_or_settlement": "Борисовка", "basis": "address_hull_buffer", "road_name": "", "highway": "service", "connected_to_city_graph": "True", "owner_review_required": "False"}}, {"type": "Feature", "geometry": {"type": "Point", "coordinates": [29.459002, 46.84207]}, "properties": {"entry_id": "Бор-082", "district_or_settlement": "Борисовка", "basis": "address_hull_buffer", "road_name": "", "highway": "service", "connected_to_city_graph": "True", "owner_review_required": "False"}}, {"type": "Feature", "geometry": {"type": "Point", "coordinates": [29.4546, 46.831168]}, "properties": {"entry_id": "Бор-083", "district_or_settlement": "Борисовка", "basis": "address_hull_buffer", "road_name": "", "highway": "service", "connected_to_city_graph": "True", "owner_review_required": "False"}}, {"type": "Feature", "geometry": {"type": "Point", "coordinates": [29.460995, 46.843804]}, "properties": {"entry_id": "Бор-084", "district_or_settlement": "Борисовка", "basis": "address_hull_buffer", "road_name": "", "highway": "service", "connected_to_city_graph": "True", "owner_review_required": "False"}}, {"type": "Feature", "geometry": {"type": "Point", "coordinates": [29.466392, 46.845739]}, "properties": {"entry_id": "Бор-085", "district_or_settlement": "Борисовка", "basis": "address_hull_buffer", "road_name": "", "highway": "service", "connected_to_city_graph": "True", "owner_review_required": "True"}}, {"type": "Feature", "geometry": {"type": "Point", "coordinates": [29.464489, 46.83011]}, "properties": {"entry_id": "Бор-086", "district_or_settlement": "Борисовка", "basis": "address_hull_buffer", "road_name": "улица Бендерского Восстания", "highway": "primary", "connected_to_city_graph": "True", "owner_review_required": "False"}}, {"type": "Feature", "geometry": {"type": "Point", "coordinates": [29.450882, 46.831731]}, "properties": {"entry_id": "Бор-087", "district_or_settlement": "Борисовка", "basis": "address_hull_buffer", "road_name": "", "highway": "service", "connected_to_city_graph": "True", "owner_review_required": "False"}}, {"type": "Feature", "geometry": {"type": "Point", "coordinates": [29.459624, 46.842617]}, "properties": {"entry_id": "Бор-088", "district_or_settlement": "Борисовка", "basis": "address_hull_buffer", "road_name": "", "highway": "service", "connected_to_city_graph": "True", "owner_review_required": "False"}}, {"type": "Feature", "geometry": {"type": "Point", "coordinates": [29.457492, 46.840743]}, "properties": {"entry_id": "Бор-089", "district_or_settlement": "Борисовка", "basis": "address_hull_buffer", "road_name": "", "highway": "service", "connected_to_city_graph": "True", "owner_review_required": "False"}}, {"type": "Feature", "geometry": {"type": "Point", "coordinates": [29.457795, 46.841009]}, "properties": {"entry_id": "Бор-090", "district_or_settlement": "Борисовка", "basis": "address_hull_buffer", "road_name": "", "highway": "service", "connected_to_city_graph": "True", "owner_review_required": "False"}}, {"type": "Feature", "geometry": {"type": "Point", "coordinates": [29.462372, 46.844765]}, "properties": {"entry_id": "Бор-091", "district_or_settlement": "Борисовка", "basis": "address_hull_buffer", "road_name": "улица Ермакова", "highway": "primary", "connected_to_city_graph": "True", "owner_review_required": "False"}}, {"type": "Feature", "geometry": {"type": "Point", "coordinates": [29.473656, 46.843749]}, "properties": {"entry_id": "Бор-092", "district_or_settlement": "Борисовка", "basis": "address_hull_buffer", "road_name": "", "highway": "service", "connected_to_city_graph": "True", "owner_review_required": "False"}}, {"type": "Feature", "geometry": {"type": "Point", "coordinates": [29.477392, 46.832253]}, "properties": {"entry_id": "Бор-093", "district_or_settlement": "Борисовка", "basis": "address_hull_buffer", "road_name": "", "highway": "service", "connected_to_city_graph": "True", "owner_review_required": "False"}}, {"type": "Feature", "geometry": {"type": "Point", "coordinates": [29.46459, 46.845697]}, "properties": {"entry_id": "Бор-094", "district_or_settlement": "Борисовка", "basis": "address_hull_buffer", "road_name": "улица 40 лет Победы", "highway": "tertiary", "connected_to_city_graph": "True", "owner_review_required": "False"}}, {"type": "Feature", "geometry": {"type": "Point", "coordinates": [29.474273, 46.84313]}, "properties": {"entry_id": "Бор-095", "district_or_settlement": "Борисовка", "basis": "address_hull_buffer", "road_name": "", "highway": "service", "connected_to_city_graph": "True", "owner_review_required": "False"}}, {"type": "Feature", "geometry": {"type": "Point", "coordinates": [29.472668, 46.830529]}, "properties": {"entry_id": "Бор-096", "district_or_settlement": "Борисовка", "basis": "rail_level_crossing_node", "road_name": "(railway level_crossing)", "highway": "level_crossing", "connected_to_city_graph": "True", "owner_review_required": "False"}}, {"type": "Feature", "geometry": {"type": "Point", "coordinates": [29.476381, 46.837292]}, "properties": {"entry_id": "Бор-097", "district_or_settlement": "Борисовка", "basis": "rail_level_crossing_node", "road_name": "(railway level_crossing)", "highway": "level_crossing", "connected_to_city_graph": "True", "owner_review_required": "False"}}, {"type": "Feature", "geometry": {"type": "Point", "coordinates": [29.476755, 46.837301]}, "properties": {"entry_id": "Бор-098", "district_or_settlement": "Борисовка", "basis": "rail_level_crossing_node", "road_name": "(railway level_crossing)", "highway": "level_crossing", "connected_to_city_graph": "True", "owner_review_required": "False"}}, {"type": "Feature", "geometry": {"type": "Point", "coordinates": [29.473332, 46.828807]}, "properties": {"entry_id": "Бор-099", "district_or_settlement": "Борисовка", "basis": "rail_level_crossing_node", "road_name": "(railway level_crossing)", "highway": "level_crossing", "connected_to_city_graph": "True", "owner_review_required": "False"}}, {"type": "Feature", "geometry": {"type": "Point", "coordinates": [29.475112, 46.831705]}, "properties": {"entry_id": "Бор-100", "district_or_settlement": "Борисовка", "basis": "rail_level_crossing_node", "road_name": "(railway level_crossing)", "highway": "level_crossing", "connected_to_city_graph": "True", "owner_review_required": "False"}}, {"type": "Feature", "geometry": {"type": "Point", "coordinates": [29.476648, 46.831719]}, "properties": {"entry_id": "Бор-101", "district_or_settlement": "Борисовка", "basis": "rail_level_crossing_node", "road_name": "(railway level_crossing)", "highway": "level_crossing", "connected_to_city_graph": "True", "owner_review_required": "False"}}, {"type": "Feature", "geometry": {"type": "Point", "coordinates": [29.469605, 46.829]}, "properties": {"entry_id": "Бор-102", "district_or_settlement": "Борисовка", "basis": "rail_level_crossing_node", "road_name": "(railway level_crossing)", "highway": "level_crossing", "connected_to_city_graph": "True", "owner_review_required": "False"}}, {"type": "Feature", "geometry": {"type": "Point", "coordinates": [29.475025, 46.831732]}, "properties": {"entry_id": "Бор-103", "district_or_settlement": "Борисовка", "basis": "rail_level_crossing_node", "road_name": "(railway level_crossing)", "highway": "level_crossing", "connected_to_city_graph": "True", "owner_review_required": "False"}}, {"type": "Feature", "geometry": {"type": "Point", "coordinates": [29.474878, 46.831776]}, "properties": {"entry_id": "Бор-104", "district_or_settlement": "Борисовка", "basis": "rail_level_crossing_node", "road_name": "(railway level_crossing)", "highway": "level_crossing", "connected_to_city_graph": "True", "owner_review_required": "False"}}, {"type": "Feature", "geometry": {"type": "Point", "coordinates": [29.474946, 46.831756]}, "properties": {"entry_id": "Бор-105", "district_or_settlement": "Борисовка", "basis": "rail_level_crossing_node", "road_name": "(railway level_crossing)", "highway": "level_crossing", "connected_to_city_graph": "True", "owner_review_required": "False"}}, {"type": "Feature", "geometry": {"type": "Point", "coordinates": [29.474755, 46.831816]}, "properties": {"entry_id": "Бор-106", "district_or_settlement": "Борисовка", "basis": "rail_level_crossing_node", "road_name": "(railway level_crossing)", "highway": "level_crossing", "connected_to_city_graph": "True", "owner_review_required": "False"}}, {"type": "Feature", "geometry": {"type": "Point", "coordinates": [29.475091, 46.831711]}, "properties": {"entry_id": "Бор-107", "district_or_settlement": "Борисовка", "basis": "rail_level_crossing_node", "road_name": "(railway level_crossing)", "highway": "level_crossing", "connected_to_city_graph": "True", "owner_review_required": "False"}}, {"type": "Feature", "geometry": {"type": "Point", "coordinates": [29.473208, 46.828847]}, "properties": {"entry_id": "Бор-108", "district_or_settlement": "Борисовка", "basis": "rail_level_crossing_node", "road_name": "(railway level_crossing)", "highway": "level_crossing", "connected_to_city_graph": "True", "owner_review_required": "False"}}, {"type": "Feature", "geometry": {"type": "Point", "coordinates": [29.476641, 46.831767]}, "properties": {"entry_id": "Бор-109", "district_or_settlement": "Борисовка", "basis": "rail_level_crossing_node", "road_name": "(railway level_crossing)", "highway": "level_crossing", "connected_to_city_graph": "True", "owner_review_required": "False"}}, {"type": "Feature", "geometry": {"type": "Point", "coordinates": [29.475175, 46.831686]}, "properties": {"entry_id": "Бор-110", "district_or_settlement": "Борисовка", "basis": "rail_level_crossing_node", "road_name": "(railway level_crossing)", "highway": "level_crossing", "connected_to_city_graph": "True", "owner_review_required": "False"}}, {"type": "Feature", "geometry": {"type": "Point", "coordinates": [29.476495, 46.83542]}, "properties": {"entry_id": "Бор-111", "district_or_settlement": "Борисовка", "basis": "rail_level_crossing_node", "road_name": "(railway level_crossing)", "highway": "level_crossing", "connected_to_city_graph": "True", "owner_review_required": "False"}}, {"type": "Feature", "geometry": {"type": "Point", "coordinates": [29.476426, 46.835419]}, "properties": {"entry_id": "Бор-112", "district_or_settlement": "Борисовка", "basis": "rail_level_crossing_node", "road_name": "(railway level_crossing)", "highway": "level_crossing", "connected_to_city_graph": "True", "owner_review_required": "False"}}, {"type": "Feature", "geometry": {"type": "Point", "coordinates": [29.476299, 46.83729]}, "properties": {"entry_id": "Бор-113", "district_or_settlement": "Борисовка", "basis": "rail_level_crossing_node", "road_name": "(railway level_crossing)", "highway": "level_crossing", "connected_to_city_graph": "True", "owner_review_required": "False"}}, {"type": "Feature", "geometry": {"type": "Point", "coordinates": [29.476234, 46.837288]}, "properties": {"entry_id": "Бор-114", "district_or_settlement": "Борисовка", "basis": "rail_level_crossing_node", "road_name": "(railway level_crossing)", "highway": "level_crossing", "connected_to_city_graph": "True", "owner_review_required": "False"}}, {"type": "Feature", "geometry": {"type": "Point", "coordinates": [29.476363, 46.835417]}, "properties": {"entry_id": "Бор-115", "district_or_settlement": "Борисовка", "basis": "rail_level_crossing_node", "road_name": "(railway level_crossing)", "highway": "level_crossing", "connected_to_city_graph": "True", "owner_review_required": "False"}}, {"type": "Feature", "geometry": {"type": "Point", "coordinates": [29.47617, 46.837286]}, "properties": {"entry_id": "Бор-116", "district_or_settlement": "Борисовка", "basis": "rail_level_crossing_node", "road_name": "(railway level_crossing)", "highway": "level_crossing", "connected_to_city_graph": "True", "owner_review_required": "False"}}, {"type": "Feature", "geometry": {"type": "Point", "coordinates": [29.476788, 46.835428]}, "properties": {"entry_id": "Бор-117", "district_or_settlement": "Борисовка", "basis": "rail_level_crossing_node", "road_name": "(railway level_crossing)", "highway": "level_crossing", "connected_to_city_graph": "True", "owner_review_required": "False"}}, {"type": "Feature", "geometry": {"type": "Point", "coordinates": [29.476672, 46.835425]}, "properties": {"entry_id": "Бор-118", "district_or_settlement": "Борисовка", "basis": "rail_level_crossing_node", "road_name": "(railway level_crossing)", "highway": "level_crossing", "connected_to_city_graph": "True", "owner_review_required": "False"}}, {"type": "Feature", "geometry": {"type": "Point", "coordinates": [29.476596, 46.837297]}, "properties": {"entry_id": "Бор-119", "district_or_settlement": "Борисовка", "basis": "rail_level_crossing_node", "road_name": "(railway level_crossing)", "highway": "level_crossing", "connected_to_city_graph": "True", "owner_review_required": "False"}}, {"type": "Feature", "geometry": {"type": "Point", "coordinates": [29.476524, 46.837295]}, "properties": {"entry_id": "Бор-120", "district_or_settlement": "Борисовка", "basis": "rail_level_crossing_node", "road_name": "(railway level_crossing)", "highway": "level_crossing", "connected_to_city_graph": "True", "owner_review_required": "False"}}, {"type": "Feature", "geometry": {"type": "Point", "coordinates": [29.476629, 46.835424]}, "properties": {"entry_id": "Бор-121", "district_or_settlement": "Борисовка", "basis": "rail_level_crossing_node", "road_name": "(railway level_crossing)", "highway": "level_crossing", "connected_to_city_graph": "True", "owner_review_required": "False"}}, {"type": "Feature", "geometry": {"type": "Point", "coordinates": [29.476857, 46.839543]}, "properties": {"entry_id": "Бор-122", "district_or_settlement": "Борисовка", "basis": "rail_level_crossing_node", "road_name": "(railway level_crossing)", "highway": "level_crossing", "connected_to_city_graph": "True", "owner_review_required": "False"}}, {"type": "Feature", "geometry": {"type": "Point", "coordinates": [29.476737, 46.835427]}, "properties": {"entry_id": "Бор-123", "district_or_settlement": "Борисовка", "basis": "rail_level_crossing_node", "road_name": "(railway level_crossing)", "highway": "level_crossing", "connected_to_city_graph": "True", "owner_review_required": "False"}}, {"type": "Feature", "geometry": {"type": "Point", "coordinates": [29.476669, 46.837299]}, "properties": {"entry_id": "Бор-124", "district_or_settlement": "Борисовка", "basis": "rail_level_crossing_node", "road_name": "(railway level_crossing)", "highway": "level_crossing", "connected_to_city_graph": "True", "owner_review_required": "False"}}, {"type": "Feature", "geometry": {"type": "Point", "coordinates": [29.476894, 46.837305]}, "properties": {"entry_id": "Бор-125", "district_or_settlement": "Борисовка", "basis": "rail_level_crossing_node", "road_name": "(railway level_crossing)", "highway": "level_crossing", "connected_to_city_graph": "True", "owner_review_required": "False"}}, {"type": "Feature", "geometry": {"type": "Point", "coordinates": [29.476839, 46.837303]}, "properties": {"entry_id": "Бор-126", "district_or_settlement": "Борисовка", "basis": "rail_level_crossing_node", "road_name": "(railway level_crossing)", "highway": "level_crossing", "connected_to_city_graph": "True", "owner_review_required": "False"}}, {"type": "Feature", "geometry": {"type": "Point", "coordinates": [29.476957, 46.837306]}, "properties": {"entry_id": "Бор-127", "district_or_settlement": "Борисовка", "basis": "rail_level_crossing_node", "road_name": "(railway level_crossing)", "highway": "level_crossing", "connected_to_city_graph": "True", "owner_review_required": "False"}}, {"type": "Feature", "geometry": {"type": "Point", "coordinates": [29.476825, 46.835429]}, "properties": {"entry_id": "Бор-128", "district_or_settlement": "Борисовка", "basis": "rail_level_crossing_node", "road_name": "(railway level_crossing)", "highway": "level_crossing", "connected_to_city_graph": "True", "owner_review_required": "False"}}, {"type": "Feature", "geometry": {"type": "Point", "coordinates": [29.476353, 46.835417]}, "properties": {"entry_id": "Бор-129", "district_or_settlement": "Борисовка", "basis": "rail_level_crossing_node", "road_name": "(railway level_crossing)", "highway": "level_crossing", "connected_to_city_graph": "True", "owner_review_required": "False"}}, {"type": "Feature", "geometry": {"type": "Point", "coordinates": [29.473112, 46.823375]}, "properties": {"entry_id": "Хом-130", "district_or_settlement": "Хомутяновка", "basis": "address_hull_buffer", "road_name": "Московская улица", "highway": "residential", "connected_to_city_graph": "True", "owner_review_required": "False"}}, {"type": "Feature", "geometry": {"type": "Point", "coordinates": [29.473278, 46.827907]}, "properties": {"entry_id": "Хом-131", "district_or_settlement": "Хомутяновка", "basis": "address_hull_buffer", "road_name": "улица Академика Фёдорова", "highway": "residential", "connected_to_city_graph": "True", "owner_review_required": "False"}}, {"type": "Feature", "geometry": {"type": "Point", "coordinates": [29.466202, 46.817638]}, "properties": {"entry_id": "Хом-132", "district_or_settlement": "Хомутяновка", "basis": "address_hull_buffer", "road_name": "улица Георге Асаке", "highway": "residential", "connected_to_city_graph": "True", "owner_review_required": "False"}}, {"type": "Feature", "geometry": {"type": "Point", "coordinates": [29.471941, 46.831398]}, "properties": {"entry_id": "Хом-133", "district_or_settlement": "Хомутяновка", "basis": "address_hull_buffer", "road_name": "Кишинёвская улица", "highway": "tertiary", "connected_to_city_graph": "True", "owner_review_required": "False"}}, {"type": "Feature", "geometry": {"type": "Point", "coordinates": [29.447987, 46.817544]}, "properties": {"entry_id": "Хом-134", "district_or_settlement": "Хомутяновка", "basis": "address_hull_buffer", "road_name": "Главная улица", "highway": "residential", "connected_to_city_graph": "True", "owner_review_required": "False"}}, {"type": "Feature", "geometry": {"type": "Point", "coordinates": [29.473247, 46.825854]}, "properties": {"entry_id": "Хом-135", "district_or_settlement": "Хомутяновка", "basis": "address_hull_buffer", "road_name": "улица Ленина", "highway": "residential", "connected_to_city_graph": "True", "owner_review_required": "False"}}, {"type": "Feature", "geometry": {"type": "Point", "coordinates": [29.470177, 46.818895]}, "properties": {"entry_id": "Хом-136", "district_or_settlement": "Хомутяновка", "basis": "address_hull_buffer", "road_name": "улица Дзержинского", "highway": "residential", "connected_to_city_graph": "True", "owner_review_required": "False"}}, {"type": "Feature", "geometry": {"type": "Point", "coordinates": [29.471576, 46.819512]}, "properties": {"entry_id": "Хом-137", "district_or_settlement": "Хомутяновка", "basis": "address_hull_buffer", "road_name": "улица Кавриаго", "highway": "residential", "connected_to_city_graph": "True", "owner_review_required": "False"}}, {"type": "Feature", "geometry": {"type": "Point", "coordinates": [29.457156, 46.833777]}, "properties": {"entry_id": "Хом-138", "district_or_settlement": "Хомутяновка", "basis": "address_hull_buffer", "road_name": "улица Интернационалистов", "highway": "residential", "connected_to_city_graph": "True", "owner_review_required": "False"}}, {"type": "Feature", "geometry": {"type": "Point", "coordinates": [29.463002, 46.833103]}, "properties": {"entry_id": "Хом-139", "district_or_settlement": "Хомутяновка", "basis": "address_hull_buffer", "road_name": "Фонтанная улица", "highway": "residential", "connected_to_city_graph": "True", "owner_review_required": "False"}}, {"type": "Feature", "geometry": {"type": "Point", "coordinates": [29.464244, 46.832958]}, "properties": {"entry_id": "Хом-140", "district_or_settlement": "Хомутяновка", "basis": "address_hull_buffer", "road_name": "улица Ивана Шимкова", "highway": "residential", "connected_to_city_graph": "True", "owner_review_required": "False"}}, {"type": "Feature", "geometry": {"type": "Point", "coordinates": [29.462302, 46.833184]}, "properties": {"entry_id": "Хом-141", "district_or_settlement": "Хомутяновка", "basis": "address_hull_buffer", "road_name": "улица 12 Октября", "highway": "residential", "connected_to_city_graph": "True", "owner_review_required": "False"}}, {"type": "Feature", "geometry": {"type": "Point", "coordinates": [29.466487, 46.817728]}, "properties": {"entry_id": "Хом-142", "district_or_settlement": "Хомутяновка", "basis": "address_hull_buffer", "road_name": "Первомайская улица", "highway": "residential", "connected_to_city_graph": "True", "owner_review_required": "False"}}, {"type": "Feature", "geometry": {"type": "Point", "coordinates": [29.472998, 46.830774]}, "properties": {"entry_id": "Хом-143", "district_or_settlement": "Хомутяновка", "basis": "address_hull_buffer", "road_name": "", "highway": "service", "connected_to_city_graph": "True", "owner_review_required": "False"}}, {"type": "Feature", "geometry": {"type": "Point", "coordinates": [29.464339, 46.817048]}, "properties": {"entry_id": "Хом-144", "district_or_settlement": "Хомутяновка", "basis": "address_hull_buffer", "road_name": "Путейская улица", "highway": "residential", "connected_to_city_graph": "True", "owner_review_required": "False"}}, {"type": "Feature", "geometry": {"type": "Point", "coordinates": [29.455883, 46.833911]}, "properties": {"entry_id": "Хом-145", "district_or_settlement": "Хомутяновка", "basis": "address_hull_buffer", "road_name": "", "highway": "service", "connected_to_city_graph": "True", "owner_review_required": "False"}}, {"type": "Feature", "geometry": {"type": "Point", "coordinates": [29.454349, 46.813931]}, "properties": {"entry_id": "Хом-146", "district_or_settlement": "Хомутяновка", "basis": "address_hull_buffer", "road_name": "", "highway": "service", "connected_to_city_graph": "True", "owner_review_required": "False"}}, {"type": "Feature", "geometry": {"type": "Point", "coordinates": [29.458315, 46.833646]}, "properties": {"entry_id": "Хом-147", "district_or_settlement": "Хомутяновка", "basis": "address_hull_buffer", "road_name": "Пионерская улица", "highway": "residential", "connected_to_city_graph": "True", "owner_review_required": "False"}}, {"type": "Feature", "geometry": {"type": "Point", "coordinates": [29.448649, 46.833176]}, "properties": {"entry_id": "Хом-148", "district_or_settlement": "Хомутяновка", "basis": "address_hull_buffer", "road_name": "", "highway": "residential", "connected_to_city_graph": "True", "owner_review_required": "False"}}, {"type": "Feature", "geometry": {"type": "Point", "coordinates": [29.453002, 46.813513]}, "properties": {"entry_id": "Хом-149", "district_or_settlement": "Хомутяновка", "basis": "address_hull_buffer", "road_name": "улица Чернышевского", "highway": "residential", "connected_to_city_graph": "True", "owner_review_required": "False"}}, {"type": "Feature", "geometry": {"type": "Point", "coordinates": [29.470238, 46.818914]}, "properties": {"entry_id": "Хом-150", "district_or_settlement": "Хомутяновка", "basis": "address_hull_buffer", "road_name": "", "highway": "service", "connected_to_city_graph": "True", "owner_review_required": "False"}}, {"type": "Feature", "geometry": {"type": "Point", "coordinates": [29.461752, 46.816234]}, "properties": {"entry_id": "Хом-151", "district_or_settlement": "Хомутяновка", "basis": "address_hull_buffer", "road_name": "", "highway": "service", "connected_to_city_graph": "True", "owner_review_required": "False"}}, {"type": "Feature", "geometry": {"type": "Point", "coordinates": [29.447583, 46.83205]}, "properties": {"entry_id": "Хом-152", "district_or_settlement": "Хомутяновка", "basis": "address_hull_buffer", "road_name": "", "highway": "residential", "connected_to_city_graph": "True", "owner_review_required": "False"}}, {"type": "Feature", "geometry": {"type": "Point", "coordinates": [29.456443, 46.814582]}, "properties": {"entry_id": "Хом-153", "district_or_settlement": "Хомутяновка", "basis": "address_hull_buffer", "road_name": "", "highway": "service", "connected_to_city_graph": "True", "owner_review_required": "False"}}, {"type": "Feature", "geometry": {"type": "Point", "coordinates": [29.452299, 46.83429]}, "properties": {"entry_id": "Хом-154", "district_or_settlement": "Хомутяновка", "basis": "address_hull_buffer", "road_name": "", "highway": "service", "connected_to_city_graph": "True", "owner_review_required": "False"}}, {"type": "Feature", "geometry": {"type": "Point", "coordinates": [29.458398, 46.833636]}, "properties": {"entry_id": "Хом-155", "district_or_settlement": "Хомутяновка", "basis": "address_hull_buffer", "road_name": "", "highway": "service", "connected_to_city_graph": "True", "owner_review_required": "False"}}, {"type": "Feature", "geometry": {"type": "Point", "coordinates": [29.473254, 46.826301]}, "properties": {"entry_id": "Хом-156", "district_or_settlement": "Хомутяновка", "basis": "address_hull_buffer", "road_name": "", "highway": "service", "connected_to_city_graph": "True", "owner_review_required": "False"}}, {"type": "Feature", "geometry": {"type": "Point", "coordinates": [29.472567, 46.82133]}, "properties": {"entry_id": "Хом-157", "district_or_settlement": "Хомутяновка", "basis": "address_hull_buffer", "road_name": "Комсомольская улица", "highway": "residential", "connected_to_city_graph": "True", "owner_review_required": "False"}}, {"type": "Feature", "geometry": {"type": "Point", "coordinates": [29.454963, 46.834009]}, "properties": {"entry_id": "Хом-158", "district_or_settlement": "Хомутяновка", "basis": "address_hull_buffer", "road_name": "", "highway": "service", "connected_to_city_graph": "True", "owner_review_required": "False"}}, {"type": "Feature", "geometry": {"type": "Point", "coordinates": [29.467255, 46.832351]}, "properties": {"entry_id": "Хом-159", "district_or_settlement": "Хомутяновка", "basis": "address_hull_buffer", "road_name": "", "highway": "service", "connected_to_city_graph": "True", "owner_review_required": "True"}}, {"type": "Feature", "geometry": {"type": "Point", "coordinates": [29.469275, 46.83194]}, "properties": {"entry_id": "Хом-160", "district_or_settlement": "Хомутяновка", "basis": "address_hull_buffer", "road_name": "", "highway": "service", "connected_to_city_graph": "True", "owner_review_required": "True"}}, {"type": "Feature", "geometry": {"type": "Point", "coordinates": [29.465524, 46.832703]}, "properties": {"entry_id": "Хом-161", "district_or_settlement": "Хомутяновка", "basis": "address_hull_buffer", "road_name": "улица Бендерского Восстания", "highway": "primary", "connected_to_city_graph": "True", "owner_review_required": "False"}}, {"type": "Feature", "geometry": {"type": "Point", "coordinates": [29.453819, 46.813767]}, "properties": {"entry_id": "Хом-162", "district_or_settlement": "Хомутяновка", "basis": "address_hull_buffer", "road_name": "Протягайловская улица", "highway": "residential", "connected_to_city_graph": "True", "owner_review_required": "False"}}, {"type": "Feature", "geometry": {"type": "Point", "coordinates": [29.473268, 46.82723]}, "properties": {"entry_id": "Хом-163", "district_or_settlement": "Хомутяновка", "basis": "address_hull_buffer", "road_name": "улица Сергея Лазо", "highway": "residential", "connected_to_city_graph": "True", "owner_review_required": "False"}}, {"type": "Feature", "geometry": {"type": "Point", "coordinates": [29.45906, 46.815394]}, "properties": {"entry_id": "Хом-164", "district_or_settlement": "Хомутяновка", "basis": "address_hull_buffer", "road_name": "улица Бендерского Восстания", "highway": "primary", "connected_to_city_graph": "True", "owner_review_required": "False"}}, {"type": "Feature", "geometry": {"type": "Point", "coordinates": [29.472572, 46.831172]}, "properties": {"entry_id": "Хом-165", "district_or_settlement": "Хомутяновка", "basis": "address_hull_buffer", "road_name": "", "highway": "service", "connected_to_city_graph": "True", "owner_review_required": "False"}}, {"type": "Feature", "geometry": {"type": "Point", "coordinates": [29.454752, 46.814056]}, "properties": {"entry_id": "Хом-166", "district_or_settlement": "Хомутяновка", "basis": "address_hull_buffer", "road_name": "", "highway": "service", "connected_to_city_graph": "True", "owner_review_required": "False"}}, {"type": "Feature", "geometry": {"type": "Point", "coordinates": [29.446931, 46.822121]}, "properties": {"entry_id": "Хом-167", "district_or_settlement": "Хомутяновка", "basis": "address_hull_buffer", "road_name": "Гербовецкий переулок", "highway": "residential", "connected_to_city_graph": "True", "owner_review_required": "False"}}, {"type": "Feature", "geometry": {"type": "Point", "coordinates": [29.446365, 46.828667]}, "properties": {"entry_id": "Хом-168", "district_or_settlement": "Хомутяновка", "basis": "address_hull_buffer", "road_name": "", "highway": "residential", "connected_to_city_graph": "True", "owner_review_required": "False"}}, {"type": "Feature", "geometry": {"type": "Point", "coordinates": [29.446671, 46.830567]}, "properties": {"entry_id": "Хом-169", "district_or_settlement": "Хомутяновка", "basis": "address_hull_buffer", "road_name": "улица 50 лет Победы", "highway": "residential", "connected_to_city_graph": "True", "owner_review_required": "False"}}, {"type": "Feature", "geometry": {"type": "Point", "coordinates": [29.446777, 46.822793]}, "properties": {"entry_id": "Хом-170", "district_or_settlement": "Хомутяновка", "basis": "address_hull_buffer", "road_name": "Гербовецкая улица", "highway": "tertiary", "connected_to_city_graph": "True", "owner_review_required": "False"}}, {"type": "Feature", "geometry": {"type": "Point", "coordinates": [29.446711, 46.830797]}, "properties": {"entry_id": "Хом-171", "district_or_settlement": "Хомутяновка", "basis": "address_hull_buffer", "road_name": "", "highway": "living_street", "connected_to_city_graph": "True", "owner_review_required": "False"}}, {"type": "Feature", "geometry": {"type": "Point", "coordinates": [29.446261, 46.828027]}, "properties": {"entry_id": "Хом-172", "district_or_settlement": "Хомутяновка", "basis": "address_hull_buffer", "road_name": "Луговая улица", "highway": "residential", "connected_to_city_graph": "True", "owner_review_required": "False"}}, {"type": "Feature", "geometry": {"type": "Point", "coordinates": [29.468155, 46.825947]}, "properties": {"entry_id": "Хом-173", "district_or_settlement": "Хомутяновка", "basis": "rail_level_crossing_node", "road_name": "(railway level_crossing)", "highway": "level_crossing", "connected_to_city_graph": "True", "owner_review_required": "False"}}, {"type": "Feature", "geometry": {"type": "Point", "coordinates": [29.472668, 46.830529]}, "properties": {"entry_id": "Хом-174", "district_or_settlement": "Хомутяновка", "basis": "rail_level_crossing_node", "road_name": "(railway level_crossing)", "highway": "level_crossing", "connected_to_city_graph": "True", "owner_review_required": "False"}}, {"type": "Feature", "geometry": {"type": "Point", "coordinates": [29.465929, 46.821258]}, "properties": {"entry_id": "Хом-175", "district_or_settlement": "Хомутяновка", "basis": "rail_level_crossing_node", "road_name": "(railway level_crossing)", "highway": "level_crossing", "connected_to_city_graph": "True", "owner_review_required": "False"}}, {"type": "Feature", "geometry": {"type": "Point", "coordinates": [29.466563, 46.821663]}, "properties": {"entry_id": "Хом-176", "district_or_settlement": "Хомутяновка", "basis": "rail_level_crossing_node", "road_name": "(railway level_crossing)", "highway": "level_crossing", "connected_to_city_graph": "True", "owner_review_required": "False"}}, {"type": "Feature", "geometry": {"type": "Point", "coordinates": [29.467533, 46.824844]}, "properties": {"entry_id": "Хом-177", "district_or_settlement": "Хомутяновка", "basis": "rail_level_crossing_node", "road_name": "(railway level_crossing)", "highway": "level_crossing", "connected_to_city_graph": "True", "owner_review_required": "False"}}, {"type": "Feature", "geometry": {"type": "Point", "coordinates": [29.471025, 46.826732]}, "properties": {"entry_id": "Хом-178", "district_or_settlement": "Хомутяновка", "basis": "rail_level_crossing_node", "road_name": "(railway level_crossing)", "highway": "level_crossing", "connected_to_city_graph": "True", "owner_review_required": "False"}}, {"type": "Feature", "geometry": {"type": "Point", "coordinates": [29.46479, 46.818544]}, "properties": {"entry_id": "Хом-179", "district_or_settlement": "Хомутяновка", "basis": "rail_level_crossing_node", "road_name": "(railway level_crossing)", "highway": "level_crossing", "connected_to_city_graph": "True", "owner_review_required": "False"}}, {"type": "Feature", "geometry": {"type": "Point", "coordinates": [29.471219, 46.826663]}, "properties": {"entry_id": "Хом-180", "district_or_settlement": "Хомутяновка", "basis": "rail_level_crossing_node", "road_name": "(railway level_crossing)", "highway": "level_crossing", "connected_to_city_graph": "True", "owner_review_required": "False"}}, {"type": "Feature", "geometry": {"type": "Point", "coordinates": [29.465046, 46.818463]}, "properties": {"entry_id": "Хом-181", "district_or_settlement": "Хомутяновка", "basis": "rail_level_crossing_node", "road_name": "(railway level_crossing)", "highway": "level_crossing", "connected_to_city_graph": "True", "owner_review_required": "False"}}, {"type": "Feature", "geometry": {"type": "Point", "coordinates": [29.471086, 46.82671]}, "properties": {"entry_id": "Хом-182", "district_or_settlement": "Хомутяновка", "basis": "rail_level_crossing_node", "road_name": "(railway level_crossing)", "highway": "level_crossing", "connected_to_city_graph": "True", "owner_review_required": "False"}}, {"type": "Feature", "geometry": {"type": "Point", "coordinates": [29.471614, 46.826602]}, "properties": {"entry_id": "Хом-183", "district_or_settlement": "Хомутяновка", "basis": "rail_level_crossing_node", "road_name": "(railway level_crossing)", "highway": "level_crossing", "connected_to_city_graph": "True", "owner_review_required": "False"}}, {"type": "Feature", "geometry": {"type": "Point", "coordinates": [29.473332, 46.828807]}, "properties": {"entry_id": "Хом-184", "district_or_settlement": "Хомутяновка", "basis": "rail_level_crossing_node", "road_name": "(railway level_crossing)", "highway": "level_crossing", "connected_to_city_graph": "True", "owner_review_required": "False"}}, {"type": "Feature", "geometry": {"type": "Point", "coordinates": [29.469605, 46.829]}, "properties": {"entry_id": "Хом-185", "district_or_settlement": "Хомутяновка", "basis": "rail_level_crossing_node", "road_name": "(railway level_crossing)", "highway": "level_crossing", "connected_to_city_graph": "True", "owner_review_required": "False"}}, {"type": "Feature", "geometry": {"type": "Point", "coordinates": [29.468059, 46.821237]}, "properties": {"entry_id": "Хом-186", "district_or_settlement": "Хомутяновка", "basis": "rail_level_crossing_node", "road_name": "(railway level_crossing)", "highway": "level_crossing", "connected_to_city_graph": "True", "owner_review_required": "False"}}, {"type": "Feature", "geometry": {"type": "Point", "coordinates": [29.464912, 46.818501]}, "properties": {"entry_id": "Хом-187", "district_or_settlement": "Хомутяновка", "basis": "rail_level_crossing_node", "road_name": "(railway level_crossing)", "highway": "level_crossing", "connected_to_city_graph": "True", "owner_review_required": "False"}}, {"type": "Feature", "geometry": {"type": "Point", "coordinates": [29.471299, 46.826639]}, "properties": {"entry_id": "Хом-188", "district_or_settlement": "Хомутяновка", "basis": "rail_level_crossing_node", "road_name": "(railway level_crossing)", "highway": "level_crossing", "connected_to_city_graph": "True", "owner_review_required": "False"}}, {"type": "Feature", "geometry": {"type": "Point", "coordinates": [29.471158, 46.826687]}, "properties": {"entry_id": "Хом-189", "district_or_settlement": "Хомутяновка", "basis": "rail_level_crossing_node", "road_name": "(railway level_crossing)", "highway": "level_crossing", "connected_to_city_graph": "True", "owner_review_required": "False"}}, {"type": "Feature", "geometry": {"type": "Point", "coordinates": [29.470858, 46.826792]}, "properties": {"entry_id": "Хом-190", "district_or_settlement": "Хомутяновка", "basis": "rail_level_crossing_node", "road_name": "(railway level_crossing)", "highway": "level_crossing", "connected_to_city_graph": "True", "owner_review_required": "False"}}, {"type": "Feature", "geometry": {"type": "Point", "coordinates": [29.471371, 46.826615]}, "properties": {"entry_id": "Хом-191", "district_or_settlement": "Хомутяновка", "basis": "rail_level_crossing_node", "road_name": "(railway level_crossing)", "highway": "level_crossing", "connected_to_city_graph": "True", "owner_review_required": "False"}}, {"type": "Feature", "geometry": {"type": "Point", "coordinates": [29.471458, 46.826583]}, "properties": {"entry_id": "Хом-192", "district_or_settlement": "Хомутяновка", "basis": "rail_level_crossing_node", "road_name": "(railway level_crossing)", "highway": "level_crossing", "connected_to_city_graph": "True", "owner_review_required": "False"}}, {"type": "Feature", "geometry": {"type": "Point", "coordinates": [29.473208, 46.828847]}, "properties": {"entry_id": "Хом-193", "district_or_settlement": "Хомутяновка", "basis": "rail_level_crossing_node", "road_name": "(railway level_crossing)", "highway": "level_crossing", "connected_to_city_graph": "True", "owner_review_required": "False"}}, {"type": "Feature", "geometry": {"type": "Point", "coordinates": [29.470971, 46.826751]}, "properties": {"entry_id": "Хом-194", "district_or_settlement": "Хомутяновка", "basis": "rail_level_crossing_node", "road_name": "(railway level_crossing)", "highway": "level_crossing", "connected_to_city_graph": "True", "owner_review_required": "False"}}, {"type": "Feature", "geometry": {"type": "Point", "coordinates": [29.470911, 46.826774]}, "properties": {"entry_id": "Хом-195", "district_or_settlement": "Хомутяновка", "basis": "rail_level_crossing_node", "road_name": "(railway level_crossing)", "highway": "level_crossing", "connected_to_city_graph": "True", "owner_review_required": "False"}}, {"type": "Feature", "geometry": {"type": "Point", "coordinates": [29.470804, 46.826811]}, "properties": {"entry_id": "Хом-196", "district_or_settlement": "Хомутяновка", "basis": "rail_level_crossing_node", "road_name": "(railway level_crossing)", "highway": "level_crossing", "connected_to_city_graph": "True", "owner_review_required": "False"}}, {"type": "Feature", "geometry": {"type": "Point", "coordinates": [29.470624, 46.826772]}, "properties": {"entry_id": "Хом-197", "district_or_settlement": "Хомутяновка", "basis": "rail_level_crossing_node", "road_name": "(railway level_crossing)", "highway": "level_crossing", "connected_to_city_graph": "True", "owner_review_required": "False"}}, {"type": "Feature", "geometry": {"type": "Point", "coordinates": [29.47068, 46.826751]}, "properties": {"entry_id": "Хом-198", "district_or_settlement": "Хомутяновка", "basis": "rail_level_crossing_node", "road_name": "(railway level_crossing)", "highway": "level_crossing", "connected_to_city_graph": "True", "owner_review_required": "False"}}, {"type": "Feature", "geometry": {"type": "Point", "coordinates": [29.470571, 46.82679]}, "properties": {"entry_id": "Хом-199", "district_or_settlement": "Хомутяновка", "basis": "rail_level_crossing_node", "road_name": "(railway level_crossing)", "highway": "level_crossing", "connected_to_city_graph": "True", "owner_review_required": "False"}}, {"type": "Feature", "geometry": {"type": "Point", "coordinates": [29.465376, 46.823654]}, "properties": {"entry_id": "Хом-200", "district_or_settlement": "Хомутяновка", "basis": "rail_level_crossing_node", "road_name": "(railway level_crossing)", "highway": "level_crossing", "connected_to_city_graph": "True", "owner_review_required": "False"}}, {"type": "Feature", "geometry": {"type": "Point", "coordinates": [29.46754, 46.823194]}, "properties": {"entry_id": "Хом-201", "district_or_settlement": "Хомутяновка", "basis": "rail_level_crossing_node", "road_name": "(railway level_crossing)", "highway": "level_crossing", "connected_to_city_graph": "True", "owner_review_required": "False"}}, {"type": "Feature", "geometry": {"type": "Point", "coordinates": [29.468441, 46.824792]}, "properties": {"entry_id": "Хом-202", "district_or_settlement": "Хомутяновка", "basis": "rail_level_crossing_node", "road_name": "(railway level_crossing)", "highway": "level_crossing", "connected_to_city_graph": "True", "owner_review_required": "False"}}, {"type": "Feature", "geometry": {"type": "Point", "coordinates": [29.469333, 46.827974]}, "properties": {"entry_id": "Хом-203", "district_or_settlement": "Хомутяновка", "basis": "rail_level_crossing_node", "road_name": "(railway level_crossing)", "highway": "level_crossing", "connected_to_city_graph": "True", "owner_review_required": "False"}}, {"type": "Feature", "geometry": {"type": "Point", "coordinates": [29.468688, 46.828514]}, "properties": {"entry_id": "Хом-204", "district_or_settlement": "Хомутяновка", "basis": "rail_level_crossing_node", "road_name": "(railway level_crossing)", "highway": "level_crossing", "connected_to_city_graph": "True", "owner_review_required": "False"}}, {"type": "Feature", "geometry": {"type": "Point", "coordinates": [29.470503, 46.827451]}, "properties": {"entry_id": "Хом-205", "district_or_settlement": "Хомутяновка", "basis": "rail_level_crossing_node", "road_name": "(railway level_crossing)", "highway": "level_crossing", "connected_to_city_graph": "True", "owner_review_required": "False"}}, {"type": "Feature", "geometry": {"type": "Point", "coordinates": [29.470164, 46.826626]}, "properties": {"entry_id": "Хом-206", "district_or_settlement": "Хомутяновка", "basis": "rail_level_crossing_node", "road_name": "(railway level_crossing)", "highway": "level_crossing", "connected_to_city_graph": "True", "owner_review_required": "False"}}, {"type": "Feature", "geometry": {"type": "Point", "coordinates": [29.46835, 46.824748]}, "properties": {"entry_id": "Хом-207", "district_or_settlement": "Хомутяновка", "basis": "rail_level_crossing_node", "road_name": "(railway level_crossing)", "highway": "level_crossing", "connected_to_city_graph": "True", "owner_review_required": "False"}}, {"type": "Feature", "geometry": {"type": "Point", "coordinates": [29.466521, 46.823785]}, "properties": {"entry_id": "Хом-208", "district_or_settlement": "Хомутяновка", "basis": "rail_level_crossing_node", "road_name": "(railway level_crossing)", "highway": "level_crossing", "connected_to_city_graph": "True", "owner_review_required": "False"}}, {"type": "Feature", "geometry": {"type": "Point", "coordinates": [29.466641, 46.823887]}, "properties": {"entry_id": "Хом-209", "district_or_settlement": "Хомутяновка", "basis": "rail_level_crossing_node", "road_name": "(railway level_crossing)", "highway": "level_crossing", "connected_to_city_graph": "True", "owner_review_required": "False"}}, {"type": "Feature", "geometry": {"type": "Point", "coordinates": [29.467589, 46.82318]}, "properties": {"entry_id": "Хом-210", "district_or_settlement": "Хомутяновка", "basis": "rail_level_crossing_node", "road_name": "(railway level_crossing)", "highway": "level_crossing", "connected_to_city_graph": "True", "owner_review_required": "False"}}, {"type": "Feature", "geometry": {"type": "Point", "coordinates": [29.467368, 46.823206]}, "properties": {"entry_id": "Хом-211", "district_or_settlement": "Хомутяновка", "basis": "rail_level_crossing_node", "road_name": "(railway level_crossing)", "highway": "level_crossing", "connected_to_city_graph": "True", "owner_review_required": "False"}}, {"type": "Feature", "geometry": {"type": "Point", "coordinates": [29.466697, 46.821716]}, "properties": {"entry_id": "Хом-212", "district_or_settlement": "Хомутяновка", "basis": "rail_level_crossing_node", "road_name": "(railway level_crossing)", "highway": "level_crossing", "connected_to_city_graph": "True", "owner_review_required": "False"}}, {"type": "Feature", "geometry": {"type": "Point", "coordinates": [29.466043, 46.821309]}, "properties": {"entry_id": "Хом-213", "district_or_settlement": "Хомутяновка", "basis": "rail_level_crossing_node", "road_name": "(railway level_crossing)", "highway": "level_crossing", "connected_to_city_graph": "True", "owner_review_required": "False"}}, {"type": "Feature", "geometry": {"type": "Point", "coordinates": [29.466118, 46.821349]}, "properties": {"entry_id": "Хом-214", "district_or_settlement": "Хомутяновка", "basis": "rail_level_crossing_node", "road_name": "(railway level_crossing)", "highway": "level_crossing", "connected_to_city_graph": "True", "owner_review_required": "False"}}, {"type": "Feature", "geometry": {"type": "Point", "coordinates": [29.467583, 46.82488]}, "properties": {"entry_id": "Хом-215", "district_or_settlement": "Хомутяновка", "basis": "rail_level_crossing_node", "road_name": "(railway level_crossing)", "highway": "level_crossing", "connected_to_city_graph": "True", "owner_review_required": "False"}}, {"type": "Feature", "geometry": {"type": "Point", "coordinates": [29.468511, 46.82478]}, "properties": {"entry_id": "Хом-216", "district_or_settlement": "Хомутяновка", "basis": "rail_level_crossing_node", "road_name": "(railway level_crossing)", "highway": "level_crossing", "connected_to_city_graph": "True", "owner_review_required": "False"}}, {"type": "Feature", "geometry": {"type": "Point", "coordinates": [29.470477, 46.827452]}, "properties": {"entry_id": "Хом-217", "district_or_settlement": "Хомутяновка", "basis": "rail_level_crossing_node", "road_name": "(railway level_crossing)", "highway": "level_crossing", "connected_to_city_graph": "True", "owner_review_required": "False"}}]}