{"type": "FeatureCollection", "source": {"provider": "EasyWay route №5 (owner ground truth); easyway web bot-blocked (HTTP 403) — verified vs OSM", "usage": "proof of car connectivity only; no stop loops enforced", "owner_review_required": true}, "features": [{"type": "Feature", "geometry": {"type": "LineString", "coordinates": [[29.4763602, 46.8011179], [29.4757298, 46.8016283], [29.4754336, 46.8018557], [29.4748994, 46.802281], [29.4745358, 46.8025705], [29.4742959, 46.8027615], [29.4735973, 46.8033305], [29.473161, 46.8036652], [29.4722536, 46.8044056], [29.4715649, 46.8049359], [29.4710274, 46.8053601], [29.4701859, 46.8060244], [29.4695179, 46.8065517], [29.4687174, 46.8071835], [29.4686558, 46.8072321], [29.4673488, 46.8071999]]}, "properties": {"corridor_street": "улица Дружбы", "osm_way_id": 45858821, "highway": "primary", "kind": "route5_south_corridor"}}, {"type": "Feature", "geometry": {"type": "LineString", "coordinates": [[29.4686558, 46.8072321], [29.4679188, 46.8078151]]}, "properties": {"corridor_street": "улица Дружбы", "osm_way_id": 103643505, "highway": "secondary", "kind": "route5_south_corridor"}}, {"type": "Feature", "geometry": {"type": "LineString", "coordinates": [[29.5124429, 46.8583187], [29.5118361, 46.8608199], [29.5111195, 46.8639246]]}, "properties": {"corridor_street": "улица Дружбы", "osm_way_id": 83039115, "highway": "residential", "kind": "route5_south_corridor"}}, {"type": "Feature", "geometry": {"type": "LineString", "coordinates": [[29.4673488, 46.8071999], [29.4655561, 46.8074727], [29.4655044, 46.8074805], [29.4651186, 46.8075392], [29.4650465, 46.8075502], [29.4648079, 46.8075865], [29.4639349, 46.8077194], [29.4628597, 46.807883], [29.4626735, 46.8079113], [29.4622386, 46.8079775], [29.4603032, 46.8082719], [29.4591869, 46.8084418]]}, "properties": {"corridor_street": "улица Ечина", "osm_way_id": 63221780, "highway": "primary", "kind": "route5_south_corridor"}}, {"type": "Feature", "geometry": {"type": "LineString", "coordinates": [[29.4591869, 46.8084418], [29.458931, 46.8084954], [29.4586826, 46.8085708], [29.4584922, 46.808687], [29.4584867, 46.8086916], [29.4583331, 46.8088218], [29.4582147, 46.8089766], [29.4581518, 46.8091026], [29.4581005, 46.8092487]]}, "properties": {"corridor_street": "улица Ечина", "osm_way_id": 410946399, "highway": "primary", "kind": "route5_south_corridor"}}, {"type": "Feature", "geometry": {"type": "LineString", "coordinates": [[29.4657573, 46.8202748], [29.4655141, 46.8203548], [29.4653268, 46.820383], [29.464513, 46.820628], [29.4642369, 46.8206994], [29.4633133, 46.8210372], [29.4629248, 46.8211559], [29.4622511, 46.8213369], [29.4616661, 46.8214725], [29.4610018, 46.8215709]]}, "properties": {"corridor_street": "улица Старого", "osm_way_id": 525055331, "highway": "residential", "kind": "route5_south_corridor"}}, {"type": "Feature", "geometry": {"type": "LineString", "coordinates": [[29.4555502, 46.8225673], [29.454586, 46.8227251]]}, "properties": {"corridor_street": "улица Старого", "osm_way_id": 680093938, "highway": "tertiary", "kind": "route5_south_corridor"}}, {"type": "Feature", "geometry": {"type": "LineString", "coordinates": [[29.4610018, 46.8215709], [29.4603235, 46.8217023], [29.4597454, 46.8218143], [29.458491, 46.8220461], [29.457033, 46.8223112], [29.4562186, 46.8224481], [29.4559404, 46.8224948], [29.4555502, 46.8225673]]}, "properties": {"corridor_street": "улица Старого", "osm_way_id": 680093941, "highway": "tertiary", "kind": "route5_south_corridor"}}, {"type": "Feature", "geometry": {"type": "LineString", "coordinates": [[29.4792577, 46.8302545], [29.4778161, 46.8271991], [29.4772606, 46.8260126], [29.477238, 46.8259617], [29.4772102, 46.8258988], [29.476991, 46.8254042], [29.4768946, 46.8251869], [29.4768371, 46.8250571], [29.4768328, 46.8250474], [29.4767573, 46.8248776], [29.4767097, 46.8247705], [29.4766609, 46.8246596], [29.4763751, 46.8240098], [29.4757945, 46.8227036], [29.4757712, 46.8226497]]}, "properties": {"corridor_street": "улица Кирова", "osm_way_id": 41851869, "highway": "residential", "kind": "route5_south_corridor"}}, {"type": "Feature", "geometry": {"type": "LineString", "coordinates": [[29.4741989, 46.8189205], [29.4742759, 46.8190976], [29.4742851, 46.8191188], [29.4745999, 46.8198434], [29.4750179, 46.8207871], [29.4750612, 46.8208787], [29.4750986, 46.8209624], [29.4751779, 46.82114], [29.4755732, 46.8220252], [29.4758124, 46.822561], [29.4757712, 46.8226497]]}, "properties": {"corridor_street": "улица Кирова", "osm_way_id": 162030338, "highway": "residential", "kind": "route5_south_corridor"}}, {"type": "Feature", "geometry": {"type": "LineString", "coordinates": [[29.4757712, 46.8226497], [29.4756526, 46.8225975], [29.4749411, 46.8209989], [29.4748599, 46.8208218], [29.4744488, 46.8198719], [29.4741078, 46.8191187], [29.4740343, 46.8189563]]}, "properties": {"corridor_street": "улица Кирова", "osm_way_id": 162030339, "highway": "residential", "kind": "route5_south_corridor"}}, {"type": "Feature", "geometry": {"type": "LineString", "coordinates": [[29.4725445, 46.8152011], [29.4728343, 46.8158923], [29.4733058, 46.8170761]]}, "properties": {"corridor_street": "улица Кирова", "osm_way_id": 222913850, "highway": "residential", "kind": "route5_south_corridor"}}, {"type": "Feature", "geometry": {"type": "LineString", "coordinates": [[29.5099108, 46.8483447], [29.5098901, 46.8484278], [29.5098471, 46.8484875], [29.5095455, 46.8488667], [29.5092636, 46.8492261], [29.5089785, 46.8495816], [29.5085195, 46.8501637], [29.5079675, 46.8508217], [29.5074226, 46.8515202], [29.5072015, 46.8518042], [29.50706, 46.8520515], [29.5065949, 46.8529788]]}, "properties": {"corridor_street": "улица Кирова", "osm_way_id": 83039104, "highway": "residential", "kind": "route5_south_corridor"}}, {"type": "Feature", "geometry": {"type": "LineString", "coordinates": [[29.5124868, 46.8453161], [29.5111549, 46.8468669], [29.5098611, 46.8483211]]}, "properties": {"corridor_street": "улица Кирова", "osm_way_id": 439155434, "highway": "residential", "kind": "route5_south_corridor"}}, {"type": "Feature", "geometry": {"type": "LineString", "coordinates": [[29.4729892, 46.7926077], [29.4719496, 46.7905924], [29.4717873, 46.7900476], [29.4715803, 46.7893531], [29.4713105, 46.7878515]]}, "properties": {"corridor_street": "улица Кирова", "osm_way_id": 223970478, "highway": "residential", "kind": "route5_south_corridor"}}, {"type": "Feature", "geometry": {"type": "LineString", "coordinates": [[29.4720424, 46.8262269], [29.473371, 46.8258152], [29.4749968, 46.8253413], [29.4751248, 46.8252987], [29.4756368, 46.825128], [29.4758954, 46.8250419], [29.4765992, 46.8248073], [29.4767097, 46.8247705], [29.4782667, 46.8242758]]}, "properties": {"corridor_street": "улица Ленина", "osm_way_id": 87497002, "highway": "residential", "kind": "route5_south_corridor"}}, {"type": "Feature", "geometry": {"type": "LineString", "coordinates": [[29.4896907, 46.8216602], [29.4884053, 46.8214655], [29.4881127, 46.8214284], [29.4880155, 46.82142], [29.4879404, 46.8214185], [29.4878224, 46.821431], [29.4874656, 46.8215304], [29.4867869, 46.8217236]]}, "properties": {"corridor_street": "улица Ленина", "osm_way_id": 87506322, "highway": "residential", "kind": "route5_south_corridor"}}, {"type": "Feature", "geometry": {"type": "LineString", "coordinates": [[29.4865956, 46.8213634], [29.4874596, 46.8210719], [29.4876936, 46.820974], [29.4877674, 46.8208978], [29.4879203, 46.820695], [29.4881255, 46.8204454], [29.4882461, 46.8203876], [29.4886364, 46.8202004], [29.4891447, 46.8200251], [29.4892681, 46.8199994], [29.4896353, 46.8199348]]}, "properties": {"corridor_street": "улица Ленина", "osm_way_id": 87506339, "highway": "residential", "kind": "route5_south_corridor"}}, {"type": "Feature", "geometry": {"type": "LineString", "coordinates": [[29.4516394, 46.7920966], [29.4517762, 46.7922986], [29.451921, 46.7924731], [29.4521072, 46.792686], [29.4525337, 46.793101], [29.4527623, 46.793257], [29.4530198, 46.7933956], [29.4534878, 46.7936753], [29.4536759, 46.7937821], [29.4539373, 46.7939424], [29.454078, 46.7940286], [29.4542475, 46.7941522], [29.454478, 46.7943202], [29.4545871, 46.7943976], [29.4549412, 46.7946822], [29.4553587, 46.7950283], [29.4558972, 46.7954553], [29.4559619, 46.7955075], [29.4561332, 46.795648], [29.4563457, 46.7958232], [29.456939, 46.7963059], [29.4577108, 46.796943], [29.4582802, 46.79742], [29.4585234, 46.7976508], [29.4586942, 46.7978129], [29.4588006, 46.7979139], [29.4589423, 46.7980776], [29.4591515, 46.7983244], [29.4594746, 46.7987034], [29.4599106, 46.799216], [29.4601591, 46.7995045], [29.4601982, 46.7995499], [29.4604041, 46.7997889], [29.4608976, 46.8003728]]}, "properties": {"corridor_street": "улица Ленина", "osm_way_id": 223231541, "highway": "secondary", "kind": "route5_south_corridor"}}, {"type": "Feature", "geometry": {"type": "LineString", "coordinates": [[29.4833865, 46.8226762], [29.483438, 46.8225974], [29.4835358, 46.8225678], [29.4849603, 46.8221299], [29.4850896, 46.822088], [29.4852003, 46.8220522], [29.4860029, 46.8217925], [29.4867007, 46.8215668]]}, "properties": {"corridor_street": "улица Ленина", "osm_way_id": 252579181, "highway": "residential", "kind": "route5_south_corridor"}}, {"type": "Feature", "geometry": {"type": "LineString", "coordinates": [[29.4821913, 46.823064], [29.4833865, 46.8226762]]}, "properties": {"corridor_street": "улица Ленина", "osm_way_id": 447634961, "highway": "residential", "kind": "route5_south_corridor"}}, {"type": "Feature", "geometry": {"type": "LineString", "coordinates": [[29.4782667, 46.8242758], [29.4784013, 46.8242331], [29.4785231, 46.824195]]}, "properties": {"corridor_street": "улица Ленина", "osm_way_id": 1421552719, "highway": "residential", "kind": "route5_south_corridor"}}, {"type": "Feature", "geometry": {"type": "LineString", "coordinates": [[29.4785231, 46.824195], [29.4799904, 46.8237118], [29.4801031, 46.8236747]]}, "properties": {"corridor_street": "улица Ленина", "osm_way_id": 1421552723, "highway": "residential", "kind": "route5_south_corridor"}}, {"type": "Feature", "geometry": {"type": "LineString", "coordinates": [[29.5178725, 46.817872], [29.5170737, 46.819083], [29.5161977, 46.820411], [29.5154912, 46.8213537], [29.5152434, 46.8218277], [29.5145762, 46.8231036], [29.5143777, 46.8236162], [29.5142963, 46.8250199], [29.5138967, 46.8258797], [29.5134077, 46.8267117], [29.513129, 46.8272143], [29.5122146, 46.8288813], [29.5115034, 46.8301384], [29.5112731, 46.8305455], [29.5110336, 46.8309564], [29.5105786, 46.8318568], [29.5098004, 46.8345853]]}, "properties": {"corridor_street": "улица Ленина", "osm_way_id": 43201858, "highway": "tertiary", "kind": "route5_south_corridor"}}, {"type": "Feature", "geometry": {"type": "LineString", "coordinates": [[29.5098004, 46.8345853], [29.5097653, 46.8347566], [29.5097559, 46.834842], [29.5097435, 46.8348628]]}, "properties": {"corridor_street": "улица Ленина", "osm_way_id": 576412267, "highway": "tertiary", "kind": "route5_south_corridor"}}, {"type": "Feature", "geometry": {"type": "LineString", "coordinates": [[29.52392, 46.8092428], [29.5236119, 46.8095942], [29.5222239, 46.8111774], [29.5205183, 46.8142978], [29.5204936, 46.8143431], [29.5204586, 46.8143903], [29.5203521, 46.8145337], [29.5201633, 46.8147879], [29.5188053, 46.8166161], [29.5178725, 46.817872]]}, "properties": {"corridor_street": "улица Ленина", "osm_way_id": 1165666321, "highway": "residential", "kind": "route5_south_corridor"}}, {"type": "Feature", "geometry": {"type": "LineString", "coordinates": [[29.4487372, 46.788286], [29.4492361, 46.7891216], [29.4495339, 46.7895128], [29.4498289, 46.7898893], [29.4504335, 46.790598], [29.4510209, 46.7912922], [29.4516394, 46.7920966]]}, "properties": {"corridor_street": "улица Ленина", "osm_way_id": 223231559, "highway": "secondary", "kind": "route5_south_corridor"}}, {"type": "Feature", "geometry": {"type": "LineString", "coordinates": [[29.4462562, 46.7845615], [29.4452646, 46.7853068], [29.4451114, 46.7853489]]}, "properties": {"corridor_street": "улица Ленина", "osm_way_id": 223231788, "highway": "residential", "kind": "route5_south_corridor"}}, {"type": "Feature", "geometry": {"type": "LineString", "coordinates": [[29.4437337, 46.7836944], [29.4437729, 46.7836209], [29.44421, 46.7833267], [29.4447461, 46.7829384]]}, "properties": {"corridor_street": "улица Ленина", "osm_way_id": 223232236, "highway": "residential", "kind": "route5_south_corridor"}}, {"type": "Feature", "geometry": {"type": "LineString", "coordinates": [[29.4447461, 46.7829384], [29.4450024, 46.7831145], [29.445274, 46.783291], [29.4455765, 46.7835283], [29.445689, 46.7836379], [29.4457921, 46.7837781], [29.4462562, 46.7845615], [29.4463635, 46.7847121], [29.4467041, 46.7851639], [29.4470256, 46.7855325], [29.4473022, 46.7858857], [29.4477126, 46.7864348], [29.4480801, 46.7870501], [29.4487372, 46.788286]]}, "properties": {"corridor_street": "улица Ленина", "osm_way_id": 223232237, "highway": "secondary", "kind": "route5_south_corridor"}}, {"type": "Feature", "geometry": {"type": "LineString", "coordinates": [[29.4022308, 46.7893316], [29.4025849, 46.7893003], [29.402964, 46.7892375], [29.4033015, 46.7891611], [29.4040096, 46.788982], [29.4051207, 46.7886446], [29.4062198, 46.788282], [29.4064745, 46.7881986], [29.4086557, 46.7875167], [29.4093109, 46.7873407], [29.4095705, 46.7872562], [29.4096926, 46.7872073]]}, "properties": {"corridor_street": "улица Ленина", "osm_way_id": 223674639, "highway": "tertiary", "kind": "route5_south_corridor"}}, {"type": "Feature", "geometry": {"type": "LineString", "coordinates": [[29.4269108, 46.780976], [29.4269577, 46.7809709], [29.4273922, 46.7809234], [29.4276495, 46.7808954], [29.4281243, 46.7808436], [29.4283881, 46.7808135], [29.4287433, 46.7807714], [29.4297863, 46.7806477], [29.4304461, 46.7805868], [29.4305202, 46.7805776], [29.4310077, 46.780552], [29.431223, 46.7805483], [29.4317742, 46.780535], [29.432332, 46.7805152], [29.4326964, 46.7805023], [29.4355156, 46.7803852], [29.4363189, 46.780357], [29.4369864, 46.7803836], [29.4373551, 46.7804426], [29.4376232, 46.7804966], [29.4384557, 46.7807015], [29.4385572, 46.780727], [29.4391296, 46.780861], [29.4398585, 46.7810399], [29.4409961, 46.7813025], [29.4414072, 46.7813938], [29.4425473, 46.7816659], [29.4431072, 46.7818386], [29.4436437, 46.7821123], [29.4439748, 46.7823228], [29.4443518, 46.7826321], [29.4446319, 46.7828503], [29.4447461, 46.7829384]]}, "properties": {"corridor_street": "улица Ленина", "osm_way_id": 397371949, "highway": "secondary", "kind": "route5_south_corridor"}}, {"type": "Feature", "geometry": {"type": "LineString", "coordinates": [[29.4096926, 46.7872073], [29.4097851, 46.7871703], [29.4103483, 46.7869579], [29.4109688, 46.7867117], [29.4116661, 46.7864011], [29.4123004, 46.7861102], [29.4131247, 46.785729], [29.4137518, 46.7854526], [29.4150808, 46.7848595], [29.4160695, 46.7844183], [29.416944, 46.7840303], [29.4172884, 46.783865], [29.4180497, 46.7835508], [29.41827, 46.7834689], [29.4190041, 46.7832452], [29.4195937, 46.7830565], [29.420892, 46.7826704], [29.4217021, 46.782445], [29.4230494, 46.7821089], [29.4242523, 46.7817853], [29.4251639, 46.7815088], [29.4257205, 46.7812989], [29.4264984, 46.7810551], [29.4266969, 46.781015], [29.4269108, 46.780976]]}, "properties": {"corridor_street": "улица Ленина", "osm_way_id": 680056519, "highway": "tertiary", "kind": "route5_south_corridor"}}, {"type": "Feature", "geometry": {"type": "LineString", "coordinates": [[29.4723918, 46.8308999], [29.4723625, 46.8309706], [29.4723113, 46.8310397], [29.4715376, 46.8317883], [29.4706326, 46.8326228], [29.4700349, 46.8331882], [29.4699286, 46.8332948], [29.4693078, 46.8338109], [29.4686573, 46.8344165], [29.4681498, 46.8350094], [29.4670975, 46.8360654], [29.4669465, 46.8362429]]}, "properties": {"corridor_street": "Кишинёвская улица", "osm_way_id": 41749663, "highway": "tertiary", "kind": "route5_south_corridor"}}, {"type": "Feature", "geometry": {"type": "LineString", "coordinates": [[29.4564865, 46.8454774], [29.454765, 46.8464916], [29.4542814, 46.8467851], [29.4538297, 46.8470532], [29.4537653, 46.8470914], [29.4524313, 46.847908]]}, "properties": {"corridor_street": "Кишинёвская улица", "osm_way_id": 62383007, "highway": "primary", "kind": "route5_south_corridor"}}, {"type": "Feature", "geometry": {"type": "LineString", "coordinates": [[29.4669465, 46.8362429], [29.4661982, 46.8371051], [29.4655567, 46.8377948], [29.4651789, 46.8381978], [29.4649966, 46.8384013], [29.4645217, 46.8389043], [29.4639849, 46.8394405], [29.463752, 46.8396805], [29.4632232, 46.8401972], [29.4631471, 46.8402705], [29.4627444, 46.8406643], [29.4620417, 46.8413472], [29.4618856, 46.8415145], [29.4610341, 46.8423121], [29.4609314, 46.8424108], [29.4607401, 46.8425915], [29.4606959, 46.8426327], [29.4604651, 46.8428465], [29.4598725, 46.8434041], [29.4595589, 46.8436857], [29.4593309, 46.8438427], [29.458747, 46.8442116], [29.4581422, 46.8445636]]}, "properties": {"corridor_street": "Кишинёвская улица", "osm_way_id": 63221794, "highway": "primary", "kind": "route5_south_corridor"}}, {"type": "Feature", "geometry": {"type": "LineString", "coordinates": [[29.4581422, 46.8445636], [29.4575572, 46.8448818], [29.4574766, 46.8449257], [29.457246, 46.8450511]]}, "properties": {"corridor_street": "Кишинёвская улица", "osm_way_id": 133062213, "highway": "primary", "kind": "route5_south_corridor"}}, {"type": "Feature", "geometry": {"type": "LineString", "coordinates": [[29.4564865, 46.8454774], [29.457246, 46.8450511]]}, "properties": {"corridor_street": "Кишинёвская улица", "osm_way_id": 133068144, "highway": "primary", "kind": "route5_south_corridor"}}, {"type": "Feature", "geometry": {"type": "LineString", "coordinates": [[29.4583129, 46.8451488], [29.4577094, 46.8451201], [29.4574643, 46.8451121], [29.457333, 46.8450823], [29.457246, 46.8450511]]}, "properties": {"corridor_street": "Кишинёвская улица", "osm_way_id": 133068155, "highway": "primary_link", "kind": "route5_south_corridor"}}]}