{"type": "FeatureCollection", "features": [{"type": "Feature", "geometry": {"type": "LineString", "coordinates": [[29.483304, 46.824154], [29.483349, 46.824141], [29.483782, 46.824007], [29.483939, 46.823959], [29.484097, 46.823912], [29.484045, 46.823804], [29.483968, 46.82365], [29.483598, 46.822917], [29.483541, 46.822802], [29.483438, 46.822597], [29.483536, 46.822568], [29.48496, 46.82213], [29.48509, 46.822088], [29.485131, 46.822169], [29.485238, 46.822378], [29.48538, 46.822659], [29.485495, 46.822883], [29.485499, 46.822892], [29.485705, 46.823296], [29.485765, 46.8234], [29.485795, 46.823472], [29.486483, 46.824787], [29.486678, 46.825161], [29.486714, 46.825229], [29.486746, 46.825294], [29.486842, 46.825484], [29.487625, 46.827029], [29.487957, 46.827685], [29.48804, 46.827913], [29.487987, 46.828141], [29.487765, 46.829116], [29.487744, 46.829211], [29.487726, 46.829816], [29.48774, 46.82997], [29.487794, 46.830313], [29.487802, 46.830362], [29.487832, 46.830555], [29.487838, 46.83061], [29.487889, 46.831051], [29.487904, 46.831294], [29.487927, 46.831486], [29.488047, 46.832137], [29.488098, 46.832667], [29.488091, 46.832816], [29.488017, 46.8329], [29.487986, 46.832946], [29.487829, 46.833064], [29.487677, 46.833113], [29.487456, 46.833152], [29.486694, 46.833278], [29.486222, 46.833341], [29.485657, 46.83345], [29.485451, 46.833512], [29.484568, 46.833781], [29.482469, 46.834465], [29.48238, 46.834491], [29.482291, 46.834518], [29.482271, 46.834523], [29.482178, 46.834546], [29.482123, 46.83456], [29.482112, 46.834562], [29.480798, 46.834887], [29.480633, 46.834959], [29.480485, 46.835043], [29.480321, 46.835214], [29.480207, 46.835391], [29.480111, 46.835635], [29.479059, 46.838316], [29.479015, 46.838426], [29.478971, 46.83854], [29.478984, 46.838863], [29.479018, 46.838984], [29.479364, 46.839893], [29.4795, 46.84005], [29.479668, 46.8404], [29.479751, 46.840557], [29.479777, 46.840623], [29.479769, 46.840691], [29.479728, 46.840753], [29.479657, 46.840802], [29.479597, 46.840871], [29.479504, 46.840966], [29.479382, 46.841043], [29.479259, 46.841099], [29.479047, 46.841148], [29.478773, 46.841165], [29.477743, 46.840944], [29.476321, 46.84067], [29.475959, 46.840629], [29.475706, 46.840615], [29.475419, 46.840629], [29.475031, 46.840688], [29.474673, 46.840805], [29.474383, 46.840945], [29.474097, 46.841152], [29.473923, 46.8413], [29.47372, 46.841222], [29.474409, 46.840646], [29.474237, 46.840545], [29.472571, 46.839927], [29.469862, 46.838896], [29.468541, 46.838761], [29.468235, 46.838727], [29.467838, 46.838724], [29.467434, 46.838751], [29.466584, 46.839008], [29.467175, 46.839549], [29.466542, 46.839871]]}, "properties": {"origin": "central", "district": "Борисовка", "uid": "n4919312070", "distance_km": 4.2837, "duration_s": 396.4, "kind": "fastest"}}, {"type": "Feature", "geometry": {"type": "LineString", "coordinates": [[29.483304, 46.824154], [29.483349, 46.824141], [29.483782, 46.824007], [29.483939, 46.823959], [29.484097, 46.823912], [29.484045, 46.823804], [29.483968, 46.82365], [29.483598, 46.822917], [29.483541, 46.822802], [29.483438, 46.822597], [29.483536, 46.822568], [29.48496, 46.82213], [29.48509, 46.822088], [29.485131, 46.822169], [29.485238, 46.822378], [29.48538, 46.822659], [29.485495, 46.822883], [29.485499, 46.822892], [29.485705, 46.823296], [29.485765, 46.8234], [29.485795, 46.823472], [29.486483, 46.824787], [29.486678, 46.825161], [29.486714, 46.825229], [29.486746, 46.825294], [29.486842, 46.825484], [29.487625, 46.827029], [29.487957, 46.827685], [29.48804, 46.827913], [29.487987, 46.828141], [29.487765, 46.829116], [29.487744, 46.829211], [29.487726, 46.829816], [29.48774, 46.82997], [29.487794, 46.830313], [29.487802, 46.830362], [29.487832, 46.830555], [29.487838, 46.83061], [29.487889, 46.831051], [29.487904, 46.831294], [29.487927, 46.831486], [29.488047, 46.832137], [29.488098, 46.832667], [29.488091, 46.832816], [29.488017, 46.8329], [29.487986, 46.832946], [29.487829, 46.833064], [29.487677, 46.833113], [29.487456, 46.833152], [29.486694, 46.833278], [29.486222, 46.833341], [29.485657, 46.83345], [29.485451, 46.833512], [29.484568, 46.833781], [29.482469, 46.834465], [29.48238, 46.834491], [29.482291, 46.834518], [29.482271, 46.834523], [29.482178, 46.834546], [29.482123, 46.83456], [29.482112, 46.834562], [29.480798, 46.834887], [29.480633, 46.834959], [29.480485, 46.835043], [29.480321, 46.835214], [29.480207, 46.835391], [29.480111, 46.835635], [29.479059, 46.838316], [29.479015, 46.838426], [29.478971, 46.83854], [29.478984, 46.838863], [29.479018, 46.838984], [29.479364, 46.839893], [29.4795, 46.84005], [29.479668, 46.8404], [29.479751, 46.840557], [29.479777, 46.840623], [29.479769, 46.840691], [29.479728, 46.840753], [29.479657, 46.840802], [29.479597, 46.840871], [29.479504, 46.840966], [29.479382, 46.841043], [29.479259, 46.841099], [29.479047, 46.841148], [29.478773, 46.841165], [29.477743, 46.840944], [29.476321, 46.84067], [29.475959, 46.840629], [29.475706, 46.840615], [29.475419, 46.840629], [29.475031, 46.840688], [29.474673, 46.840805], [29.474383, 46.840945], [29.474097, 46.841152], [29.473923, 46.8413], [29.47372, 46.841222], [29.474409, 46.840646], [29.474237, 46.840545], [29.472571, 46.839927], [29.469862, 46.838896], [29.468541, 46.838761], [29.468235, 46.838727], [29.467838, 46.838724], [29.467434, 46.838751], [29.466584, 46.839008], [29.467175, 46.839549], [29.467013, 46.839631]]}, "properties": {"origin": "central", "district": "Борисовка", "uid": "w319402241", "distance_km": 4.239, "duration_s": 390, "kind": "fastest"}}, {"type": "Feature", "geometry": {"type": "LineString", "coordinates": [[29.483304, 46.824154], [29.483349, 46.824141], [29.483782, 46.824007], [29.483939, 46.823959], [29.484097, 46.823912], [29.484045, 46.823804], [29.483968, 46.82365], [29.483598, 46.822917], [29.483541, 46.822802], [29.483438, 46.822597], [29.483536, 46.822568], [29.48496, 46.82213], [29.48509, 46.822088], [29.485131, 46.822169], [29.485238, 46.822378], [29.48538, 46.822659], [29.485495, 46.822883], [29.485499, 46.822892], [29.485705, 46.823296], [29.485765, 46.8234], [29.485795, 46.823472], [29.486483, 46.824787], [29.486678, 46.825161], [29.486714, 46.825229], [29.486746, 46.825294], [29.486842, 46.825484], [29.487625, 46.827029], [29.487957, 46.827685], [29.48804, 46.827913], [29.487987, 46.828141], [29.487765, 46.829116], [29.487744, 46.829211], [29.487726, 46.829816], [29.48774, 46.82997], [29.487794, 46.830313], [29.487802, 46.830362], [29.487832, 46.830555], [29.487838, 46.83061], [29.487889, 46.831051], [29.487904, 46.831294], [29.487927, 46.831486], [29.488047, 46.832137], [29.488098, 46.832667], [29.488091, 46.832816], [29.488017, 46.8329], [29.487986, 46.832946], [29.487829, 46.833064], [29.487677, 46.833113], [29.487456, 46.833152], [29.486694, 46.833278], [29.486222, 46.833341], [29.485657, 46.83345], [29.485451, 46.833512], [29.484568, 46.833781], [29.482469, 46.834465], [29.48238, 46.834491], [29.482291, 46.834518], [29.482271, 46.834523], [29.482178, 46.834546], [29.482123, 46.83456], [29.482112, 46.834562], [29.480798, 46.834887], [29.480633, 46.834959], [29.480485, 46.835043], [29.480321, 46.835214], [29.480207, 46.835391], [29.480111, 46.835635], [29.479059, 46.838316], [29.479015, 46.838426], [29.478971, 46.83854], [29.478984, 46.838863], [29.479018, 46.838984], [29.479364, 46.839893], [29.4795, 46.84005], [29.479668, 46.8404], [29.479751, 46.840557], [29.479777, 46.840623], [29.479769, 46.840691], [29.479728, 46.840753], [29.479657, 46.840802], [29.479597, 46.840871], [29.479504, 46.840966], [29.479382, 46.841043], [29.479259, 46.841099], [29.479047, 46.841148], [29.478773, 46.841165], [29.477743, 46.840944], [29.476321, 46.84067], [29.475959, 46.840629], [29.475706, 46.840615], [29.475419, 46.840629], [29.475031, 46.840688], [29.474673, 46.840805], [29.474383, 46.840945], [29.474097, 46.841152], [29.473923, 46.8413], [29.47372, 46.841222], [29.474409, 46.840646], [29.474237, 46.840545], [29.472571, 46.839927], [29.469862, 46.838896], [29.468541, 46.838761], [29.468235, 46.838727], [29.467838, 46.838724], [29.467434, 46.838751], [29.466584, 46.839008], [29.46706, 46.839443]]}, "properties": {"origin": "central", "district": "Борисовка", "uid": "w319305814", "distance_km": 4.2089, "duration_s": 380.2, "kind": "fastest"}}, {"type": "Feature", "geometry": {"type": "LineString", "coordinates": [[29.483304, 46.824154], [29.483349, 46.824141], [29.483782, 46.824007], [29.483939, 46.823959], [29.484097, 46.823912], [29.484045, 46.823804], [29.483968, 46.82365], [29.483598, 46.822917], [29.483541, 46.822802], [29.483438, 46.822597], [29.483536, 46.822568], [29.48496, 46.82213], [29.48509, 46.822088], [29.485131, 46.822169], [29.485238, 46.822378], [29.48538, 46.822659], [29.485495, 46.822883], [29.485499, 46.822892], [29.485705, 46.823296], [29.485765, 46.8234], [29.485795, 46.823472], [29.486483, 46.824787], [29.486678, 46.825161], [29.486714, 46.825229], [29.486746, 46.825294], [29.486842, 46.825484], [29.487625, 46.827029], [29.487957, 46.827685], [29.48804, 46.827913], [29.487987, 46.828141], [29.487765, 46.829116], [29.487744, 46.829211], [29.487726, 46.829816], [29.48774, 46.82997], [29.487794, 46.830313], [29.487802, 46.830362], [29.487832, 46.830555], [29.487838, 46.83061], [29.487889, 46.831051], [29.487904, 46.831294], [29.487927, 46.831486], [29.488047, 46.832137], [29.488098, 46.832667], [29.488091, 46.832816], [29.488017, 46.8329], [29.487986, 46.832946], [29.487829, 46.833064], [29.487677, 46.833113], [29.487456, 46.833152], [29.486694, 46.833278], [29.486222, 46.833341], [29.485657, 46.83345], [29.485451, 46.833512], [29.484568, 46.833781], [29.482469, 46.834465], [29.48238, 46.834491], [29.482291, 46.834518], [29.482271, 46.834523], [29.482178, 46.834546], [29.482123, 46.83456], [29.482112, 46.834562], [29.480798, 46.834887], [29.480633, 46.834959], [29.480485, 46.835043], [29.480321, 46.835214], [29.480207, 46.835391], [29.480111, 46.835635], [29.479059, 46.838316], [29.479015, 46.838426], [29.478971, 46.83854], [29.478984, 46.838863], [29.479018, 46.838984], [29.479364, 46.839893], [29.4795, 46.84005], [29.479668, 46.8404], [29.479751, 46.840557], [29.479777, 46.840623], [29.479769, 46.840691], [29.479728, 46.840753], [29.479657, 46.840802], [29.479597, 46.840871], [29.479504, 46.840966], [29.479382, 46.841043], [29.479259, 46.841099], [29.479047, 46.841148], [29.478773, 46.841165], [29.477743, 46.840944], [29.476321, 46.84067], [29.475959, 46.840629], [29.475706, 46.840615], [29.475419, 46.840629], [29.475031, 46.840688], [29.474673, 46.840805], [29.474383, 46.840945], [29.474097, 46.841152], [29.473923, 46.8413], [29.47372, 46.841222], [29.474409, 46.840646], [29.474237, 46.840545], [29.472571, 46.839927], [29.469862, 46.838896], [29.468541, 46.838761], [29.468235, 46.838727], [29.467838, 46.838724], [29.467434, 46.838751], [29.466584, 46.839008], [29.467175, 46.839549], [29.465494, 46.840404]]}, "properties": {"origin": "central", "district": "Борисовка", "uid": "n2325729678", "distance_km": 4.3832, "duration_s": 410.8, "kind": "fastest"}}, {"type": "Feature", "geometry": {"type": "LineString", "coordinates": [[29.483304, 46.824154], [29.483349, 46.824141], [29.483782, 46.824007], [29.483939, 46.823959], [29.484097, 46.823912], [29.484045, 46.823804], [29.483968, 46.82365], [29.483598, 46.822917], [29.483541, 46.822802], [29.483438, 46.822597], [29.483536, 46.822568], [29.48496, 46.82213], [29.48509, 46.822088], [29.485131, 46.822169], [29.485238, 46.822378], [29.48538, 46.822659], [29.485495, 46.822883], [29.485499, 46.822892], [29.485705, 46.823296], [29.485765, 46.8234], [29.485795, 46.823472], [29.486483, 46.824787], [29.486678, 46.825161], [29.486714, 46.825229], [29.486746, 46.825294], [29.486842, 46.825484], [29.487625, 46.827029], [29.487957, 46.827685], [29.48804, 46.827913], [29.487987, 46.828141], [29.487765, 46.829116], [29.487744, 46.829211], [29.487726, 46.829816], [29.48774, 46.82997], [29.487794, 46.830313], [29.487802, 46.830362], [29.487832, 46.830555], [29.487838, 46.83061], [29.487889, 46.831051], [29.487904, 46.831294], [29.487927, 46.831486], [29.488047, 46.832137], [29.488098, 46.832667], [29.488091, 46.832816], [29.488017, 46.8329], [29.487986, 46.832946], [29.487829, 46.833064], [29.487677, 46.833113], [29.487456, 46.833152], [29.486694, 46.833278], [29.486222, 46.833341], [29.485657, 46.83345], [29.485451, 46.833512], [29.484568, 46.833781], [29.482469, 46.834465], [29.48238, 46.834491], [29.482291, 46.834518], [29.482271, 46.834523], [29.482178, 46.834546], [29.482123, 46.83456], [29.482112, 46.834562], [29.480798, 46.834887], [29.480633, 46.834959], [29.480485, 46.835043], [29.480321, 46.835214], [29.480207, 46.835391], [29.480111, 46.835635], [29.479059, 46.838316], [29.479015, 46.838426], [29.478971, 46.83854], [29.478984, 46.838863], [29.479018, 46.838984], [29.479364, 46.839893], [29.4795, 46.84005], [29.479668, 46.8404], [29.479751, 46.840557], [29.479777, 46.840623], [29.479769, 46.840691], [29.479728, 46.840753], [29.479657, 46.840802], [29.479597, 46.840871], [29.479504, 46.840966], [29.479382, 46.841043], [29.479259, 46.841099], [29.479047, 46.841148], [29.478773, 46.841165], [29.477743, 46.840944], [29.476321, 46.84067], [29.475959, 46.840629], [29.475706, 46.840615], [29.475419, 46.840629], [29.475031, 46.840688], [29.474673, 46.840805], [29.474383, 46.840945], [29.474097, 46.841152], [29.473923, 46.8413], [29.47372, 46.841222], [29.474409, 46.840646], [29.474237, 46.840545], [29.472571, 46.839927], [29.469862, 46.838896], [29.468541, 46.838761], [29.468235, 46.838727], [29.467838, 46.838724], [29.467434, 46.838751], [29.466584, 46.839008], [29.467175, 46.839549], [29.465428, 46.840438]]}, "properties": {"origin": "central", "district": "Борисовка", "uid": "n2325729685", "distance_km": 4.3895, "duration_s": 411.7, "kind": "fastest"}}, {"type": "Feature", "geometry": {"type": "LineString", "coordinates": [[29.483304, 46.824154], [29.483349, 46.824141], [29.483782, 46.824007], [29.483939, 46.823959], [29.484097, 46.823912], [29.484045, 46.823804], [29.483968, 46.82365], [29.483598, 46.822917], [29.483541, 46.822802], [29.483438, 46.822597], [29.483536, 46.822568], [29.48496, 46.82213], [29.48509, 46.822088], [29.485131, 46.822169], [29.485238, 46.822378], [29.48538, 46.822659], [29.485495, 46.822883], [29.485499, 46.822892], [29.485705, 46.823296], [29.485765, 46.8234], [29.485795, 46.823472], [29.486483, 46.824787], [29.486678, 46.825161], [29.486714, 46.825229], [29.486746, 46.825294], [29.486842, 46.825484], [29.487625, 46.827029], [29.487957, 46.827685], [29.48804, 46.827913], [29.487987, 46.828141], [29.487765, 46.829116], [29.487744, 46.829211], [29.487726, 46.829816], [29.48774, 46.82997], [29.487794, 46.830313], [29.487802, 46.830362], [29.487832, 46.830555], [29.487838, 46.83061], [29.487889, 46.831051], [29.487904, 46.831294], [29.487927, 46.831486], [29.488047, 46.832137], [29.488098, 46.832667], [29.488091, 46.832816], [29.488017, 46.8329], [29.487986, 46.832946], [29.487829, 46.833064], [29.487677, 46.833113], [29.487456, 46.833152], [29.486694, 46.833278], [29.486222, 46.833341], [29.485657, 46.83345], [29.485451, 46.833512], [29.484568, 46.833781], [29.482469, 46.834465], [29.48238, 46.834491], [29.482291, 46.834518], [29.482271, 46.834523], [29.482178, 46.834546], [29.482123, 46.83456], [29.482112, 46.834562], [29.480798, 46.834887], [29.480633, 46.834959], [29.480485, 46.835043], [29.480321, 46.835214], [29.480207, 46.835391], [29.480111, 46.835635], [29.479059, 46.838316], [29.479015, 46.838426], [29.478971, 46.83854], [29.478984, 46.838863], [29.479018, 46.838984], [29.479364, 46.839893], [29.4795, 46.84005], [29.479668, 46.8404], [29.479751, 46.840557], [29.479777, 46.840623], [29.479769, 46.840691], [29.479728, 46.840753], [29.479657, 46.840802], [29.479597, 46.840871], [29.479504, 46.840966], [29.479382, 46.841043], [29.479259, 46.841099], [29.479047, 46.841148], [29.478773, 46.841165], [29.477743, 46.840944], [29.476321, 46.84067], [29.475959, 46.840629], [29.475706, 46.840615], [29.475419, 46.840629], [29.475031, 46.840688], [29.474673, 46.840805], [29.474383, 46.840945], [29.474097, 46.841152], [29.473923, 46.8413], [29.47372, 46.841222], [29.472689, 46.840844], [29.472077, 46.840596], [29.471617, 46.84042], [29.470909, 46.840143], [29.4697, 46.839712], [29.469602, 46.839716], [29.469463, 46.83978], [29.469253, 46.83991], [29.468961, 46.840097], [29.468235, 46.840505], [29.468063, 46.840353]]}, "properties": {"origin": "central", "district": "Борисовка", "uid": "w319141459", "distance_km": 3.9248, "duration_s": 374.1, "kind": "fastest"}}, {"type": "Feature", "geometry": {"type": "LineString", "coordinates": [[29.483304, 46.824154], [29.483349, 46.824141], [29.483782, 46.824007], [29.483939, 46.823959], [29.484097, 46.823912], [29.484045, 46.823804], [29.483968, 46.82365], [29.483598, 46.822917], [29.483541, 46.822802], [29.483438, 46.822597], [29.483536, 46.822568], [29.48496, 46.82213], [29.48509, 46.822088], [29.485131, 46.822169], [29.485238, 46.822378], [29.48538, 46.822659], [29.485495, 46.822883], [29.485499, 46.822892], [29.485705, 46.823296], [29.485765, 46.8234], [29.485795, 46.823472], [29.486483, 46.824787], [29.486678, 46.825161], [29.486714, 46.825229], [29.486746, 46.825294], [29.486842, 46.825484], [29.487625, 46.827029], [29.487957, 46.827685], [29.48804, 46.827913], [29.487987, 46.828141], [29.487765, 46.829116], [29.487744, 46.829211], [29.487726, 46.829816], [29.48774, 46.82997], [29.487794, 46.830313], [29.487802, 46.830362], [29.487832, 46.830555], [29.487838, 46.83061], [29.487889, 46.831051], [29.487904, 46.831294], [29.487927, 46.831486], [29.488047, 46.832137], [29.488098, 46.832667], [29.488091, 46.832816], [29.488017, 46.8329], [29.487986, 46.832946], [29.487829, 46.833064], [29.487677, 46.833113], [29.487456, 46.833152], [29.486694, 46.833278], [29.486222, 46.833341], [29.485657, 46.83345], [29.485451, 46.833512], [29.484568, 46.833781], [29.482469, 46.834465], [29.48238, 46.834491], [29.482291, 46.834518], [29.482271, 46.834523], [29.482178, 46.834546], [29.482123, 46.83456], [29.482112, 46.834562], [29.480798, 46.834887], [29.480633, 46.834959], [29.480485, 46.835043], [29.480321, 46.835214], [29.480207, 46.835391], [29.480111, 46.835635], [29.479059, 46.838316], [29.479015, 46.838426], [29.478971, 46.83854], [29.478984, 46.838863], [29.479018, 46.838984], [29.479364, 46.839893], [29.4795, 46.84005], [29.479668, 46.8404], [29.479751, 46.840557], [29.479777, 46.840623], [29.479769, 46.840691], [29.479728, 46.840753], [29.479657, 46.840802], [29.479597, 46.840871], [29.479504, 46.840966], [29.479382, 46.841043], [29.479259, 46.841099], [29.479047, 46.841148], [29.478773, 46.841165], [29.477743, 46.840944], [29.476321, 46.84067], [29.475959, 46.840629], [29.475706, 46.840615], [29.475419, 46.840629], [29.475031, 46.840688], [29.474673, 46.840805], [29.474383, 46.840945], [29.474097, 46.841152], [29.473923, 46.8413], [29.47372, 46.841222], [29.472689, 46.840844], [29.472077, 46.840596], [29.471617, 46.84042], [29.470909, 46.840143], [29.4697, 46.839712], [29.469602, 46.839716], [29.469463, 46.83978], [29.469253, 46.83991], [29.468961, 46.840097], [29.468235, 46.840505], [29.467806, 46.840126]]}, "properties": {"origin": "central", "district": "Борисовка", "uid": "w319141457", "distance_km": 3.9567, "duration_s": 378.7, "kind": "fastest"}}, {"type": "Feature", "geometry": {"type": "LineString", "coordinates": [[29.483304, 46.824154], [29.483349, 46.824141], [29.483782, 46.824007], [29.483939, 46.823959], [29.484097, 46.823912], [29.484045, 46.823804], [29.483968, 46.82365], [29.483598, 46.822917], [29.483541, 46.822802], [29.483438, 46.822597], [29.483536, 46.822568], [29.48496, 46.82213], [29.48509, 46.822088], [29.485131, 46.822169], [29.485238, 46.822378], [29.48538, 46.822659], [29.485495, 46.822883], [29.485499, 46.822892], [29.485705, 46.823296], [29.485765, 46.8234], [29.485795, 46.823472], [29.486483, 46.824787], [29.486678, 46.825161], [29.486714, 46.825229], [29.486746, 46.825294], [29.486842, 46.825484], [29.487625, 46.827029], [29.487957, 46.827685], [29.48804, 46.827913], [29.487987, 46.828141], [29.487765, 46.829116], [29.487744, 46.829211], [29.487726, 46.829816], [29.48774, 46.82997], [29.487794, 46.830313], [29.487802, 46.830362], [29.487832, 46.830555], [29.487838, 46.83061], [29.487889, 46.831051], [29.487904, 46.831294], [29.487927, 46.831486], [29.488047, 46.832137], [29.488098, 46.832667], [29.488091, 46.832816], [29.488017, 46.8329], [29.487986, 46.832946], [29.487829, 46.833064], [29.487677, 46.833113], [29.487456, 46.833152], [29.486694, 46.833278], [29.486222, 46.833341], [29.485657, 46.83345], [29.485451, 46.833512], [29.484568, 46.833781], [29.482469, 46.834465], [29.48238, 46.834491], [29.482291, 46.834518], [29.482271, 46.834523], [29.482178, 46.834546], [29.482123, 46.83456], [29.482112, 46.834562], [29.480798, 46.834887], [29.480633, 46.834959], [29.480485, 46.835043], [29.480321, 46.835214], [29.480207, 46.835391], [29.480111, 46.835635], [29.479059, 46.838316], [29.479015, 46.838426], [29.478971, 46.83854], [29.478984, 46.838863], [29.479018, 46.838984], [29.479364, 46.839893], [29.4795, 46.84005], [29.479668, 46.8404], [29.479751, 46.840557], [29.479777, 46.840623], [29.479769, 46.840691], [29.479728, 46.840753], [29.479657, 46.840802], [29.479597, 46.840871], [29.479504, 46.840966], [29.479382, 46.841043], [29.479259, 46.841099], [29.479047, 46.841148], [29.478773, 46.841165], [29.477743, 46.840944], [29.476321, 46.84067], [29.475959, 46.840629], [29.475706, 46.840615], [29.475419, 46.840629], [29.475031, 46.840688], [29.474673, 46.840805], [29.474383, 46.840945], [29.474097, 46.841152], [29.473923, 46.8413], [29.47372, 46.841222], [29.472689, 46.840844], [29.472077, 46.840596], [29.471617, 46.84042], [29.470909, 46.840143], [29.4697, 46.839712], [29.469602, 46.839716], [29.469463, 46.83978], [29.469253, 46.83991], [29.468961, 46.840097], [29.468235, 46.840505], [29.467965, 46.840267]]}, "properties": {"origin": "central", "district": "Борисовка", "uid": "w319615907", "distance_km": 3.9369, "duration_s": 375.9, "kind": "fastest"}}, {"type": "Feature", "geometry": {"type": "LineString", "coordinates": [[29.483304, 46.824154], [29.483349, 46.824141], [29.483782, 46.824007], [29.483939, 46.823959], [29.484097, 46.823912], [29.484045, 46.823804], [29.483968, 46.82365], [29.483598, 46.822917], [29.483541, 46.822802], [29.483438, 46.822597], [29.483536, 46.822568], [29.48496, 46.82213], [29.48509, 46.822088], [29.485131, 46.822169], [29.485238, 46.822378], [29.48538, 46.822659], [29.485495, 46.822883], [29.485499, 46.822892], [29.485705, 46.823296], [29.485765, 46.8234], [29.485795, 46.823472], [29.486483, 46.824787], [29.486678, 46.825161], [29.486714, 46.825229], [29.486746, 46.825294], [29.486842, 46.825484], [29.487625, 46.827029], [29.487957, 46.827685], [29.48804, 46.827913], [29.487987, 46.828141], [29.487765, 46.829116], [29.487744, 46.829211], [29.487726, 46.829816], [29.48774, 46.82997], [29.487794, 46.830313], [29.487802, 46.830362], [29.487832, 46.830555], [29.487838, 46.83061], [29.487889, 46.831051], [29.487904, 46.831294], [29.487927, 46.831486], [29.488047, 46.832137], [29.488098, 46.832667], [29.488091, 46.832816], [29.488017, 46.8329], [29.487986, 46.832946], [29.487829, 46.833064], [29.487677, 46.833113], [29.487456, 46.833152], [29.486694, 46.833278], [29.486222, 46.833341], [29.485657, 46.83345], [29.485451, 46.833512], [29.484568, 46.833781], [29.482469, 46.834465], [29.48238, 46.834491], [29.482291, 46.834518], [29.482271, 46.834523], [29.482178, 46.834546], [29.482123, 46.83456], [29.482112, 46.834562], [29.480798, 46.834887], [29.480633, 46.834959], [29.480485, 46.835043], [29.480321, 46.835214], [29.480207, 46.835391], [29.480111, 46.835635], [29.479059, 46.838316], [29.479015, 46.838426], [29.478971, 46.83854], [29.478984, 46.838863], [29.479018, 46.838984], [29.479364, 46.839893], [29.4795, 46.84005], [29.479668, 46.8404], [29.479751, 46.840557], [29.479777, 46.840623], [29.479769, 46.840691], [29.479728, 46.840753], [29.479657, 46.840802], [29.479597, 46.840871], [29.479504, 46.840966], [29.479382, 46.841043], [29.479259, 46.841099], [29.479047, 46.841148], [29.478773, 46.841165], [29.477743, 46.840944], [29.476321, 46.84067], [29.475959, 46.840629], [29.475706, 46.840615], [29.475419, 46.840629], [29.475031, 46.840688], [29.474673, 46.840805], [29.474383, 46.840945], [29.474097, 46.841152], [29.473923, 46.8413], [29.47372, 46.841222], [29.472689, 46.840844], [29.472077, 46.840596], [29.471617, 46.84042], [29.470909, 46.840143], [29.4697, 46.839712], [29.469602, 46.839716], [29.469463, 46.83978], [29.469253, 46.83991], [29.468961, 46.840097], [29.468235, 46.840505], [29.467818, 46.840137]]}, "properties": {"origin": "central", "district": "Борисовка", "uid": "w319615909", "distance_km": 3.9552, "duration_s": 378.5, "kind": "fastest"}}, {"type": "Feature", "geometry": {"type": "LineString", "coordinates": [[29.483304, 46.824154], [29.483349, 46.824141], [29.483782, 46.824007], [29.483939, 46.823959], [29.484097, 46.823912], [29.484045, 46.823804], [29.483968, 46.82365], [29.483598, 46.822917], [29.483541, 46.822802], [29.483438, 46.822597], [29.483536, 46.822568], [29.48496, 46.82213], [29.48509, 46.822088], [29.485131, 46.822169], [29.485238, 46.822378], [29.48538, 46.822659], [29.485495, 46.822883], [29.485499, 46.822892], [29.485705, 46.823296], [29.485765, 46.8234], [29.485795, 46.823472], [29.486483, 46.824787], [29.486678, 46.825161], [29.486714, 46.825229], [29.486746, 46.825294], [29.486842, 46.825484], [29.487625, 46.827029], [29.487957, 46.827685], [29.48804, 46.827913], [29.487987, 46.828141], [29.487765, 46.829116], [29.487744, 46.829211], [29.487726, 46.829816], [29.48774, 46.82997], [29.487794, 46.830313], [29.487802, 46.830362], [29.487832, 46.830555], [29.487838, 46.83061], [29.487889, 46.831051], [29.487904, 46.831294], [29.487927, 46.831486], [29.488047, 46.832137], [29.488098, 46.832667], [29.488091, 46.832816], [29.488017, 46.8329], [29.487986, 46.832946], [29.487829, 46.833064], [29.487677, 46.833113], [29.487456, 46.833152], [29.486694, 46.833278], [29.486222, 46.833341], [29.485657, 46.83345], [29.485451, 46.833512], [29.484568, 46.833781], [29.482469, 46.834465], [29.48238, 46.834491], [29.482291, 46.834518], [29.482271, 46.834523], [29.482178, 46.834546], [29.482123, 46.83456], [29.482112, 46.834562], [29.480798, 46.834887], [29.480633, 46.834959], [29.480485, 46.835043], [29.480321, 46.835214], [29.480207, 46.835391], [29.480111, 46.835635], [29.479059, 46.838316], [29.479015, 46.838426], [29.478971, 46.83854], [29.478984, 46.838863], [29.479018, 46.838984], [29.479364, 46.839893], [29.4795, 46.84005], [29.479668, 46.8404], [29.479751, 46.840557], [29.479777, 46.840623], [29.479769, 46.840691], [29.479728, 46.840753], [29.479657, 46.840802], [29.479597, 46.840871], [29.479504, 46.840966], [29.479382, 46.841043], [29.479259, 46.841099], [29.479047, 46.841148], [29.478773, 46.841165], [29.477743, 46.840944], [29.476321, 46.84067], [29.475959, 46.840629], [29.475706, 46.840615], [29.475419, 46.840629], [29.475031, 46.840688], [29.474673, 46.840805], [29.474383, 46.840945], [29.474097, 46.841152], [29.473923, 46.8413], [29.47372, 46.841222], [29.474409, 46.840646], [29.474237, 46.840545], [29.472571, 46.839927], [29.469862, 46.838896], [29.468541, 46.838761], [29.46843, 46.839239], [29.468402, 46.839274], [29.46832, 46.839325], [29.467434, 46.839774], [29.467467, 46.839806]]}, "properties": {"origin": "central", "district": "Борисовка", "uid": "w319402243", "distance_km": 4.1477, "duration_s": 380.2, "kind": "fastest"}}, {"type": "Feature", "geometry": {"type": "LineString", "coordinates": [[29.473129, 46.841757], [29.473323, 46.84158], [29.47372, 46.841222], [29.474409, 46.840646], [29.474237, 46.840545], [29.472571, 46.839927], [29.469862, 46.838896], [29.468541, 46.838761], [29.468235, 46.838727], [29.467838, 46.838724], [29.467434, 46.838751], [29.466584, 46.839008], [29.467175, 46.839549], [29.466542, 46.839871]]}, "properties": {"origin": "bam", "district": "Борисовка", "uid": "n4919312070", "distance_km": 0.9486, "duration_s": 102.4, "kind": "fastest"}}, {"type": "Feature", "geometry": {"type": "LineString", "coordinates": [[29.473129, 46.841757], [29.473323, 46.84158], [29.47372, 46.841222], [29.472689, 46.840844], [29.472077, 46.840596], [29.471617, 46.84042], [29.470909, 46.840143], [29.4697, 46.839712], [29.469602, 46.839716], [29.469463, 46.83978], [29.469253, 46.83991], [29.468961, 46.840097], [29.468235, 46.840505], [29.467693, 46.840027], [29.467434, 46.839774], [29.467175, 46.839549], [29.466542, 46.839871]]}, "properties": {"origin": "bam", "district": "Борисовка", "uid": "n4919312070", "distance_km": 0.762, "duration_s": 116.2, "kind": "alt_1"}}, {"type": "Feature", "geometry": {"type": "LineString", "coordinates": [[29.473129, 46.841757], [29.473323, 46.84158], [29.47372, 46.841222], [29.474409, 46.840646], [29.474237, 46.840545], [29.472571, 46.839927], [29.469862, 46.838896], [29.468541, 46.838761], [29.468235, 46.838727], [29.467838, 46.838724], [29.467434, 46.838751], [29.466584, 46.839008], [29.467175, 46.839549], [29.467013, 46.839631]]}, "properties": {"origin": "bam", "district": "Борисовка", "uid": "w319402241", "distance_km": 0.9038, "duration_s": 96, "kind": "fastest"}}, {"type": "Feature", "geometry": {"type": "LineString", "coordinates": [[29.473129, 46.841757], [29.473323, 46.84158], [29.47372, 46.841222], [29.472689, 46.840844], [29.472077, 46.840596], [29.471617, 46.84042], [29.470909, 46.840143], [29.4697, 46.839712], [29.469602, 46.839716], [29.469463, 46.83978], [29.469253, 46.83991], [29.468961, 46.840097], [29.468235, 46.840505], [29.467693, 46.840027], [29.467434, 46.839774], [29.467175, 46.839549], [29.467013, 46.839631]]}, "properties": {"origin": "bam", "district": "Борисовка", "uid": "w319402241", "distance_km": 0.7172, "duration_s": 109.8, "kind": "alt_1"}}, {"type": "Feature", "geometry": {"type": "LineString", "coordinates": [[29.473129, 46.841757], [29.473323, 46.84158], [29.47372, 46.841222], [29.474409, 46.840646], [29.474237, 46.840545], [29.472571, 46.839927], [29.469862, 46.838896], [29.468541, 46.838761], [29.468235, 46.838727], [29.467838, 46.838724], [29.467434, 46.838751], [29.466584, 46.839008], [29.46706, 46.839443]]}, "properties": {"origin": "bam", "district": "Борисовка", "uid": "w319305814", "distance_km": 0.8738, "duration_s": 86.2, "kind": "fastest"}}, {"type": "Feature", "geometry": {"type": "LineString", "coordinates": [[29.473129, 46.841757], [29.473323, 46.84158], [29.47372, 46.841222], [29.474409, 46.840646], [29.474237, 46.840545], [29.472571, 46.839927], [29.469862, 46.838896], [29.468541, 46.838761], [29.468235, 46.838727], [29.467838, 46.838724], [29.467434, 46.838751], [29.466584, 46.839008], [29.467175, 46.839549], [29.465494, 46.840404]]}, "properties": {"origin": "bam", "district": "Борисовка", "uid": "n2325729678", "distance_km": 1.0481, "duration_s": 116.8, "kind": "fastest"}}, {"type": "Feature", "geometry": {"type": "LineString", "coordinates": [[29.473129, 46.841757], [29.473323, 46.84158], [29.47372, 46.841222], [29.472689, 46.840844], [29.472077, 46.840596], [29.471617, 46.84042], [29.470909, 46.840143], [29.4697, 46.839712], [29.469602, 46.839716], [29.469463, 46.83978], [29.469253, 46.83991], [29.468961, 46.840097], [29.468235, 46.840505], [29.467693, 46.840027], [29.467434, 46.839774], [29.467175, 46.839549], [29.465494, 46.840404]]}, "properties": {"origin": "bam", "district": "Борисовка", "uid": "n2325729678", "distance_km": 0.8615, "duration_s": 130.6, "kind": "alt_1"}}, {"type": "Feature", "geometry": {"type": "LineString", "coordinates": [[29.473129, 46.841757], [29.473323, 46.84158], [29.47372, 46.841222], [29.474409, 46.840646], [29.474237, 46.840545], [29.472571, 46.839927], [29.469862, 46.838896], [29.468541, 46.838761], [29.468235, 46.838727], [29.467838, 46.838724], [29.467434, 46.838751], [29.466584, 46.839008], [29.467175, 46.839549], [29.465428, 46.840438]]}, "properties": {"origin": "bam", "district": "Борисовка", "uid": "n2325729685", "distance_km": 1.0544, "duration_s": 117.7, "kind": "fastest"}}, {"type": "Feature", "geometry": {"type": "LineString", "coordinates": [[29.473129, 46.841757], [29.473323, 46.84158], [29.47372, 46.841222], [29.472689, 46.840844], [29.472077, 46.840596], [29.471617, 46.84042], [29.470909, 46.840143], [29.4697, 46.839712], [29.469602, 46.839716], [29.469463, 46.83978], [29.469253, 46.83991], [29.468961, 46.840097], [29.468235, 46.840505], [29.467693, 46.840027], [29.467434, 46.839774], [29.467175, 46.839549], [29.465428, 46.840438]]}, "properties": {"origin": "bam", "district": "Борисовка", "uid": "n2325729685", "distance_km": 0.8678, "duration_s": 131.5, "kind": "alt_1"}}, {"type": "Feature", "geometry": {"type": "LineString", "coordinates": [[29.483304, 46.824154], [29.482844, 46.824291], [29.482491, 46.824396], [29.482349, 46.824444], [29.482205, 46.824488], [29.481962, 46.824563], [29.481627, 46.824666], [29.481337, 46.824756], [29.480644, 46.824966], [29.478998, 46.825477], [29.478436, 46.824305], [29.478401, 46.824233], [29.478353, 46.824127], [29.478271, 46.823947], [29.478197, 46.823784], [29.478159, 46.823697], [29.477734, 46.822752], [29.477529, 46.822297], [29.47743, 46.822065], [29.476836, 46.820674], [29.47675, 46.820471], [29.47672, 46.8204], [29.476675, 46.820291], [29.476443, 46.819718], [29.476235, 46.819214], [29.475988, 46.818625], [29.475958, 46.818544], [29.475908, 46.81844], [29.47512, 46.816695], [29.475107, 46.816658], [29.475056, 46.816552], [29.474795, 46.815948], [29.474678, 46.815674], [29.474497, 46.815283], [29.474342, 46.814946], [29.474006, 46.814758], [29.473798, 46.814601], [29.473248, 46.813901], [29.473152, 46.813774], [29.472939, 46.81346], [29.472889, 46.813386], [29.472811, 46.813271], [29.472404, 46.81268], [29.472268, 46.812462], [29.472043, 46.812159], [29.471773, 46.811769], [29.471593, 46.811509], [29.471387, 46.811232], [29.47108, 46.810815], [29.470915, 46.810614], [29.470824, 46.810505], [29.468897, 46.808761], [29.468497, 46.808399], [29.468294, 46.808215], [29.468184, 46.808105], [29.468083, 46.808001], [29.468027, 46.807937], [29.467919, 46.807815], [29.467349, 46.8072], [29.465556, 46.807473], [29.465504, 46.807481], [29.465119, 46.807539], [29.465047, 46.80755], [29.464808, 46.807587], [29.463935, 46.807719], [29.46286, 46.807883], [29.462674, 46.807911], [29.462239, 46.807978], [29.460303, 46.808272], [29.459187, 46.808442], [29.458931, 46.808495], [29.458683, 46.808571], [29.458492, 46.808687], [29.458487, 46.808692], [29.458333, 46.808822], [29.458215, 46.808977], [29.458152, 46.809103], [29.458101, 46.809249], [29.45809, 46.80947], [29.458116, 46.809684], [29.458431, 46.811569], [29.458536, 46.812201], [29.458552, 46.812296], [29.458603, 46.812611], [29.458696, 46.81319], [29.458749, 46.813496], [29.458801, 46.813814], [29.459073, 46.815478], [29.459158, 46.816022], [29.459218, 46.816405], [29.459237, 46.816539], [29.459283, 46.816879], [29.459315, 46.817013], [29.459458, 46.817429], [29.459866, 46.818476], [29.46028, 46.819581], [29.460603, 46.820524], [29.460719, 46.820828], [29.460777, 46.820981], [29.460848, 46.821166], [29.461002, 46.821571], [29.460324, 46.821702], [29.459745, 46.821814], [29.458491, 46.822046], [29.457033, 46.822311], [29.456219, 46.822448], [29.45594, 46.822495], [29.45555, 46.822567], [29.454586, 46.822725], [29.453429, 46.822932], [29.453206, 46.822935], [29.452983, 46.822885], [29.452209, 46.822705], [29.451909, 46.822649], [29.451379, 46.822565], [29.4501, 46.822548], [29.449645, 46.822535]]}, "properties": {"origin": "central", "district": "Хомутяновка", "uid": "n2337985509", "distance_km": 5.6548, "duration_s": 385.5, "kind": "fastest"}}, {"type": "Feature", "geometry": {"type": "LineString", "coordinates": [[29.483304, 46.824154], [29.482844, 46.824291], [29.482491, 46.824396], [29.482349, 46.824444], [29.482205, 46.824488], [29.481962, 46.824563], [29.481627, 46.824666], [29.481337, 46.824756], [29.480644, 46.824966], [29.478998, 46.825477], [29.478436, 46.824305], [29.478401, 46.824233], [29.478353, 46.824127], [29.478271, 46.823947], [29.478197, 46.823784], [29.478159, 46.823697], [29.477734, 46.822752], [29.477529, 46.822297], [29.47743, 46.822065], [29.476836, 46.820674], [29.47675, 46.820471], [29.47672, 46.8204], [29.476675, 46.820291], [29.476443, 46.819718], [29.476235, 46.819214], [29.475988, 46.818625], [29.475958, 46.818544], [29.475908, 46.81844], [29.47512, 46.816695], [29.475107, 46.816658], [29.475056, 46.816552], [29.474795, 46.815948], [29.474678, 46.815674], [29.474497, 46.815283], [29.474342, 46.814946], [29.474006, 46.814758], [29.473798, 46.814601], [29.473248, 46.813901], [29.473152, 46.813774], [29.472939, 46.81346], [29.472889, 46.813386], [29.472811, 46.813271], [29.472404, 46.81268], [29.472268, 46.812462], [29.472043, 46.812159], [29.471773, 46.811769], [29.471593, 46.811509], [29.471387, 46.811232], [29.47108, 46.810815], [29.470915, 46.810614], [29.470824, 46.810505], [29.468897, 46.808761], [29.468497, 46.808399], [29.468294, 46.808215], [29.468184, 46.808105], [29.468083, 46.808001], [29.468027, 46.807937], [29.467919, 46.807815], [29.467349, 46.8072], [29.465556, 46.807473], [29.465504, 46.807481], [29.465119, 46.807539], [29.465047, 46.80755], [29.464808, 46.807587], [29.463935, 46.807719], [29.46286, 46.807883], [29.462674, 46.807911], [29.462239, 46.807978], [29.460303, 46.808272], [29.459187, 46.808442], [29.458931, 46.808495], [29.458683, 46.808571], [29.458492, 46.808687], [29.458487, 46.808692], [29.458333, 46.808822], [29.458215, 46.808977], [29.458152, 46.809103], [29.458101, 46.809249], [29.45809, 46.80947], [29.458116, 46.809684], [29.458431, 46.811569], [29.458536, 46.812201], [29.458065, 46.812353], [29.45734, 46.812587], [29.454307, 46.813575], [29.45388, 46.81374], [29.453119, 46.814074], [29.452772, 46.814269], [29.452608, 46.814361], [29.452389, 46.814502], [29.451947, 46.814798], [29.450468, 46.815788], [29.450324, 46.815899], [29.450489, 46.816012], [29.451237, 46.816432], [29.452719, 46.817351], [29.45182, 46.817812], [29.451386, 46.818237], [29.45106, 46.818543], [29.450782, 46.81883], [29.450245, 46.819878], [29.450156, 46.820144], [29.449825, 46.821134], [29.449336, 46.821761], [29.44923, 46.821898], [29.449135, 46.822201], [29.449185, 46.822521], [29.449645, 46.822535]]}, "properties": {"origin": "central", "district": "Хомутяновка", "uid": "n2337985509", "distance_km": 5.3955, "duration_s": 495.4, "kind": "alt_1"}}, {"type": "Feature", "geometry": {"type": "LineString", "coordinates": [[29.483304, 46.824154], [29.482844, 46.824291], [29.482491, 46.824396], [29.482349, 46.824444], [29.482205, 46.824488], [29.481962, 46.824563], [29.481627, 46.824666], [29.481337, 46.824756], [29.480644, 46.824966], [29.478998, 46.825477], [29.478436, 46.824305], [29.478401, 46.824233], [29.478353, 46.824127], [29.478271, 46.823947], [29.478197, 46.823784], [29.478159, 46.823697], [29.477734, 46.822752], [29.477529, 46.822297], [29.47743, 46.822065], [29.476836, 46.820674], [29.47675, 46.820471], [29.47672, 46.8204], [29.476675, 46.820291], [29.476443, 46.819718], [29.476235, 46.819214], [29.475988, 46.818625], [29.475958, 46.818544], [29.475908, 46.81844], [29.47512, 46.816695], [29.475107, 46.816658], [29.475056, 46.816552], [29.474795, 46.815948], [29.474678, 46.815674], [29.474497, 46.815283], [29.474342, 46.814946], [29.474006, 46.814758], [29.473798, 46.814601], [29.473248, 46.813901], [29.473152, 46.813774], [29.472939, 46.81346], [29.472889, 46.813386], [29.472811, 46.813271], [29.472404, 46.81268], [29.472268, 46.812462], [29.472043, 46.812159], [29.471773, 46.811769], [29.471593, 46.811509], [29.471387, 46.811232], [29.47108, 46.810815], [29.470915, 46.810614], [29.470824, 46.810505], [29.468897, 46.808761], [29.468497, 46.808399], [29.468294, 46.808215], [29.468184, 46.808105], [29.468083, 46.808001], [29.468027, 46.807937], [29.467919, 46.807815], [29.467349, 46.8072], [29.465556, 46.807473], [29.465504, 46.807481], [29.465119, 46.807539], [29.465047, 46.80755], [29.464808, 46.807587], [29.463935, 46.807719], [29.46286, 46.807883], [29.462674, 46.807911], [29.462239, 46.807978], [29.460303, 46.808272], [29.459187, 46.808442], [29.458931, 46.808495], [29.458683, 46.808571], [29.458492, 46.808687], [29.458487, 46.808692], [29.458333, 46.808822], [29.458215, 46.808977], [29.458152, 46.809103], [29.458101, 46.809249], [29.45809, 46.80947], [29.458116, 46.809684], [29.458431, 46.811569], [29.458536, 46.812201], [29.458552, 46.812296], [29.458603, 46.812611], [29.458696, 46.81319], [29.458749, 46.813496], [29.458801, 46.813814], [29.459073, 46.815478], [29.459158, 46.816022], [29.459218, 46.816405], [29.459237, 46.816539], [29.459283, 46.816879], [29.459315, 46.817013], [29.459458, 46.817429], [29.459866, 46.818476], [29.46028, 46.819581], [29.460603, 46.820524], [29.460719, 46.820828], [29.460777, 46.820981], [29.460848, 46.821166], [29.461002, 46.821571], [29.460324, 46.821702], [29.459745, 46.821814], [29.458491, 46.822046], [29.457033, 46.822311], [29.456219, 46.822448], [29.45594, 46.822495], [29.45555, 46.822567], [29.454586, 46.822725], [29.453429, 46.822932], [29.453206, 46.822935], [29.452983, 46.822885], [29.452209, 46.822705], [29.451909, 46.822649], [29.451379, 46.822565], [29.451247, 46.822563]]}, "properties": {"origin": "central", "district": "Хомутяновка", "uid": "w352064505", "distance_km": 5.5325, "duration_s": 374.5, "kind": "fastest"}}, {"type": "Feature", "geometry": {"type": "LineString", "coordinates": [[29.483304, 46.824154], [29.482844, 46.824291], [29.482491, 46.824396], [29.482349, 46.824444], [29.482205, 46.824488], [29.481962, 46.824563], [29.481627, 46.824666], [29.481337, 46.824756], [29.480644, 46.824966], [29.478998, 46.825477], [29.478436, 46.824305], [29.478401, 46.824233], [29.478353, 46.824127], [29.478271, 46.823947], [29.478197, 46.823784], [29.478159, 46.823697], [29.477734, 46.822752], [29.477529, 46.822297], [29.47743, 46.822065], [29.476836, 46.820674], [29.47675, 46.820471], [29.47672, 46.8204], [29.476675, 46.820291], [29.476443, 46.819718], [29.476235, 46.819214], [29.475988, 46.818625], [29.475958, 46.818544], [29.475908, 46.81844], [29.47512, 46.816695], [29.475107, 46.816658], [29.475056, 46.816552], [29.474795, 46.815948], [29.474678, 46.815674], [29.474497, 46.815283], [29.474342, 46.814946], [29.474006, 46.814758], [29.473798, 46.814601], [29.473248, 46.813901], [29.473152, 46.813774], [29.472939, 46.81346], [29.472889, 46.813386], [29.472811, 46.813271], [29.472404, 46.81268], [29.472268, 46.812462], [29.472043, 46.812159], [29.471773, 46.811769], [29.471593, 46.811509], [29.471387, 46.811232], [29.47108, 46.810815], [29.470915, 46.810614], [29.470824, 46.810505], [29.468897, 46.808761], [29.468497, 46.808399], [29.468294, 46.808215], [29.468184, 46.808105], [29.468083, 46.808001], [29.468027, 46.807937], [29.467919, 46.807815], [29.467349, 46.8072], [29.465556, 46.807473], [29.465504, 46.807481], [29.465119, 46.807539], [29.465047, 46.80755], [29.464808, 46.807587], [29.463935, 46.807719], [29.46286, 46.807883], [29.462674, 46.807911], [29.462239, 46.807978], [29.460303, 46.808272], [29.459187, 46.808442], [29.458931, 46.808495], [29.458683, 46.808571], [29.458492, 46.808687], [29.458487, 46.808692], [29.458333, 46.808822], [29.458215, 46.808977], [29.458152, 46.809103], [29.458101, 46.809249], [29.45809, 46.80947], [29.458116, 46.809684], [29.458431, 46.811569], [29.458536, 46.812201], [29.458552, 46.812296], [29.458603, 46.812611], [29.458696, 46.81319], [29.458749, 46.813496], [29.458801, 46.813814], [29.459073, 46.815478], [29.459158, 46.816022], [29.459218, 46.816405], [29.459237, 46.816539], [29.459283, 46.816879], [29.459315, 46.817013], [29.459458, 46.817429], [29.459866, 46.818476], [29.46028, 46.819581], [29.460603, 46.820524], [29.460719, 46.820828], [29.460777, 46.820981], [29.460848, 46.821166], [29.461002, 46.821571], [29.460324, 46.821702], [29.459745, 46.821814], [29.458491, 46.822046], [29.457033, 46.822311], [29.456219, 46.822448], [29.45594, 46.822495], [29.45555, 46.822567], [29.454586, 46.822725], [29.453429, 46.822932], [29.453206, 46.822935], [29.452983, 46.822885], [29.452209, 46.822705], [29.451909, 46.822649], [29.451379, 46.822565], [29.450957, 46.822559]]}, "properties": {"origin": "central", "district": "Хомутяновка", "uid": "w352064507", "distance_km": 5.5546, "duration_s": 376.5, "kind": "fastest"}}, {"type": "Feature", "geometry": {"type": "LineString", "coordinates": [[29.483304, 46.824154], [29.482844, 46.824291], [29.482491, 46.824396], [29.482349, 46.824444], [29.482205, 46.824488], [29.481962, 46.824563], [29.481627, 46.824666], [29.481337, 46.824756], [29.480644, 46.824966], [29.478998, 46.825477], [29.478436, 46.824305], [29.478401, 46.824233], [29.478353, 46.824127], [29.478271, 46.823947], [29.478197, 46.823784], [29.478159, 46.823697], [29.477734, 46.822752], [29.477529, 46.822297], [29.47743, 46.822065], [29.476836, 46.820674], [29.47675, 46.820471], [29.47672, 46.8204], [29.476675, 46.820291], [29.476443, 46.819718], [29.476235, 46.819214], [29.475988, 46.818625], [29.475958, 46.818544], [29.475908, 46.81844], [29.47512, 46.816695], [29.475107, 46.816658], [29.475056, 46.816552], [29.474795, 46.815948], [29.474678, 46.815674], [29.474497, 46.815283], [29.474342, 46.814946], [29.474006, 46.814758], [29.473798, 46.814601], [29.473248, 46.813901], [29.473152, 46.813774], [29.472939, 46.81346], [29.472889, 46.813386], [29.472811, 46.813271], [29.472404, 46.81268], [29.472268, 46.812462], [29.472043, 46.812159], [29.471773, 46.811769], [29.471593, 46.811509], [29.471387, 46.811232], [29.47108, 46.810815], [29.470915, 46.810614], [29.470824, 46.810505], [29.468897, 46.808761], [29.468497, 46.808399], [29.468294, 46.808215], [29.468184, 46.808105], [29.468083, 46.808001], [29.468027, 46.807937], [29.467919, 46.807815], [29.467349, 46.8072], [29.465556, 46.807473], [29.465504, 46.807481], [29.465119, 46.807539], [29.465047, 46.80755], [29.464808, 46.807587], [29.463935, 46.807719], [29.46286, 46.807883], [29.462674, 46.807911], [29.462239, 46.807978], [29.460303, 46.808272], [29.459187, 46.808442], [29.458931, 46.808495], [29.458683, 46.808571], [29.458492, 46.808687], [29.458487, 46.808692], [29.458333, 46.808822], [29.458215, 46.808977], [29.458152, 46.809103], [29.458101, 46.809249], [29.45809, 46.80947], [29.458116, 46.809684], [29.458431, 46.811569], [29.458536, 46.812201], [29.458552, 46.812296], [29.458603, 46.812611], [29.458696, 46.81319], [29.458749, 46.813496], [29.458801, 46.813814], [29.459073, 46.815478], [29.459158, 46.816022], [29.459218, 46.816405], [29.459237, 46.816539], [29.459283, 46.816879], [29.459315, 46.817013], [29.459458, 46.817429], [29.459866, 46.818476], [29.46028, 46.819581], [29.460603, 46.820524], [29.460719, 46.820828], [29.460777, 46.820981], [29.460848, 46.821166], [29.461002, 46.821571], [29.460324, 46.821702], [29.459745, 46.821814], [29.458491, 46.822046], [29.457033, 46.822311], [29.456219, 46.822448], [29.45594, 46.822495], [29.45555, 46.822567], [29.454586, 46.822725], [29.453429, 46.822932], [29.453206, 46.822935], [29.452983, 46.822885], [29.452209, 46.822705], [29.451909, 46.822649], [29.451379, 46.822565], [29.450758, 46.822557]]}, "properties": {"origin": "central", "district": "Хомутяновка", "uid": "w352161715", "distance_km": 5.5698, "duration_s": 377.8, "kind": "fastest"}}, {"type": "Feature", "geometry": {"type": "LineString", "coordinates": [[29.483304, 46.824154], [29.482844, 46.824291], [29.482491, 46.824396], [29.482349, 46.824444], [29.482205, 46.824488], [29.481962, 46.824563], [29.481627, 46.824666], [29.481337, 46.824756], [29.480644, 46.824966], [29.478998, 46.825477], [29.478436, 46.824305], [29.478401, 46.824233], [29.478353, 46.824127], [29.478271, 46.823947], [29.478197, 46.823784], [29.478159, 46.823697], [29.477734, 46.822752], [29.477529, 46.822297], [29.47743, 46.822065], [29.476836, 46.820674], [29.47675, 46.820471], [29.47672, 46.8204], [29.476675, 46.820291], [29.476443, 46.819718], [29.476235, 46.819214], [29.475988, 46.818625], [29.475958, 46.818544], [29.475908, 46.81844], [29.47512, 46.816695], [29.475107, 46.816658], [29.475056, 46.816552], [29.474795, 46.815948], [29.474678, 46.815674], [29.474497, 46.815283], [29.474342, 46.814946], [29.474006, 46.814758], [29.473798, 46.814601], [29.473248, 46.813901], [29.473152, 46.813774], [29.472939, 46.81346], [29.472889, 46.813386], [29.472811, 46.813271], [29.472404, 46.81268], [29.472268, 46.812462], [29.472043, 46.812159], [29.471773, 46.811769], [29.471593, 46.811509], [29.471387, 46.811232], [29.47108, 46.810815], [29.470915, 46.810614], [29.470824, 46.810505], [29.468897, 46.808761], [29.468497, 46.808399], [29.468294, 46.808215], [29.468184, 46.808105], [29.468083, 46.808001], [29.468027, 46.807937], [29.467919, 46.807815], [29.467349, 46.8072], [29.465556, 46.807473], [29.465504, 46.807481], [29.465119, 46.807539], [29.465047, 46.80755], [29.464808, 46.807587], [29.463935, 46.807719], [29.46286, 46.807883], [29.462674, 46.807911], [29.462239, 46.807978], [29.460303, 46.808272], [29.459187, 46.808442], [29.458931, 46.808495], [29.458683, 46.808571], [29.458492, 46.808687], [29.458487, 46.808692], [29.458333, 46.808822], [29.458215, 46.808977], [29.458152, 46.809103], [29.458101, 46.809249], [29.45809, 46.80947], [29.458116, 46.809684], [29.458431, 46.811569], [29.458536, 46.812201], [29.458065, 46.812353], [29.45734, 46.812587], [29.454307, 46.813575], [29.45388, 46.81374], [29.453119, 46.814074], [29.452772, 46.814269], [29.452608, 46.814361], [29.452389, 46.814502], [29.451947, 46.814798], [29.450468, 46.815788], [29.450324, 46.815899], [29.450489, 46.816012], [29.451237, 46.816432], [29.452719, 46.817351], [29.45182, 46.817812], [29.451386, 46.818237], [29.45106, 46.818543], [29.450782, 46.81883], [29.450245, 46.819878], [29.450156, 46.820144], [29.449825, 46.821134], [29.449336, 46.821761], [29.44923, 46.821898], [29.449135, 46.822201], [29.449185, 46.822521], [29.4501, 46.822548], [29.450758, 46.822557]]}, "properties": {"origin": "central", "district": "Хомутяновка", "uid": "w352161715", "distance_km": 5.4804, "duration_s": 503.1, "kind": "alt_1"}}, {"type": "Feature", "geometry": {"type": "LineString", "coordinates": [[29.483304, 46.824154], [29.482844, 46.824291], [29.482491, 46.824396], [29.482349, 46.824444], [29.482205, 46.824488], [29.481962, 46.824563], [29.481627, 46.824666], [29.481337, 46.824756], [29.480644, 46.824966], [29.478998, 46.825477], [29.478436, 46.824305], [29.478401, 46.824233], [29.478353, 46.824127], [29.478271, 46.823947], [29.478197, 46.823784], [29.478159, 46.823697], [29.477734, 46.822752], [29.477529, 46.822297], [29.47743, 46.822065], [29.476836, 46.820674], [29.47675, 46.820471], [29.47672, 46.8204], [29.476675, 46.820291], [29.476443, 46.819718], [29.476235, 46.819214], [29.475988, 46.818625], [29.475958, 46.818544], [29.475908, 46.81844], [29.47512, 46.816695], [29.475107, 46.816658], [29.475056, 46.816552], [29.474795, 46.815948], [29.474678, 46.815674], [29.474497, 46.815283], [29.474342, 46.814946], [29.474006, 46.814758], [29.473798, 46.814601], [29.473248, 46.813901], [29.473152, 46.813774], [29.472939, 46.81346], [29.472889, 46.813386], [29.472811, 46.813271], [29.472404, 46.81268], [29.472268, 46.812462], [29.472043, 46.812159], [29.471773, 46.811769], [29.471593, 46.811509], [29.471387, 46.811232], [29.47108, 46.810815], [29.470915, 46.810614], [29.470824, 46.810505], [29.468897, 46.808761], [29.468497, 46.808399], [29.468294, 46.808215], [29.468184, 46.808105], [29.468083, 46.808001], [29.468027, 46.807937], [29.467919, 46.807815], [29.467349, 46.8072], [29.465556, 46.807473], [29.465504, 46.807481], [29.465119, 46.807539], [29.465047, 46.80755], [29.464808, 46.807587], [29.463935, 46.807719], [29.46286, 46.807883], [29.462674, 46.807911], [29.462239, 46.807978], [29.460303, 46.808272], [29.459187, 46.808442], [29.458931, 46.808495], [29.458683, 46.808571], [29.458492, 46.808687], [29.458487, 46.808692], [29.458333, 46.808822], [29.458215, 46.808977], [29.458152, 46.809103], [29.458101, 46.809249], [29.45809, 46.80947], [29.458116, 46.809684], [29.458431, 46.811569], [29.458536, 46.812201], [29.458552, 46.812296], [29.458603, 46.812611], [29.458696, 46.81319], [29.458749, 46.813496], [29.458801, 46.813814], [29.459073, 46.815478], [29.459158, 46.816022], [29.459218, 46.816405], [29.459237, 46.816539], [29.459283, 46.816879], [29.459315, 46.817013], [29.459458, 46.817429], [29.459866, 46.818476], [29.46028, 46.819581], [29.460603, 46.820524], [29.460719, 46.820828], [29.460777, 46.820981], [29.460848, 46.821166], [29.461002, 46.821571], [29.460324, 46.821702], [29.459745, 46.821814], [29.458491, 46.822046], [29.457033, 46.822311], [29.456219, 46.822448], [29.45594, 46.822495], [29.45555, 46.822567], [29.454586, 46.822725], [29.453429, 46.822932], [29.453206, 46.822935], [29.452983, 46.822885], [29.452209, 46.822705], [29.451909, 46.822649], [29.451379, 46.822565], [29.450519, 46.822554]]}, "properties": {"origin": "central", "district": "Хомутяновка", "uid": "w352161714", "distance_km": 5.588, "duration_s": 379.5, "kind": "fastest"}}, {"type": "Feature", "geometry": {"type": "LineString", "coordinates": [[29.483304, 46.824154], [29.482844, 46.824291], [29.482491, 46.824396], [29.482349, 46.824444], [29.482205, 46.824488], [29.481962, 46.824563], [29.481627, 46.824666], [29.481337, 46.824756], [29.480644, 46.824966], [29.478998, 46.825477], [29.478436, 46.824305], [29.478401, 46.824233], [29.478353, 46.824127], [29.478271, 46.823947], [29.478197, 46.823784], [29.478159, 46.823697], [29.477734, 46.822752], [29.477529, 46.822297], [29.47743, 46.822065], [29.476836, 46.820674], [29.47675, 46.820471], [29.47672, 46.8204], [29.476675, 46.820291], [29.476443, 46.819718], [29.476235, 46.819214], [29.475988, 46.818625], [29.475958, 46.818544], [29.475908, 46.81844], [29.47512, 46.816695], [29.475107, 46.816658], [29.475056, 46.816552], [29.474795, 46.815948], [29.474678, 46.815674], [29.474497, 46.815283], [29.474342, 46.814946], [29.474006, 46.814758], [29.473798, 46.814601], [29.473248, 46.813901], [29.473152, 46.813774], [29.472939, 46.81346], [29.472889, 46.813386], [29.472811, 46.813271], [29.472404, 46.81268], [29.472268, 46.812462], [29.472043, 46.812159], [29.471773, 46.811769], [29.471593, 46.811509], [29.471387, 46.811232], [29.47108, 46.810815], [29.470915, 46.810614], [29.470824, 46.810505], [29.468897, 46.808761], [29.468497, 46.808399], [29.468294, 46.808215], [29.468184, 46.808105], [29.468083, 46.808001], [29.468027, 46.807937], [29.467919, 46.807815], [29.467349, 46.8072], [29.465556, 46.807473], [29.465504, 46.807481], [29.465119, 46.807539], [29.465047, 46.80755], [29.464808, 46.807587], [29.463935, 46.807719], [29.46286, 46.807883], [29.462674, 46.807911], [29.462239, 46.807978], [29.460303, 46.808272], [29.459187, 46.808442], [29.458931, 46.808495], [29.458683, 46.808571], [29.458492, 46.808687], [29.458487, 46.808692], [29.458333, 46.808822], [29.458215, 46.808977], [29.458152, 46.809103], [29.458101, 46.809249], [29.45809, 46.80947], [29.458116, 46.809684], [29.458431, 46.811569], [29.458536, 46.812201], [29.458065, 46.812353], [29.45734, 46.812587], [29.454307, 46.813575], [29.45388, 46.81374], [29.453119, 46.814074], [29.452772, 46.814269], [29.452608, 46.814361], [29.452389, 46.814502], [29.451947, 46.814798], [29.450468, 46.815788], [29.450324, 46.815899], [29.450489, 46.816012], [29.451237, 46.816432], [29.452719, 46.817351], [29.45182, 46.817812], [29.451386, 46.818237], [29.45106, 46.818543], [29.450782, 46.81883], [29.450245, 46.819878], [29.450156, 46.820144], [29.449825, 46.821134], [29.449336, 46.821761], [29.44923, 46.821898], [29.449135, 46.822201], [29.449185, 46.822521], [29.4501, 46.822548], [29.450519, 46.822554]]}, "properties": {"origin": "central", "district": "Хомутяновка", "uid": "w352161714", "distance_km": 5.4622, "duration_s": 501.4, "kind": "alt_1"}}, {"type": "Feature", "geometry": {"type": "LineString", "coordinates": [[29.483304, 46.824154], [29.483349, 46.824141], [29.483782, 46.824007], [29.483939, 46.823959], [29.484097, 46.823912], [29.484045, 46.823804], [29.483968, 46.82365], [29.483598, 46.822917], [29.483541, 46.822802], [29.483438, 46.822597], [29.483536, 46.822568], [29.48496, 46.82213], [29.48509, 46.822088], [29.485131, 46.822169], [29.485238, 46.822378], [29.48538, 46.822659], [29.485495, 46.822883], [29.485499, 46.822892], [29.485705, 46.823296], [29.485765, 46.8234], [29.485795, 46.823472], [29.486483, 46.824787], [29.486678, 46.825161], [29.486714, 46.825229], [29.486746, 46.825294], [29.486842, 46.825484], [29.487625, 46.827029], [29.487957, 46.827685], [29.48804, 46.827913], [29.487987, 46.828141], [29.487765, 46.829116], [29.487744, 46.829211], [29.487726, 46.829816], [29.48774, 46.82997], [29.487794, 46.830313], [29.487802, 46.830362], [29.487832, 46.830555], [29.487838, 46.83061], [29.487889, 46.831051], [29.488041, 46.831314], [29.488122, 46.831434], [29.48816, 46.831472], [29.488225, 46.831538], [29.488326, 46.831624], [29.488436, 46.831697], [29.488694, 46.831821], [29.488784, 46.831853], [29.488933, 46.831896], [29.489066, 46.83193], [29.489225, 46.831961], [29.489871, 46.832054], [29.492932, 46.832424], [29.493475, 46.83249], [29.493551, 46.832499], [29.496614, 46.8329], [29.499785, 46.833259], [29.500924, 46.833391], [29.503519, 46.83378], [29.504346, 46.833913], [29.504547, 46.833945], [29.50465, 46.833962], [29.504794, 46.833985], [29.50502, 46.834021], [29.505505, 46.834101], [29.50598, 46.83419], [29.506148, 46.834225], [29.506604, 46.834318], [29.507429, 46.834445], [29.508261, 46.834607], [29.508663, 46.834699], [29.50934, 46.834791], [29.509744, 46.834863], [29.509756, 46.834842], [29.509765, 46.834757], [29.509778, 46.834694]]}, "properties": {"origin": "central", "district": "Парканы", "uid": "n2323343711", "distance_km": 3.1663, "duration_s": 225.1, "kind": "fastest"}}, {"type": "Feature", "geometry": {"type": "LineString", "coordinates": [[29.483304, 46.824154], [29.483349, 46.824141], [29.483782, 46.824007], [29.483939, 46.823959], [29.484097, 46.823912], [29.484045, 46.823804], [29.483968, 46.82365], [29.483598, 46.822917], [29.483541, 46.822802], [29.483438, 46.822597], [29.483536, 46.822568], [29.48496, 46.82213], [29.48509, 46.822088], [29.485131, 46.822169], [29.485238, 46.822378], [29.48538, 46.822659], [29.485495, 46.822883], [29.485499, 46.822892], [29.485705, 46.823296], [29.485765, 46.8234], [29.485795, 46.823472], [29.486483, 46.824787], [29.486678, 46.825161], [29.486714, 46.825229], [29.486746, 46.825294], [29.486842, 46.825484], [29.487625, 46.827029], [29.487957, 46.827685], [29.48804, 46.827913], [29.487987, 46.828141], [29.487765, 46.829116], [29.487744, 46.829211], [29.487726, 46.829816], [29.48774, 46.82997], [29.487794, 46.830313], [29.487802, 46.830362], [29.487832, 46.830555], [29.487838, 46.83061], [29.487889, 46.831051], [29.488041, 46.831314], [29.488122, 46.831434], [29.48816, 46.831472], [29.488225, 46.831538], [29.488326, 46.831624], [29.488436, 46.831697], [29.488694, 46.831821], [29.488784, 46.831853], [29.488933, 46.831896], [29.489066, 46.83193], [29.489225, 46.831961], [29.489871, 46.832054], [29.492932, 46.832424], [29.493475, 46.83249], [29.493551, 46.832499], [29.496614, 46.8329], [29.499785, 46.833259], [29.500924, 46.833391], [29.503519, 46.83378], [29.504346, 46.833913], [29.504547, 46.833945], [29.50465, 46.833962], [29.504794, 46.833985], [29.50502, 46.834021], [29.505505, 46.834101], [29.50598, 46.83419], [29.506148, 46.834225], [29.506604, 46.834318], [29.507429, 46.834445], [29.508261, 46.834607], [29.508663, 46.834699], [29.50934, 46.834791], [29.509744, 46.834863], [29.509756, 46.834842], [29.509765, 46.834757], [29.5098, 46.834585], [29.509806, 46.834565]]}, "properties": {"origin": "central", "district": "Парканы", "uid": "n2457586634", "distance_km": 3.1808, "duration_s": 226.3, "kind": "fastest"}}, {"type": "Feature", "geometry": {"type": "LineString", "coordinates": [[29.483304, 46.824154], [29.483349, 46.824141], [29.483782, 46.824007], [29.483939, 46.823959], [29.484097, 46.823912], [29.484045, 46.823804], [29.483968, 46.82365], [29.483598, 46.822917], [29.483541, 46.822802], [29.483438, 46.822597], [29.483536, 46.822568], [29.48496, 46.82213], [29.48509, 46.822088], [29.485131, 46.822169], [29.485238, 46.822378], [29.48538, 46.822659], [29.485495, 46.822883], [29.485499, 46.822892], [29.485705, 46.823296], [29.485765, 46.8234], [29.485795, 46.823472], [29.486483, 46.824787], [29.486678, 46.825161], [29.486714, 46.825229], [29.486746, 46.825294], [29.486842, 46.825484], [29.487625, 46.827029], [29.487957, 46.827685], [29.48804, 46.827913], [29.487987, 46.828141], [29.487765, 46.829116], [29.487744, 46.829211], [29.487726, 46.829816], [29.48774, 46.82997], [29.487794, 46.830313], [29.487802, 46.830362], [29.487832, 46.830555], [29.487838, 46.83061], [29.487889, 46.831051], [29.488041, 46.831314], [29.488122, 46.831434], [29.48816, 46.831472], [29.488225, 46.831538], [29.488326, 46.831624], [29.488436, 46.831697], [29.488694, 46.831821], [29.488784, 46.831853], [29.488933, 46.831896], [29.489066, 46.83193], [29.489225, 46.831961], [29.489871, 46.832054], [29.492932, 46.832424], [29.493475, 46.83249], [29.493551, 46.832499], [29.496614, 46.8329], [29.499785, 46.833259], [29.500924, 46.833391], [29.503519, 46.83378], [29.504346, 46.833913], [29.504547, 46.833945], [29.50465, 46.833962], [29.504794, 46.833985], [29.50502, 46.834021], [29.505505, 46.834101], [29.50598, 46.83419], [29.506148, 46.834225], [29.506604, 46.834318], [29.507429, 46.834445], [29.508261, 46.834607], [29.508663, 46.834699], [29.50934, 46.834791], [29.509744, 46.834863], [29.509756, 46.834842], [29.509765, 46.834757], [29.5098, 46.834585], [29.509853, 46.834398]]}, "properties": {"origin": "central", "district": "Парканы", "uid": "n2457586635", "distance_km": 3.1997, "duration_s": 228, "kind": "fastest"}}, {"type": "Feature", "geometry": {"type": "LineString", "coordinates": [[29.483304, 46.824154], [29.483349, 46.824141], [29.483782, 46.824007], [29.483939, 46.823959], [29.484097, 46.823912], [29.484045, 46.823804], [29.483968, 46.82365], [29.483598, 46.822917], [29.483541, 46.822802], [29.483438, 46.822597], [29.483536, 46.822568], [29.48496, 46.82213], [29.48509, 46.822088], [29.485131, 46.822169], [29.485238, 46.822378], [29.48538, 46.822659], [29.485495, 46.822883], [29.485499, 46.822892], [29.485705, 46.823296], [29.485765, 46.8234], [29.485795, 46.823472], [29.486483, 46.824787], [29.486678, 46.825161], [29.486714, 46.825229], [29.486746, 46.825294], [29.486842, 46.825484], [29.487625, 46.827029], [29.487957, 46.827685], [29.48804, 46.827913], [29.487987, 46.828141], [29.487765, 46.829116], [29.487744, 46.829211], [29.487726, 46.829816], [29.48774, 46.82997], [29.487794, 46.830313], [29.487802, 46.830362], [29.487832, 46.830555], [29.487838, 46.83061], [29.487889, 46.831051], [29.488041, 46.831314], [29.488122, 46.831434], [29.48816, 46.831472], [29.488225, 46.831538], [29.488326, 46.831624], [29.488436, 46.831697], [29.488694, 46.831821], [29.488784, 46.831853], [29.488933, 46.831896], [29.489066, 46.83193], [29.489225, 46.831961], [29.489871, 46.832054], [29.492932, 46.832424], [29.493475, 46.83249], [29.493551, 46.832499], [29.496614, 46.8329], [29.499785, 46.833259], [29.500924, 46.833391], [29.503519, 46.83378], [29.504346, 46.833913], [29.504547, 46.833945], [29.50465, 46.833962], [29.504794, 46.833985], [29.50502, 46.834021], [29.505505, 46.834101], [29.50598, 46.83419], [29.506148, 46.834225], [29.506604, 46.834318], [29.507429, 46.834445], [29.508261, 46.834607], [29.508663, 46.834699], [29.50934, 46.834791], [29.509744, 46.834863], [29.509756, 46.834842], [29.509765, 46.834757], [29.5098, 46.834585], [29.50989, 46.83427]]}, "properties": {"origin": "central", "district": "Парканы", "uid": "n2457586636", "distance_km": 3.2143, "duration_s": 229.3, "kind": "fastest"}}, {"type": "Feature", "geometry": {"type": "LineString", "coordinates": [[29.483304, 46.824154], [29.483349, 46.824141], [29.483782, 46.824007], [29.483939, 46.823959], [29.484097, 46.823912], [29.484045, 46.823804], [29.483968, 46.82365], [29.483598, 46.822917], [29.483541, 46.822802], [29.483438, 46.822597], [29.483536, 46.822568], [29.48496, 46.82213], [29.48509, 46.822088], [29.485131, 46.822169], [29.485238, 46.822378], [29.48538, 46.822659], [29.485495, 46.822883], [29.485499, 46.822892], [29.485705, 46.823296], [29.485765, 46.8234], [29.485795, 46.823472], [29.486483, 46.824787], [29.486678, 46.825161], [29.486714, 46.825229], [29.486746, 46.825294], [29.486842, 46.825484], [29.487625, 46.827029], [29.487957, 46.827685], [29.48804, 46.827913], [29.487987, 46.828141], [29.487765, 46.829116], [29.487744, 46.829211], [29.487726, 46.829816], [29.48774, 46.82997], [29.487794, 46.830313], [29.487802, 46.830362], [29.487832, 46.830555], [29.487838, 46.83061], [29.487889, 46.831051], [29.488041, 46.831314], [29.488122, 46.831434], [29.48816, 46.831472], [29.488225, 46.831538], [29.488326, 46.831624], [29.488436, 46.831697], [29.488694, 46.831821], [29.488784, 46.831853], [29.488933, 46.831896], [29.489066, 46.83193], [29.489225, 46.831961], [29.489871, 46.832054], [29.492932, 46.832424], [29.493475, 46.83249], [29.493551, 46.832499], [29.496614, 46.8329], [29.499785, 46.833259], [29.500924, 46.833391], [29.503519, 46.83378], [29.504346, 46.833913], [29.504547, 46.833945], [29.50465, 46.833962], [29.504794, 46.833985], [29.50502, 46.834021], [29.505505, 46.834101], [29.50598, 46.83419], [29.506148, 46.834225], [29.506604, 46.834318], [29.507429, 46.834445], [29.508261, 46.834607], [29.508663, 46.834699], [29.50934, 46.834791], [29.509744, 46.834863], [29.509756, 46.834842], [29.509765, 46.834757], [29.5098, 46.834585], [29.50993, 46.83413]]}, "properties": {"origin": "central", "district": "Парканы", "uid": "n2457586637", "distance_km": 3.2301, "duration_s": 230.7, "kind": "fastest"}}, {"type": "Feature", "geometry": {"type": "LineString", "coordinates": [[29.483304, 46.824154], [29.483349, 46.824141], [29.483782, 46.824007], [29.483939, 46.823959], [29.484097, 46.823912], [29.484045, 46.823804], [29.483968, 46.82365], [29.483598, 46.822917], [29.483541, 46.822802], [29.483438, 46.822597], [29.483413, 46.822548], [29.483266, 46.822256], [29.483156, 46.822035], [29.482987, 46.821682], [29.482702, 46.821096], [29.482665, 46.821016], [29.482621, 46.820922], [29.481816, 46.819246], [29.481581, 46.818781], [29.481307, 46.818242], [29.480897, 46.817434], [29.480303, 46.816248], [29.479955, 46.815529], [29.479802, 46.815218], [29.479615, 46.814835], [29.479565, 46.81473], [29.479228, 46.814029], [29.479192, 46.813942], [29.479192, 46.813823], [29.479191, 46.813386], [29.479254, 46.813131], [29.479314, 46.812949], [29.479424, 46.812616], [29.479884, 46.811678], [29.480247, 46.810563], [29.480416, 46.809954], [29.480386, 46.809206], [29.480376, 46.808582], [29.480383, 46.808286], [29.480368, 46.805922], [29.480378, 46.805506], [29.480359, 46.804529], [29.480345, 46.804451], [29.48029, 46.804151], [29.479899, 46.803303], [29.479789, 46.803075], [29.479247, 46.801887], [29.479126, 46.801609], [29.479067, 46.801521], [29.478978, 46.80143], [29.478849, 46.801323], [29.478691, 46.80122], [29.478567, 46.801146], [29.478357, 46.80105], [29.477976, 46.80092], [29.477855, 46.800876], [29.477383, 46.800746], [29.477094, 46.800742], [29.476987, 46.800771], [29.476941, 46.800781], [29.476891, 46.800783], [29.476841, 46.800776], [29.476797, 46.800759], [29.47676, 46.800736], [29.476734, 46.800706], [29.476721, 46.800673], [29.47672, 46.800643], [29.476695, 46.800127], [29.476665, 46.799658], [29.47667, 46.799381], [29.476675, 46.798733], [29.476655, 46.793471]]}, "properties": {"origin": "central", "district": "Гиска", "uid": "w353817270", "distance_km": 3.6598, "duration_s": 218, "kind": "fastest"}}, {"type": "Feature", "geometry": {"type": "LineString", "coordinates": [[29.483304, 46.824154], [29.483349, 46.824141], [29.483782, 46.824007], [29.483939, 46.823959], [29.484097, 46.823912], [29.484045, 46.823804], [29.483968, 46.82365], [29.483598, 46.822917], [29.483541, 46.822802], [29.483438, 46.822597], [29.483413, 46.822548], [29.483266, 46.822256], [29.483156, 46.822035], [29.482987, 46.821682], [29.482702, 46.821096], [29.482665, 46.821016], [29.482621, 46.820922], [29.481816, 46.819246], [29.481581, 46.818781], [29.481307, 46.818242], [29.480897, 46.817434], [29.480303, 46.816248], [29.479955, 46.815529], [29.479802, 46.815218], [29.479615, 46.814835], [29.479565, 46.81473], [29.479228, 46.814029], [29.479192, 46.813942], [29.479192, 46.813823], [29.479191, 46.813386], [29.479254, 46.813131], [29.479314, 46.812949], [29.479424, 46.812616], [29.479884, 46.811678], [29.480247, 46.810563], [29.480416, 46.809954], [29.480386, 46.809206], [29.480376, 46.808582], [29.480383, 46.808286], [29.480368, 46.805922], [29.480378, 46.805506], [29.480359, 46.804529], [29.480345, 46.804451], [29.48029, 46.804151], [29.479899, 46.803303], [29.479789, 46.803075], [29.479247, 46.801887], [29.479126, 46.801609], [29.479067, 46.801521], [29.478978, 46.80143], [29.478849, 46.801323], [29.478691, 46.80122], [29.478567, 46.801146], [29.478357, 46.80105], [29.477976, 46.80092], [29.477855, 46.800876], [29.477383, 46.800746], [29.477094, 46.800742], [29.476987, 46.800771], [29.476941, 46.800781], [29.476891, 46.800783], [29.476841, 46.800776], [29.476797, 46.800759], [29.47676, 46.800736], [29.476734, 46.800706], [29.476721, 46.800673], [29.47672, 46.800643], [29.476695, 46.800127], [29.476665, 46.799658], [29.47667, 46.799381], [29.476675, 46.798733], [29.476655, 46.793469]]}, "properties": {"origin": "central", "district": "Гиска", "uid": "w353619672", "distance_km": 3.6601, "duration_s": 218.1, "kind": "fastest"}}, {"type": "Feature", "geometry": {"type": "LineString", "coordinates": [[29.483304, 46.824154], [29.483349, 46.824141], [29.483782, 46.824007], [29.483939, 46.823959], [29.484097, 46.823912], [29.484045, 46.823804], [29.483968, 46.82365], [29.483598, 46.822917], [29.483541, 46.822802], [29.483438, 46.822597], [29.483413, 46.822548], [29.483266, 46.822256], [29.483156, 46.822035], [29.482987, 46.821682], [29.482702, 46.821096], [29.482665, 46.821016], [29.482621, 46.820922], [29.481816, 46.819246], [29.481581, 46.818781], [29.481307, 46.818242], [29.480897, 46.817434], [29.480303, 46.816248], [29.479955, 46.815529], [29.479802, 46.815218], [29.479615, 46.814835], [29.479565, 46.81473], [29.479228, 46.814029], [29.479192, 46.813942], [29.479192, 46.813823], [29.479191, 46.813386], [29.479254, 46.813131], [29.479314, 46.812949], [29.479424, 46.812616], [29.479884, 46.811678], [29.480247, 46.810563], [29.480416, 46.809954], [29.480386, 46.809206], [29.480376, 46.808582], [29.480383, 46.808286], [29.480368, 46.805922], [29.480378, 46.805506], [29.480359, 46.804529], [29.480345, 46.804451], [29.48029, 46.804151], [29.479899, 46.803303], [29.479789, 46.803075], [29.479247, 46.801887], [29.479126, 46.801609], [29.479067, 46.801521], [29.478978, 46.80143], [29.478849, 46.801323], [29.478691, 46.80122], [29.478567, 46.801146], [29.478357, 46.80105], [29.477976, 46.80092], [29.477855, 46.800876], [29.477383, 46.800746], [29.477094, 46.800742], [29.476987, 46.800771], [29.476941, 46.800781], [29.476891, 46.800783], [29.476841, 46.800776], [29.476797, 46.800759], [29.47676, 46.800736], [29.476734, 46.800706], [29.476721, 46.800673], [29.47672, 46.800643], [29.476695, 46.800127], [29.476665, 46.799658], [29.47667, 46.799381], [29.476675, 46.798733], [29.476654, 46.793259], [29.476653, 46.793234]]}, "properties": {"origin": "central", "district": "Гиска", "uid": "w353817271", "distance_km": 3.6862, "duration_s": 219.5, "kind": "fastest"}}, {"type": "Feature", "geometry": {"type": "LineString", "coordinates": [[29.483304, 46.824154], [29.483349, 46.824141], [29.483782, 46.824007], [29.483939, 46.823959], [29.484097, 46.823912], [29.484045, 46.823804], [29.483968, 46.82365], [29.483598, 46.822917], [29.483541, 46.822802], [29.483438, 46.822597], [29.483413, 46.822548], [29.483266, 46.822256], [29.483156, 46.822035], [29.482987, 46.821682], [29.482702, 46.821096], [29.482665, 46.821016], [29.482621, 46.820922], [29.481816, 46.819246], [29.481581, 46.818781], [29.481307, 46.818242], [29.480897, 46.817434], [29.480303, 46.816248], [29.479955, 46.815529], [29.479802, 46.815218], [29.479615, 46.814835], [29.479565, 46.81473], [29.479228, 46.814029], [29.479192, 46.813942], [29.479192, 46.813823], [29.479191, 46.813386], [29.479254, 46.813131], [29.479314, 46.812949], [29.479424, 46.812616], [29.479884, 46.811678], [29.480247, 46.810563], [29.480416, 46.809954], [29.480386, 46.809206], [29.480376, 46.808582], [29.480383, 46.808286], [29.480368, 46.805922], [29.480378, 46.805506], [29.480359, 46.804529], [29.480345, 46.804451], [29.48029, 46.804151], [29.479899, 46.803303], [29.479789, 46.803075], [29.479247, 46.801887], [29.479126, 46.801609], [29.479067, 46.801521], [29.478978, 46.80143], [29.478849, 46.801323], [29.478691, 46.80122], [29.478567, 46.801146], [29.478357, 46.80105], [29.477976, 46.80092], [29.477855, 46.800876], [29.477383, 46.800746], [29.477094, 46.800742], [29.476987, 46.800771], [29.476941, 46.800781], [29.476891, 46.800783], [29.476841, 46.800776], [29.476797, 46.800759], [29.47676, 46.800736], [29.476734, 46.800706], [29.476721, 46.800673], [29.47672, 46.800643], [29.476695, 46.800127], [29.476665, 46.799658], [29.47667, 46.799381], [29.476675, 46.798733], [29.476654, 46.793259], [29.476652, 46.793186]]}, "properties": {"origin": "central", "district": "Гиска", "uid": "w353619649", "distance_km": 3.6915, "duration_s": 219.8, "kind": "fastest"}}, {"type": "Feature", "geometry": {"type": "LineString", "coordinates": [[29.483304, 46.824154], [29.483349, 46.824141], [29.483782, 46.824007], [29.483939, 46.823959], [29.484097, 46.823912], [29.484045, 46.823804], [29.483968, 46.82365], [29.483598, 46.822917], [29.483541, 46.822802], [29.483438, 46.822597], [29.483413, 46.822548], [29.483266, 46.822256], [29.483156, 46.822035], [29.482987, 46.821682], [29.482702, 46.821096], [29.482665, 46.821016], [29.482621, 46.820922], [29.481816, 46.819246], [29.481581, 46.818781], [29.481307, 46.818242], [29.480897, 46.817434], [29.480303, 46.816248], [29.479955, 46.815529], [29.479802, 46.815218], [29.479615, 46.814835], [29.479565, 46.81473], [29.479228, 46.814029], [29.479192, 46.813942], [29.479192, 46.813823], [29.479191, 46.813386], [29.479254, 46.813131], [29.479314, 46.812949], [29.479424, 46.812616], [29.479884, 46.811678], [29.480247, 46.810563], [29.480416, 46.809954], [29.480386, 46.809206], [29.480376, 46.808582], [29.480383, 46.808286], [29.480368, 46.805922], [29.480378, 46.805506], [29.480359, 46.804529], [29.480345, 46.804451], [29.48029, 46.804151], [29.479899, 46.803303], [29.479789, 46.803075], [29.479247, 46.801887], [29.479126, 46.801609], [29.479067, 46.801521], [29.478978, 46.80143], [29.478849, 46.801323], [29.478691, 46.80122], [29.478567, 46.801146], [29.478357, 46.80105], [29.477976, 46.80092], [29.477855, 46.800876], [29.477383, 46.800746], [29.477094, 46.800742], [29.476987, 46.800771], [29.476941, 46.800781], [29.476891, 46.800783], [29.476841, 46.800776], [29.476797, 46.800759], [29.47676, 46.800736], [29.476734, 46.800706], [29.476721, 46.800673], [29.47672, 46.800643], [29.476695, 46.800127], [29.476665, 46.799658], [29.47667, 46.799381], [29.476675, 46.798733], [29.476654, 46.793259], [29.476649, 46.793044]]}, "properties": {"origin": "central", "district": "Гиска", "uid": "w353817272", "distance_km": 3.7073, "duration_s": 220.7, "kind": "fastest"}}]}