{"type": "FeatureCollection", "features": [{"type": "Feature", "geometry": {"type": "LineString", "coordinates": [[29.483304, 46.824154], [29.482844, 46.824291], [29.482491, 46.824396], [29.482349, 46.824444], [29.482205, 46.824488], [29.481962, 46.824563], [29.481627, 46.824666], [29.481337, 46.824756], [29.480644, 46.824966], [29.478998, 46.825477], [29.478436, 46.824305], [29.478401, 46.824233], [29.478353, 46.824127], [29.478271, 46.823947], [29.478197, 46.823784], [29.478159, 46.823697], [29.477734, 46.822752], [29.477529, 46.822297], [29.47743, 46.822065], [29.476836, 46.820674], [29.47675, 46.820471], [29.47672, 46.8204], [29.476675, 46.820291], [29.476443, 46.819718], [29.476235, 46.819214], [29.475988, 46.818625], [29.475958, 46.818544], [29.475908, 46.81844], [29.47512, 46.816695], [29.475107, 46.816658], [29.475056, 46.816552], [29.474795, 46.815948], [29.474678, 46.815674], [29.474497, 46.815283], [29.474342, 46.814946], [29.474006, 46.814758], [29.473798, 46.814601], [29.473248, 46.813901], [29.473152, 46.813774], [29.472939, 46.81346], [29.472889, 46.813386], [29.472811, 46.813271], [29.472404, 46.81268], [29.472268, 46.812462], [29.472043, 46.812159], [29.471773, 46.811769], [29.471593, 46.811509], [29.471387, 46.811232], [29.47108, 46.810815], [29.470915, 46.810614], [29.470824, 46.810505], [29.468897, 46.808761], [29.468497, 46.808399], [29.468294, 46.808215], [29.468184, 46.808105], [29.468083, 46.808001], [29.468027, 46.807937], [29.467919, 46.807815], [29.467349, 46.8072], [29.465556, 46.807473], [29.465504, 46.807481], [29.465119, 46.807539], [29.465047, 46.80755], [29.464808, 46.807587], [29.463935, 46.807719], [29.46286, 46.807883], [29.462674, 46.807911], [29.462239, 46.807978], [29.460303, 46.808272], [29.459187, 46.808442], [29.458931, 46.808495], [29.458683, 46.808571], [29.458492, 46.808687], [29.458487, 46.808692], [29.458333, 46.808822], [29.458215, 46.808977], [29.458152, 46.809103], [29.458101, 46.809249], [29.45809, 46.80947], [29.458116, 46.809684], [29.458431, 46.811569], [29.458536, 46.812201], [29.458552, 46.812296], [29.458603, 46.812611], [29.458696, 46.81319], [29.458749, 46.813496], [29.458801, 46.813814], [29.459073, 46.815478], [29.459158, 46.816022], [29.459218, 46.816405], [29.459237, 46.816539], [29.459283, 46.816879], [29.459315, 46.817013], [29.459458, 46.817429], [29.459866, 46.818476], [29.46028, 46.819581], [29.460603, 46.820524], [29.460719, 46.820828], [29.460777, 46.820981], [29.460848, 46.821166], [29.461002, 46.821571], [29.461247, 46.822177], [29.461309, 46.82233], [29.461616, 46.823072], [29.46195, 46.823837], [29.462003, 46.823971], [29.462183, 46.824428], [29.462342, 46.824834], [29.462538, 46.825328], [29.462554, 46.825374], [29.462596, 46.825499], [29.463092, 46.826787], [29.463322, 46.827398], [29.46334, 46.82744], [29.463635, 46.828073], [29.464058, 46.829106], [29.464204, 46.829461], [29.464407, 46.829911], [29.464501, 46.83014], [29.464678, 46.830623], [29.464723, 46.830746], [29.464856, 46.831066], [29.464938, 46.83128], [29.465015, 46.831467], [29.465049, 46.83155], [29.465117, 46.831715], [29.465281, 46.832114], [29.465553, 46.832773], [29.465757, 46.833268], [29.465865, 46.833532], [29.466067, 46.834009], [29.466162, 46.834252], [29.466385, 46.834795], [29.466405, 46.834843], [29.466596, 46.835308], [29.466701, 46.835536], [29.466872, 46.835979], [29.466947, 46.836243], [29.467098, 46.836065], [29.467739, 46.835421]]}, "properties": {"home": "Кишинёвская_1", "kind": "unrestricted_fastest", "distance_km": 6.5654, "duration_s": 410.9}}, {"type": "Feature", "geometry": {"type": "LineString", "coordinates": [[29.483304, 46.824154], [29.483349, 46.824141], [29.483782, 46.824007], [29.483939, 46.823959], [29.484097, 46.823912], [29.484045, 46.823804], [29.483968, 46.82365], [29.483598, 46.822917], [29.483541, 46.822802], [29.483438, 46.822597], [29.483536, 46.822568], [29.48496, 46.82213], [29.48509, 46.822088], [29.485131, 46.822169], [29.485238, 46.822378], [29.48538, 46.822659], [29.485495, 46.822883], [29.485499, 46.822892], [29.485705, 46.823296], [29.485765, 46.8234], [29.485795, 46.823472], [29.486483, 46.824787], [29.486678, 46.825161], [29.486714, 46.825229], [29.486746, 46.825294], [29.486842, 46.825484], [29.487625, 46.827029], [29.487957, 46.827685], [29.48804, 46.827913], [29.487987, 46.828141], [29.487765, 46.829116], [29.487744, 46.829211], [29.487726, 46.829816], [29.48774, 46.82997], [29.487794, 46.830313], [29.487802, 46.830362], [29.487832, 46.830555], [29.487838, 46.83061], [29.487889, 46.831051], [29.487904, 46.831294], [29.487927, 46.831486], [29.488047, 46.832137], [29.488098, 46.832667], [29.488091, 46.832816], [29.488017, 46.8329], [29.487986, 46.832946], [29.487829, 46.833064], [29.487677, 46.833113], [29.487456, 46.833152], [29.486694, 46.833278], [29.486222, 46.833341], [29.485657, 46.83345], [29.485451, 46.833512], [29.484568, 46.833781], [29.482469, 46.834465], [29.48238, 46.834491], [29.482291, 46.834518], [29.482271, 46.834523], [29.482178, 46.834546], [29.482123, 46.83456], [29.482112, 46.834562], [29.480798, 46.834887], [29.480633, 46.834959], [29.480485, 46.835043], [29.480321, 46.835214], [29.480207, 46.835391], [29.480111, 46.835635], [29.479059, 46.838316], [29.479015, 46.838426], [29.478971, 46.83854], [29.478984, 46.838863], [29.479018, 46.838984], [29.479364, 46.839893], [29.4795, 46.84005], [29.479668, 46.8404], [29.479751, 46.840557], [29.479777, 46.840623], [29.479769, 46.840691], [29.479728, 46.840753], [29.479657, 46.840802], [29.479597, 46.840871], [29.479504, 46.840966], [29.479382, 46.841043], [29.479259, 46.841099], [29.479047, 46.841148], [29.478773, 46.841165], [29.477743, 46.840944], [29.476321, 46.84067], [29.475959, 46.840629], [29.475706, 46.840615], [29.475419, 46.840629], [29.475031, 46.840688], [29.474673, 46.840805], [29.474383, 46.840945], [29.474097, 46.841152], [29.473923, 46.8413], [29.47372, 46.841222], [29.474409, 46.840646], [29.474674, 46.840508], [29.475004, 46.840409], [29.475344, 46.840357], [29.475935, 46.840353], [29.476434, 46.840468], [29.477691, 46.840768], [29.478052, 46.840831], [29.478373, 46.840867], [29.478592, 46.840843], [29.478801, 46.840779], [29.478985, 46.840703], [29.479223, 46.840574], [29.479254, 46.840532], [29.479323, 46.840483], [29.479413, 46.840453], [29.479513, 46.840446], [29.47961, 46.840463], [29.479692, 46.840501], [29.479751, 46.840557], [29.479777, 46.840623], [29.479769, 46.840691], [29.479728, 46.840753], [29.479657, 46.840802], [29.479597, 46.840871], [29.479504, 46.840966], [29.479382, 46.841043], [29.479259, 46.841099], [29.479047, 46.841148], [29.478773, 46.841165], [29.477743, 46.840944], [29.476321, 46.84067], [29.475959, 46.840629], [29.475706, 46.840615], [29.475419, 46.840629], [29.475031, 46.840688], [29.474673, 46.840805], [29.474383, 46.840945], [29.474097, 46.841152], [29.473923, 46.8413], [29.47372, 46.841222], [29.474409, 46.840646], [29.474237, 46.840545], [29.472571, 46.839927], [29.469862, 46.838896], [29.468541, 46.838761], [29.468235, 46.838727], [29.467838, 46.838724], [29.467434, 46.838751], [29.466584, 46.839008], [29.465977, 46.839201], [29.464825, 46.838925], [29.464687, 46.838906], [29.464522, 46.838904], [29.464997, 46.838401], [29.465179, 46.838198], [29.465557, 46.837795], [29.466198, 46.837105], [29.466947, 46.836243], [29.467098, 46.836065], [29.467739, 46.835421]]}, "properties": {"home": "Кишинёвская_1", "kind": "owner_corridor", "distance_km": 5.8383, "duration_s": 529.7}}, {"type": "Feature", "geometry": {"type": "LineString", "coordinates": [[29.483304, 46.824154], [29.483349, 46.824141], [29.483782, 46.824007], [29.483939, 46.823959], [29.484097, 46.823912], [29.484045, 46.823804], [29.483968, 46.82365], [29.483598, 46.822917], [29.483541, 46.822802], [29.483438, 46.822597], [29.483536, 46.822568], [29.48496, 46.82213], [29.48509, 46.822088], [29.485131, 46.822169], [29.485238, 46.822378], [29.48538, 46.822659], [29.485495, 46.822883], [29.485499, 46.822892], [29.485705, 46.823296], [29.485765, 46.8234], [29.485795, 46.823472], [29.486483, 46.824787], [29.486678, 46.825161], [29.486714, 46.825229], [29.486746, 46.825294], [29.486842, 46.825484], [29.487625, 46.827029], [29.487957, 46.827685], [29.48804, 46.827913], [29.487987, 46.828141], [29.487765, 46.829116], [29.487744, 46.829211], [29.487726, 46.829816], [29.48774, 46.82997], [29.487794, 46.830313], [29.487802, 46.830362], [29.487832, 46.830555], [29.487838, 46.83061], [29.487889, 46.831051], [29.487904, 46.831294], [29.487927, 46.831486], [29.488047, 46.832137], [29.488098, 46.832667], [29.488091, 46.832816], [29.488017, 46.8329], [29.487986, 46.832946], [29.487829, 46.833064], [29.487677, 46.833113], [29.487456, 46.833152], [29.486694, 46.833278], [29.486222, 46.833341], [29.485657, 46.83345], [29.485451, 46.833512], [29.484568, 46.833781], [29.482469, 46.834465], [29.48238, 46.834491], [29.482291, 46.834518], [29.482271, 46.834523], [29.482178, 46.834546], [29.482123, 46.83456], [29.482112, 46.834562], [29.480798, 46.834887], [29.480633, 46.834959], [29.480485, 46.835043], [29.480321, 46.835214], [29.480207, 46.835391], [29.480111, 46.835635], [29.479059, 46.838316], [29.479015, 46.838426], [29.478971, 46.83854], [29.478984, 46.838863], [29.479018, 46.838984], [29.479364, 46.839893], [29.4795, 46.84005], [29.479668, 46.8404], [29.479751, 46.840557], [29.479777, 46.840623], [29.479769, 46.840691], [29.479728, 46.840753], [29.479657, 46.840802], [29.479597, 46.840871], [29.479504, 46.840966], [29.479382, 46.841043], [29.479259, 46.841099], [29.479047, 46.841148], [29.478773, 46.841165], [29.477743, 46.840944], [29.476321, 46.84067], [29.475959, 46.840629], [29.475706, 46.840615], [29.475419, 46.840629], [29.475031, 46.840688], [29.474673, 46.840805], [29.474383, 46.840945], [29.474097, 46.841152], [29.473923, 46.8413], [29.47372, 46.841222], [29.474409, 46.840646], [29.474237, 46.840545], [29.472571, 46.839927], [29.469862, 46.838896], [29.468541, 46.838761], [29.468235, 46.838727], [29.467838, 46.838724], [29.467434, 46.838751], [29.466584, 46.839008], [29.465977, 46.839201], [29.464825, 46.838925], [29.464687, 46.838906], [29.464522, 46.838904], [29.464997, 46.838401], [29.465179, 46.838198], [29.465557, 46.837795], [29.466198, 46.837105], [29.466947, 46.836243], [29.467098, 46.836065], [29.467739, 46.835421]]}, "properties": {"home": "Кишинёвская_1", "kind": "shortest_distance", "distance_km": 4.7745, "duration_s": 426.9}}, {"type": "Feature", "geometry": {"type": "Point", "coordinates": [29.46735, 46.83524]}, "properties": {"home": "Кишинёвская_1", "kind": "home"}}, {"type": "Feature", "geometry": {"type": "LineString", "coordinates": [[29.483304, 46.824154], [29.482844, 46.824291], [29.482491, 46.824396], [29.482349, 46.824444], [29.482205, 46.824488], [29.481962, 46.824563], [29.481627, 46.824666], [29.481337, 46.824756], [29.480644, 46.824966], [29.478998, 46.825477], [29.478436, 46.824305], [29.478401, 46.824233], [29.478353, 46.824127], [29.478271, 46.823947], [29.478197, 46.823784], [29.478159, 46.823697], [29.477734, 46.822752], [29.477529, 46.822297], [29.47743, 46.822065], [29.476836, 46.820674], [29.47675, 46.820471], [29.47672, 46.8204], [29.476675, 46.820291], [29.476443, 46.819718], [29.476235, 46.819214], [29.475988, 46.818625], [29.475958, 46.818544], [29.475908, 46.81844], [29.47512, 46.816695], [29.475107, 46.816658], [29.475056, 46.816552], [29.474795, 46.815948], [29.474678, 46.815674], [29.474497, 46.815283], [29.474342, 46.814946], [29.474006, 46.814758], [29.473798, 46.814601], [29.473248, 46.813901], [29.473152, 46.813774], [29.472939, 46.81346], [29.472889, 46.813386], [29.472811, 46.813271], [29.472404, 46.81268], [29.472268, 46.812462], [29.472043, 46.812159], [29.471773, 46.811769], [29.471593, 46.811509], [29.471387, 46.811232], [29.47108, 46.810815], [29.470915, 46.810614], [29.470824, 46.810505], [29.468897, 46.808761], [29.468497, 46.808399], [29.468294, 46.808215], [29.468184, 46.808105], [29.468083, 46.808001], [29.468027, 46.807937], [29.467919, 46.807815], [29.467349, 46.8072], [29.465556, 46.807473], [29.465504, 46.807481], [29.465119, 46.807539], [29.465047, 46.80755], [29.464808, 46.807587], [29.463935, 46.807719], [29.46286, 46.807883], [29.462674, 46.807911], [29.462239, 46.807978], [29.460303, 46.808272], [29.459187, 46.808442], [29.458931, 46.808495], [29.458683, 46.808571], [29.458492, 46.808687], [29.458487, 46.808692], [29.458333, 46.808822], [29.458215, 46.808977], [29.458152, 46.809103], [29.458101, 46.809249], [29.45809, 46.80947], [29.458116, 46.809684], [29.458431, 46.811569], [29.458536, 46.812201], [29.458552, 46.812296], [29.458603, 46.812611], [29.458696, 46.81319], [29.458749, 46.813496], [29.458801, 46.813814], [29.459073, 46.815478], [29.459158, 46.816022], [29.459218, 46.816405], [29.459237, 46.816539], [29.459283, 46.816879], [29.459315, 46.817013], [29.459458, 46.817429], [29.459866, 46.818476], [29.46028, 46.819581], [29.460603, 46.820524], [29.460719, 46.820828], [29.460777, 46.820981], [29.460848, 46.821166], [29.461002, 46.821571], [29.461247, 46.822177], [29.461309, 46.82233], [29.461616, 46.823072], [29.46195, 46.823837], [29.462003, 46.823971], [29.462183, 46.824428], [29.462342, 46.824834], [29.462538, 46.825328], [29.462554, 46.825374], [29.462596, 46.825499], [29.463092, 46.826787], [29.463322, 46.827398], [29.46334, 46.82744], [29.463635, 46.828073], [29.464058, 46.829106], [29.464204, 46.829461], [29.464407, 46.829911], [29.464501, 46.83014], [29.464678, 46.830623], [29.464723, 46.830746], [29.464856, 46.831066], [29.464938, 46.83128], [29.465015, 46.831467], [29.465049, 46.83155], [29.465117, 46.831715], [29.465281, 46.832114], [29.465553, 46.832773], [29.465757, 46.833268], [29.465865, 46.833532], [29.466067, 46.834009], [29.466162, 46.834252], [29.466385, 46.834795], [29.466405, 46.834843], [29.466596, 46.835308], [29.466701, 46.835536], [29.466872, 46.835979], [29.466947, 46.836243], [29.467098, 46.836065], [29.46815, 46.835009], [29.468657, 46.834417], [29.469308, 46.833811], [29.469929, 46.833295], [29.470035, 46.833188], [29.470633, 46.832623], [29.471538, 46.831788], [29.472311, 46.83104], [29.472449, 46.83111], [29.472569, 46.831171]]}, "properties": {"home": "Борисовка_start", "kind": "unrestricted_fastest", "distance_km": 7.1895, "duration_s": 476.2}}, {"type": "Feature", "geometry": {"type": "LineString", "coordinates": [[29.483304, 46.824154], [29.483349, 46.824141], [29.483782, 46.824007], [29.483939, 46.823959], [29.484097, 46.823912], [29.484045, 46.823804], [29.483968, 46.82365], [29.483598, 46.822917], [29.483541, 46.822802], [29.483438, 46.822597], [29.483536, 46.822568], [29.48496, 46.82213], [29.48509, 46.822088], [29.485131, 46.822169], [29.485238, 46.822378], [29.48538, 46.822659], [29.485495, 46.822883], [29.485499, 46.822892], [29.485705, 46.823296], [29.485765, 46.8234], [29.485795, 46.823472], [29.486483, 46.824787], [29.486678, 46.825161], [29.486714, 46.825229], [29.486746, 46.825294], [29.486842, 46.825484], [29.487625, 46.827029], [29.487957, 46.827685], [29.48804, 46.827913], [29.487987, 46.828141], [29.487765, 46.829116], [29.487744, 46.829211], [29.487726, 46.829816], [29.48774, 46.82997], [29.487794, 46.830313], [29.487802, 46.830362], [29.487832, 46.830555], [29.487838, 46.83061], [29.487889, 46.831051], [29.487904, 46.831294], [29.487927, 46.831486], [29.488047, 46.832137], [29.488098, 46.832667], [29.488091, 46.832816], [29.488017, 46.8329], [29.487986, 46.832946], [29.487829, 46.833064], [29.487677, 46.833113], [29.487456, 46.833152], [29.486694, 46.833278], [29.486222, 46.833341], [29.485657, 46.83345], [29.485451, 46.833512], [29.484568, 46.833781], [29.482469, 46.834465], [29.48238, 46.834491], [29.482291, 46.834518], [29.482271, 46.834523], [29.482178, 46.834546], [29.482123, 46.83456], [29.482112, 46.834562], [29.480798, 46.834887], [29.480633, 46.834959], [29.480485, 46.835043], [29.480321, 46.835214], [29.480207, 46.835391], [29.480111, 46.835635], [29.479059, 46.838316], [29.479015, 46.838426], [29.478971, 46.83854], [29.478984, 46.838863], [29.479018, 46.838984], [29.479364, 46.839893], [29.4795, 46.84005], [29.479668, 46.8404], [29.479751, 46.840557], [29.479777, 46.840623], [29.479769, 46.840691], [29.479728, 46.840753], [29.479657, 46.840802], [29.479597, 46.840871], [29.479504, 46.840966], [29.479382, 46.841043], [29.479259, 46.841099], [29.479047, 46.841148], [29.478773, 46.841165], [29.477743, 46.840944], [29.476321, 46.84067], [29.475959, 46.840629], [29.475706, 46.840615], [29.475419, 46.840629], [29.475031, 46.840688], [29.474673, 46.840805], [29.474383, 46.840945], [29.474097, 46.841152], [29.473923, 46.8413], [29.47372, 46.841222], [29.474409, 46.840646], [29.474674, 46.840508], [29.475004, 46.840409], [29.475344, 46.840357], [29.475935, 46.840353], [29.476434, 46.840468], [29.477691, 46.840768], [29.478052, 46.840831], [29.478373, 46.840867], [29.478592, 46.840843], [29.478801, 46.840779], [29.478985, 46.840703], [29.479223, 46.840574], [29.479254, 46.840532], [29.479323, 46.840483], [29.479413, 46.840453], [29.479513, 46.840446], [29.47961, 46.840463], [29.479692, 46.840501], [29.479751, 46.840557], [29.479777, 46.840623], [29.479769, 46.840691], [29.479728, 46.840753], [29.479657, 46.840802], [29.479597, 46.840871], [29.479504, 46.840966], [29.479382, 46.841043], [29.479259, 46.841099], [29.479047, 46.841148], [29.478773, 46.841165], [29.477743, 46.840944], [29.476321, 46.84067], [29.475959, 46.840629], [29.475706, 46.840615], [29.475419, 46.840629], [29.475031, 46.840688], [29.474673, 46.840805], [29.474383, 46.840945], [29.474097, 46.841152], [29.473923, 46.8413], [29.47372, 46.841222], [29.474409, 46.840646], [29.474237, 46.840545], [29.472571, 46.839927], [29.469862, 46.838896], [29.470226, 46.838215], [29.470608, 46.837979], [29.470974, 46.837747], [29.470367, 46.836893], [29.469974, 46.836357], [29.46987, 46.836208], [29.469321, 46.835441], [29.469014, 46.835013], [29.468767, 46.834577], [29.468657, 46.834417], [29.469308, 46.833811], [29.469929, 46.833295], [29.470035, 46.833188], [29.470633, 46.832623], [29.471538, 46.831788], [29.472311, 46.83104], [29.472449, 46.83111], [29.472569, 46.831171]]}, "properties": {"home": "Борисовка_start", "kind": "owner_corridor", "distance_km": 6.0151, "duration_s": 585.1}}, {"type": "Feature", "geometry": {"type": "LineString", "coordinates": [[29.483304, 46.824154], [29.483349, 46.824141], [29.483782, 46.824007], [29.483939, 46.823959], [29.484097, 46.823912], [29.484045, 46.823804], [29.483968, 46.82365], [29.483598, 46.822917], [29.483541, 46.822802], [29.483438, 46.822597], [29.483536, 46.822568], [29.48496, 46.82213], [29.48509, 46.822088], [29.485131, 46.822169], [29.485238, 46.822378], [29.48538, 46.822659], [29.485495, 46.822883], [29.485499, 46.822892], [29.485705, 46.823296], [29.485765, 46.8234], [29.485795, 46.823472], [29.486483, 46.824787], [29.486678, 46.825161], [29.486714, 46.825229], [29.486746, 46.825294], [29.486842, 46.825484], [29.487625, 46.827029], [29.487957, 46.827685], [29.48804, 46.827913], [29.487987, 46.828141], [29.487765, 46.829116], [29.487744, 46.829211], [29.487726, 46.829816], [29.48774, 46.82997], [29.487794, 46.830313], [29.487802, 46.830362], [29.487832, 46.830555], [29.487838, 46.83061], [29.487889, 46.831051], [29.487904, 46.831294], [29.487927, 46.831486], [29.488047, 46.832137], [29.488098, 46.832667], [29.488091, 46.832816], [29.488017, 46.8329], [29.487986, 46.832946], [29.487829, 46.833064], [29.487677, 46.833113], [29.487456, 46.833152], [29.486694, 46.833278], [29.486222, 46.833341], [29.485657, 46.83345], [29.485451, 46.833512], [29.484568, 46.833781], [29.482469, 46.834465], [29.48238, 46.834491], [29.482291, 46.834518], [29.482271, 46.834523], [29.482178, 46.834546], [29.482123, 46.83456], [29.482112, 46.834562], [29.480798, 46.834887], [29.480633, 46.834959], [29.480485, 46.835043], [29.480321, 46.835214], [29.480207, 46.835391], [29.480111, 46.835635], [29.479059, 46.838316], [29.479015, 46.838426], [29.478971, 46.83854], [29.478984, 46.838863], [29.479018, 46.838984], [29.479364, 46.839893], [29.4795, 46.84005], [29.479668, 46.8404], [29.479751, 46.840557], [29.479777, 46.840623], [29.479769, 46.840691], [29.479728, 46.840753], [29.479657, 46.840802], [29.479597, 46.840871], [29.479504, 46.840966], [29.479382, 46.841043], [29.479259, 46.841099], [29.479047, 46.841148], [29.478773, 46.841165], [29.477743, 46.840944], [29.476321, 46.84067], [29.475959, 46.840629], [29.475706, 46.840615], [29.475419, 46.840629], [29.475031, 46.840688], [29.474673, 46.840805], [29.474383, 46.840945], [29.474097, 46.841152], [29.473923, 46.8413], [29.47372, 46.841222], [29.474409, 46.840646], [29.474237, 46.840545], [29.472571, 46.839927], [29.469862, 46.838896], [29.470226, 46.838215], [29.470608, 46.837979], [29.470974, 46.837747], [29.470367, 46.836893], [29.469974, 46.836357], [29.46987, 46.836208], [29.469321, 46.835441], [29.469014, 46.835013], [29.468767, 46.834577], [29.468657, 46.834417], [29.469308, 46.833811], [29.469929, 46.833295], [29.470035, 46.833188], [29.470633, 46.832623], [29.471538, 46.831788], [29.472311, 46.83104], [29.472449, 46.83111], [29.472569, 46.831171]]}, "properties": {"home": "Борисовка_start", "kind": "shortest_distance", "distance_km": 4.9513, "duration_s": 482.3}}, {"type": "Feature", "geometry": {"type": "Point", "coordinates": [29.47257, 46.83117]}, "properties": {"home": "Борисовка_start", "kind": "home"}}, {"type": "Feature", "geometry": {"type": "LineString", "coordinates": [[29.483304, 46.824154], [29.483349, 46.824141], [29.483782, 46.824007], [29.483939, 46.823959], [29.484097, 46.823912], [29.484045, 46.823804], [29.483968, 46.82365], [29.483598, 46.822917], [29.483541, 46.822802], [29.483438, 46.822597], [29.483536, 46.822568], [29.48496, 46.82213], [29.48509, 46.822088], [29.485131, 46.822169], [29.485238, 46.822378], [29.48538, 46.822659], [29.485495, 46.822883], [29.485499, 46.822892], [29.485705, 46.823296], [29.485765, 46.8234], [29.485795, 46.823472], [29.486483, 46.824787], [29.486678, 46.825161], [29.486714, 46.825229], [29.486746, 46.825294], [29.486842, 46.825484], [29.487625, 46.827029], [29.487957, 46.827685], [29.48804, 46.827913], [29.487987, 46.828141], [29.487765, 46.829116], [29.487744, 46.829211], [29.487726, 46.829816], [29.48774, 46.82997], [29.487794, 46.830313], [29.487802, 46.830362], [29.487832, 46.830555], [29.487838, 46.83061], [29.487889, 46.831051], [29.487904, 46.831294], [29.487927, 46.831486], [29.488047, 46.832137], [29.488098, 46.832667], [29.488091, 46.832816], [29.488017, 46.8329], [29.487986, 46.832946], [29.487829, 46.833064], [29.487677, 46.833113], [29.487456, 46.833152], [29.486694, 46.833278], [29.486222, 46.833341], [29.485657, 46.83345], [29.485451, 46.833512], [29.484568, 46.833781], [29.482469, 46.834465], [29.48238, 46.834491], [29.482291, 46.834518], [29.482271, 46.834523], [29.482178, 46.834546], [29.482123, 46.83456], [29.482112, 46.834562], [29.480798, 46.834887], [29.480633, 46.834959], [29.480485, 46.835043], [29.480321, 46.835214], [29.480207, 46.835391], [29.480111, 46.835635], [29.479059, 46.838316], [29.479015, 46.838426], [29.478971, 46.83854], [29.478984, 46.838863], [29.479018, 46.838984], [29.479364, 46.839893], [29.4795, 46.84005], [29.479668, 46.8404], [29.479751, 46.840557], [29.479777, 46.840623], [29.479769, 46.840691], [29.479728, 46.840753], [29.479657, 46.840802], [29.479597, 46.840871], [29.479504, 46.840966], [29.479382, 46.841043], [29.479259, 46.841099], [29.479047, 46.841148], [29.478773, 46.841165], [29.477743, 46.840944], [29.476321, 46.84067], [29.475959, 46.840629], [29.475706, 46.840615], [29.475419, 46.840629], [29.475031, 46.840688], [29.474673, 46.840805], [29.474383, 46.840945], [29.474097, 46.841152], [29.473923, 46.8413], [29.47372, 46.841222], [29.474409, 46.840646], [29.474237, 46.840545], [29.474157, 46.840515]]}, "properties": {"home": "Борисовка_mid", "kind": "unrestricted_fastest", "distance_km": 3.5168, "duration_s": 311.1}}, {"type": "Feature", "geometry": {"type": "LineString", "coordinates": [[29.483304, 46.824154], [29.483349, 46.824141], [29.483782, 46.824007], [29.483939, 46.823959], [29.484097, 46.823912], [29.484045, 46.823804], [29.483968, 46.82365], [29.483598, 46.822917], [29.483541, 46.822802], [29.483438, 46.822597], [29.483536, 46.822568], [29.48496, 46.82213], [29.48509, 46.822088], [29.485131, 46.822169], [29.485238, 46.822378], [29.48538, 46.822659], [29.485495, 46.822883], [29.485499, 46.822892], [29.485705, 46.823296], [29.485765, 46.8234], [29.485795, 46.823472], [29.486483, 46.824787], [29.486678, 46.825161], [29.486714, 46.825229], [29.486746, 46.825294], [29.486842, 46.825484], [29.487625, 46.827029], [29.487957, 46.827685], [29.48804, 46.827913], [29.487987, 46.828141], [29.487765, 46.829116], [29.487744, 46.829211], [29.487726, 46.829816], [29.48774, 46.82997], [29.487794, 46.830313], [29.487802, 46.830362], [29.487832, 46.830555], [29.487838, 46.83061], [29.487889, 46.831051], [29.487904, 46.831294], [29.487927, 46.831486], [29.488047, 46.832137], [29.488098, 46.832667], [29.488091, 46.832816], [29.488017, 46.8329], [29.487986, 46.832946], [29.487829, 46.833064], [29.487677, 46.833113], [29.487456, 46.833152], [29.486694, 46.833278], [29.486222, 46.833341], [29.485657, 46.83345], [29.485451, 46.833512], [29.484568, 46.833781], [29.482469, 46.834465], [29.48238, 46.834491], [29.482291, 46.834518], [29.482271, 46.834523], [29.482178, 46.834546], [29.482123, 46.83456], [29.482112, 46.834562], [29.480798, 46.834887], [29.480633, 46.834959], [29.480485, 46.835043], [29.480321, 46.835214], [29.480207, 46.835391], [29.480111, 46.835635], [29.479059, 46.838316], [29.479015, 46.838426], [29.478971, 46.83854], [29.478984, 46.838863], [29.479018, 46.838984], [29.479364, 46.839893], [29.4795, 46.84005], [29.479668, 46.8404], [29.479751, 46.840557], [29.479777, 46.840623], [29.479769, 46.840691], [29.479728, 46.840753], [29.479657, 46.840802], [29.479597, 46.840871], [29.479504, 46.840966], [29.479382, 46.841043], [29.479259, 46.841099], [29.479047, 46.841148], [29.478773, 46.841165], [29.477743, 46.840944], [29.476321, 46.84067], [29.475959, 46.840629], [29.475706, 46.840615], [29.475419, 46.840629], [29.475031, 46.840688], [29.474673, 46.840805], [29.474383, 46.840945], [29.474097, 46.841152], [29.473923, 46.8413], [29.47372, 46.841222], [29.474409, 46.840646], [29.474674, 46.840508], [29.475004, 46.840409], [29.475344, 46.840357], [29.475935, 46.840353], [29.476434, 46.840468], [29.477691, 46.840768], [29.478052, 46.840831], [29.478373, 46.840867], [29.478592, 46.840843], [29.478801, 46.840779], [29.478985, 46.840703], [29.479223, 46.840574], [29.479254, 46.840532], [29.479323, 46.840483], [29.479413, 46.840453], [29.479513, 46.840446], [29.47961, 46.840463], [29.479692, 46.840501], [29.479751, 46.840557], [29.479777, 46.840623], [29.479769, 46.840691], [29.479728, 46.840753], [29.479657, 46.840802], [29.479597, 46.840871], [29.479504, 46.840966], [29.479382, 46.841043], [29.479259, 46.841099], [29.479047, 46.841148], [29.478773, 46.841165], [29.477743, 46.840944], [29.476321, 46.84067], [29.475959, 46.840629], [29.475706, 46.840615], [29.475419, 46.840629], [29.475031, 46.840688], [29.474673, 46.840805], [29.474383, 46.840945], [29.474097, 46.841152], [29.473923, 46.8413], [29.47372, 46.841222], [29.474409, 46.840646], [29.474237, 46.840545], [29.474157, 46.840515]]}, "properties": {"home": "Борисовка_mid", "kind": "owner_corridor", "distance_km": 4.5807, "duration_s": 413.9}}, {"type": "Feature", "geometry": {"type": "LineString", "coordinates": [[29.483304, 46.824154], [29.483349, 46.824141], [29.483782, 46.824007], [29.483939, 46.823959], [29.484097, 46.823912], [29.484045, 46.823804], [29.483968, 46.82365], [29.483598, 46.822917], [29.483541, 46.822802], [29.483438, 46.822597], [29.483536, 46.822568], [29.48496, 46.82213], [29.48509, 46.822088], [29.485131, 46.822169], [29.485238, 46.822378], [29.48538, 46.822659], [29.485495, 46.822883], [29.485499, 46.822892], [29.485705, 46.823296], [29.485765, 46.8234], [29.485795, 46.823472], [29.486483, 46.824787], [29.486678, 46.825161], [29.486714, 46.825229], [29.486746, 46.825294], [29.486842, 46.825484], [29.487625, 46.827029], [29.487957, 46.827685], [29.48804, 46.827913], [29.487987, 46.828141], [29.487765, 46.829116], [29.487744, 46.829211], [29.487726, 46.829816], [29.48774, 46.82997], [29.487794, 46.830313], [29.487802, 46.830362], [29.487832, 46.830555], [29.487838, 46.83061], [29.487889, 46.831051], [29.487904, 46.831294], [29.487927, 46.831486], [29.488047, 46.832137], [29.488098, 46.832667], [29.488091, 46.832816], [29.488017, 46.8329], [29.487986, 46.832946], [29.487829, 46.833064], [29.487677, 46.833113], [29.487456, 46.833152], [29.486694, 46.833278], [29.486222, 46.833341], [29.485657, 46.83345], [29.485451, 46.833512], [29.484568, 46.833781], [29.482469, 46.834465], [29.48238, 46.834491], [29.482291, 46.834518], [29.482271, 46.834523], [29.482178, 46.834546], [29.482123, 46.83456], [29.482112, 46.834562], [29.480798, 46.834887], [29.480633, 46.834959], [29.480485, 46.835043], [29.480321, 46.835214], [29.480207, 46.835391], [29.480111, 46.835635], [29.479059, 46.838316], [29.479015, 46.838426], [29.478971, 46.83854], [29.478984, 46.838863], [29.479018, 46.838984], [29.479364, 46.839893], [29.4795, 46.84005], [29.479668, 46.8404], [29.479751, 46.840557], [29.479777, 46.840623], [29.479769, 46.840691], [29.479728, 46.840753], [29.479657, 46.840802], [29.479597, 46.840871], [29.479504, 46.840966], [29.479382, 46.841043], [29.479259, 46.841099], [29.479047, 46.841148], [29.478773, 46.841165], [29.477743, 46.840944], [29.476321, 46.84067], [29.475959, 46.840629], [29.475706, 46.840615], [29.475419, 46.840629], [29.475031, 46.840688], [29.474673, 46.840805], [29.474383, 46.840945], [29.474097, 46.841152], [29.473923, 46.8413], [29.47372, 46.841222], [29.474409, 46.840646], [29.474237, 46.840545], [29.474157, 46.840515]]}, "properties": {"home": "Борисовка_mid", "kind": "shortest_distance", "distance_km": 3.5168, "duration_s": 311.1}}, {"type": "Feature", "geometry": {"type": "Point", "coordinates": [29.47424, 46.84041]}, "properties": {"home": "Борисовка_mid", "kind": "home"}}, {"type": "Feature", "geometry": {"type": "LineString", "coordinates": [[29.483304, 46.824154], [29.483349, 46.824141], [29.483782, 46.824007], [29.483939, 46.823959], [29.484097, 46.823912], [29.484045, 46.823804], [29.483968, 46.82365], [29.483598, 46.822917], [29.483541, 46.822802], [29.483438, 46.822597], [29.483536, 46.822568], [29.48496, 46.82213], [29.48509, 46.822088], [29.485131, 46.822169], [29.485238, 46.822378], [29.48538, 46.822659], [29.485495, 46.822883], [29.485499, 46.822892], [29.485705, 46.823296], [29.485765, 46.8234], [29.485795, 46.823472], [29.486483, 46.824787], [29.486678, 46.825161], [29.486714, 46.825229], [29.486746, 46.825294], [29.486842, 46.825484], [29.487625, 46.827029], [29.487957, 46.827685], [29.48804, 46.827913], [29.487987, 46.828141], [29.487765, 46.829116], [29.487744, 46.829211], [29.487726, 46.829816], [29.48774, 46.82997], [29.487794, 46.830313], [29.487802, 46.830362], [29.487832, 46.830555], [29.487838, 46.83061], [29.487889, 46.831051], [29.487904, 46.831294], [29.487927, 46.831486], [29.488047, 46.832137], [29.488098, 46.832667], [29.488091, 46.832816], [29.488017, 46.8329], [29.487986, 46.832946], [29.487829, 46.833064], [29.487677, 46.833113], [29.487456, 46.833152], [29.486694, 46.833278], [29.486222, 46.833341], [29.485657, 46.83345], [29.485451, 46.833512], [29.484568, 46.833781], [29.482469, 46.834465], [29.48238, 46.834491], [29.482291, 46.834518], [29.482271, 46.834523], [29.482178, 46.834546], [29.482123, 46.83456], [29.482112, 46.834562], [29.480798, 46.834887], [29.480633, 46.834959], [29.480485, 46.835043], [29.480321, 46.835214], [29.480207, 46.835391], [29.480111, 46.835635], [29.479059, 46.838316], [29.479015, 46.838426], [29.478971, 46.83854], [29.478984, 46.838863], [29.479018, 46.838984], [29.479364, 46.839893], [29.4795, 46.84005], [29.479668, 46.8404], [29.479751, 46.840557], [29.479777, 46.840623], [29.479769, 46.840691], [29.479728, 46.840753], [29.479657, 46.840802], [29.479597, 46.840871], [29.479504, 46.840966], [29.479382, 46.841043], [29.479259, 46.841099], [29.479047, 46.841148], [29.478773, 46.841165], [29.477743, 46.840944], [29.476321, 46.84067], [29.475959, 46.840629], [29.475706, 46.840615], [29.475419, 46.840629], [29.475031, 46.840688], [29.474673, 46.840805], [29.474383, 46.840945], [29.474097, 46.841152], [29.473923, 46.8413], [29.4731, 46.841991], [29.472796, 46.842255], [29.472121, 46.842839], [29.471793, 46.843123], [29.471707, 46.843208], [29.471479, 46.843412], [29.471206, 46.84371], [29.470871, 46.844047], [29.470618, 46.8443], [29.470541, 46.844378], [29.470266, 46.844414], [29.469913, 46.844407], [29.469024, 46.84439], [29.46842, 46.844376], [29.468207, 46.844367], [29.468001, 46.844377], [29.466466, 46.844495], [29.465791, 46.844539], [29.465667, 46.844532], [29.465489, 46.844545], [29.465565, 46.84441], [29.465786, 46.844019], [29.465528, 46.843858], [29.46543, 46.843936], [29.465092, 46.844292], [29.464859, 46.844312], [29.464252, 46.844362]]}, "properties": {"home": "Борисовка_far", "kind": "unrestricted_fastest", "distance_km": 4.4206, "duration_s": 406.3}}, {"type": "Feature", "geometry": {"type": "LineString", "coordinates": [[29.483304, 46.824154], [29.483349, 46.824141], [29.483782, 46.824007], [29.483939, 46.823959], [29.484097, 46.823912], [29.484045, 46.823804], [29.483968, 46.82365], [29.483598, 46.822917], [29.483541, 46.822802], [29.483438, 46.822597], [29.483536, 46.822568], [29.48496, 46.82213], [29.48509, 46.822088], [29.485131, 46.822169], [29.485238, 46.822378], [29.48538, 46.822659], [29.485495, 46.822883], [29.485499, 46.822892], [29.485705, 46.823296], [29.485765, 46.8234], [29.485795, 46.823472], [29.486483, 46.824787], [29.486678, 46.825161], [29.486714, 46.825229], [29.486746, 46.825294], [29.486842, 46.825484], [29.487625, 46.827029], [29.487957, 46.827685], [29.48804, 46.827913], [29.487987, 46.828141], [29.487765, 46.829116], [29.487744, 46.829211], [29.487726, 46.829816], [29.48774, 46.82997], [29.487794, 46.830313], [29.487802, 46.830362], [29.487832, 46.830555], [29.487838, 46.83061], [29.487889, 46.831051], [29.487904, 46.831294], [29.487927, 46.831486], [29.488047, 46.832137], [29.488098, 46.832667], [29.488091, 46.832816], [29.488017, 46.8329], [29.487986, 46.832946], [29.487829, 46.833064], [29.487677, 46.833113], [29.487456, 46.833152], [29.486694, 46.833278], [29.486222, 46.833341], [29.485657, 46.83345], [29.485451, 46.833512], [29.484568, 46.833781], [29.482469, 46.834465], [29.48238, 46.834491], [29.482291, 46.834518], [29.482271, 46.834523], [29.482178, 46.834546], [29.482123, 46.83456], [29.482112, 46.834562], [29.480798, 46.834887], [29.480633, 46.834959], [29.480485, 46.835043], [29.480321, 46.835214], [29.480207, 46.835391], [29.480111, 46.835635], [29.479059, 46.838316], [29.479015, 46.838426], [29.478971, 46.83854], [29.478984, 46.838863], [29.479018, 46.838984], [29.479364, 46.839893], [29.4795, 46.84005], [29.479668, 46.8404], [29.479751, 46.840557], [29.479777, 46.840623], [29.479769, 46.840691], [29.479728, 46.840753], [29.479657, 46.840802], [29.479597, 46.840871], [29.479504, 46.840966], [29.479382, 46.841043], [29.479259, 46.841099], [29.479047, 46.841148], [29.478773, 46.841165], [29.477743, 46.840944], [29.476321, 46.84067], [29.475959, 46.840629], [29.475706, 46.840615], [29.475419, 46.840629], [29.475031, 46.840688], [29.474673, 46.840805], [29.474383, 46.840945], [29.474097, 46.841152], [29.473923, 46.8413], [29.47372, 46.841222], [29.474409, 46.840646], [29.474674, 46.840508], [29.475004, 46.840409], [29.475344, 46.840357], [29.475935, 46.840353], [29.476434, 46.840468], [29.477691, 46.840768], [29.478052, 46.840831], [29.478373, 46.840867], [29.478592, 46.840843], [29.478801, 46.840779], [29.478985, 46.840703], [29.479223, 46.840574], [29.479254, 46.840532], [29.479323, 46.840483], [29.479413, 46.840453], [29.479513, 46.840446], [29.47961, 46.840463], [29.479692, 46.840501], [29.479751, 46.840557], [29.479777, 46.840623], [29.479769, 46.840691], [29.479728, 46.840753], [29.479657, 46.840802], [29.479597, 46.840871], [29.479504, 46.840966], [29.479382, 46.841043], [29.479259, 46.841099], [29.479047, 46.841148], [29.478773, 46.841165], [29.477743, 46.840944], [29.476321, 46.84067], [29.475959, 46.840629], [29.475706, 46.840615], [29.475419, 46.840629], [29.475031, 46.840688], [29.474673, 46.840805], [29.474383, 46.840945], [29.474097, 46.841152], [29.473923, 46.8413], [29.4731, 46.841991], [29.472796, 46.842255], [29.472121, 46.842839], [29.471793, 46.843123], [29.471707, 46.843208], [29.471479, 46.843412], [29.471206, 46.84371], [29.470871, 46.844047], [29.470618, 46.8443], [29.470541, 46.844378], [29.470266, 46.844414], [29.469913, 46.844407], [29.469024, 46.84439], [29.46842, 46.844376], [29.468207, 46.844367], [29.468001, 46.844377], [29.466466, 46.844495], [29.465791, 46.844539], [29.465667, 46.844532], [29.465489, 46.844545], [29.465565, 46.84441], [29.465786, 46.844019], [29.465528, 46.843858], [29.46543, 46.843936], [29.465092, 46.844292], [29.464859, 46.844312], [29.464252, 46.844362]]}, "properties": {"home": "Борисовка_far", "kind": "owner_corridor", "distance_km": 5.4844, "duration_s": 509.1}}, {"type": "Feature", "geometry": {"type": "LineString", "coordinates": [[29.483304, 46.824154], [29.483349, 46.824141], [29.483782, 46.824007], [29.483939, 46.823959], [29.484097, 46.823912], [29.484045, 46.823804], [29.483968, 46.82365], [29.483598, 46.822917], [29.483541, 46.822802], [29.483438, 46.822597], [29.483536, 46.822568], [29.48496, 46.82213], [29.48509, 46.822088], [29.485131, 46.822169], [29.485238, 46.822378], [29.48538, 46.822659], [29.485495, 46.822883], [29.485499, 46.822892], [29.485705, 46.823296], [29.485765, 46.8234], [29.485795, 46.823472], [29.486483, 46.824787], [29.486678, 46.825161], [29.486714, 46.825229], [29.486746, 46.825294], [29.486842, 46.825484], [29.487625, 46.827029], [29.487957, 46.827685], [29.48804, 46.827913], [29.487987, 46.828141], [29.487765, 46.829116], [29.487744, 46.829211], [29.487726, 46.829816], [29.48774, 46.82997], [29.487794, 46.830313], [29.487802, 46.830362], [29.487832, 46.830555], [29.487838, 46.83061], [29.487889, 46.831051], [29.487904, 46.831294], [29.487927, 46.831486], [29.488047, 46.832137], [29.488098, 46.832667], [29.488091, 46.832816], [29.488017, 46.8329], [29.487986, 46.832946], [29.487829, 46.833064], [29.487677, 46.833113], [29.487456, 46.833152], [29.486694, 46.833278], [29.486222, 46.833341], [29.485657, 46.83345], [29.485451, 46.833512], [29.484568, 46.833781], [29.482469, 46.834465], [29.48238, 46.834491], [29.482291, 46.834518], [29.482271, 46.834523], [29.482178, 46.834546], [29.482123, 46.83456], [29.482112, 46.834562], [29.480798, 46.834887], [29.480633, 46.834959], [29.480485, 46.835043], [29.480321, 46.835214], [29.480207, 46.835391], [29.480111, 46.835635], [29.479059, 46.838316], [29.479015, 46.838426], [29.478971, 46.83854], [29.478984, 46.838863], [29.479018, 46.838984], [29.479364, 46.839893], [29.4795, 46.84005], [29.479668, 46.8404], [29.479751, 46.840557], [29.479777, 46.840623], [29.479769, 46.840691], [29.479728, 46.840753], [29.479657, 46.840802], [29.479597, 46.840871], [29.479504, 46.840966], [29.479382, 46.841043], [29.479259, 46.841099], [29.479047, 46.841148], [29.478773, 46.841165], [29.477743, 46.840944], [29.476321, 46.84067], [29.475959, 46.840629], [29.475706, 46.840615], [29.475419, 46.840629], [29.475031, 46.840688], [29.474673, 46.840805], [29.474383, 46.840945], [29.474097, 46.841152], [29.473923, 46.8413], [29.4731, 46.841991], [29.472796, 46.842255], [29.472121, 46.842839], [29.471793, 46.843123], [29.471707, 46.843208], [29.471479, 46.843412], [29.471206, 46.84371], [29.470871, 46.844047], [29.470618, 46.8443], [29.470541, 46.844378], [29.470266, 46.844414], [29.469913, 46.844407], [29.469024, 46.84439], [29.46842, 46.844376], [29.468207, 46.844367], [29.468001, 46.844377], [29.466466, 46.844495], [29.465791, 46.844539], [29.465667, 46.844532], [29.465489, 46.844545], [29.465565, 46.84441], [29.465786, 46.844019], [29.465528, 46.843858], [29.46543, 46.843936], [29.465092, 46.844292], [29.464859, 46.844312], [29.464252, 46.844362]]}, "properties": {"home": "Борисовка_far", "kind": "shortest_distance", "distance_km": 4.4206, "duration_s": 406.3}}, {"type": "Feature", "geometry": {"type": "Point", "coordinates": [29.46422, 46.84418]}, "properties": {"home": "Борисовка_far", "kind": "home"}}, {"type": "Feature", "geometry": {"type": "Point", "coordinates": [29.477691, 46.840768]}, "properties": {"kind": "putepovod_bridge_layer2"}}, {"type": "Feature", "geometry": {"type": "Point", "coordinates": [29.48313, 46.82388]}, "properties": {"kind": "central_origin"}}]}