{"type": "FeatureCollection", "features": [{"type": "Feature", "geometry": {"type": "LineString", "coordinates": [[29.4833491, 46.8241408], [29.4828438, 46.824291], [29.4824906, 46.8243959], [29.4823489, 46.8244436], [29.4822053, 46.8244879], [29.4819624, 46.8245628], [29.4816272, 46.8246662], [29.4813367, 46.8247556], [29.4806437, 46.8249655], [29.4789976, 46.825477], [29.4795214, 46.8266693], [29.4796235, 46.8269166], [29.480817, 46.8295259], [29.4809802, 46.8298688], [29.4810252, 46.8299294], [29.4811178, 46.8299739], [29.4812184, 46.8299887], [29.481956, 46.8299194], [29.4826648, 46.8298329], [29.4829306, 46.8297989], [29.4834705, 46.8297299], [29.4837963, 46.8296883], [29.4843548, 46.8296169], [29.4844871, 46.8296], [29.4847733, 46.8295635], [29.4844871, 46.8296], [29.4843548, 46.8296169], [29.4837963, 46.8296883], [29.4834705, 46.8297299], [29.4829306, 46.8297989], [29.4826648, 46.8298329], [29.481956, 46.8299194], [29.4812184, 46.8299887], [29.481956, 46.8299194], [29.4826648, 46.8298329], [29.4829306, 46.8297989], [29.4834705, 46.8297299], [29.4837963, 46.8296883], [29.4843548, 46.8296169], [29.4844871, 46.8296], [29.4847733, 46.8295635], [29.4850113, 46.8295358], [29.4867614, 46.8293321], [29.4868982, 46.8293162], [29.4870717, 46.8292947], [29.4877439, 46.8292113], [29.4877264, 46.8298159], [29.4877397, 46.8299702], [29.4877943, 46.8303129], [29.487802, 46.8303615], [29.4878316, 46.8305551], [29.4878379, 46.8306098], [29.4878888, 46.8310511], [29.4879042, 46.8312943], [29.4879268, 46.8314863], [29.4880466, 46.8321371], [29.4880984, 46.8326667], [29.4880908, 46.832816], [29.4880168, 46.8329003], [29.487986, 46.8329458], [29.4878288, 46.8330641], [29.4876771, 46.8331126], [29.4874555, 46.8331522], [29.4866939, 46.8332778], [29.4862223, 46.8333413], [29.4856573, 46.83345], [29.4854507, 46.8335123], [29.4845683, 46.8337811], [29.4824689, 46.8344646], [29.4823801, 46.8344913], [29.4822912, 46.8345181], [29.482271, 46.8345231], [29.4821777, 46.8345461], [29.4821233, 46.8345595], [29.4821121, 46.8345623], [29.480798, 46.8348869], [29.4806333, 46.834959], [29.4804853, 46.8350425], [29.4803209, 46.8352137], [29.4802065, 46.8353908], [29.4801105, 46.8356354], [29.4790585, 46.8383161], [29.4790152, 46.8384264], [29.4789705, 46.8385404], [29.4789837, 46.8388628], [29.4790175, 46.8389844], [29.4793636, 46.8398926], [29.4795002, 46.8400503], [29.4796676, 46.8403999], [29.4797506, 46.8405567], [29.4797774, 46.8406227], [29.4797694, 46.8406909], [29.4797275, 46.8407532], [29.479657, 46.8408017], [29.4795967, 46.8408709], [29.4795042, 46.8409663], [29.4793821, 46.8410434], [29.4792588, 46.8410993], [29.4790469, 46.8411479], [29.4787733, 46.8411649], [29.4777432, 46.8409436], [29.4763211, 46.84067], [29.4759589, 46.8406288], [29.4757063, 46.8406151], [29.4754191, 46.8406287], [29.4750312, 46.840688], [29.4746731, 46.8408049], [29.474383, 46.8409453], [29.4740967, 46.8411524], [29.4739232, 46.8413001], [29.4737202, 46.8412223], [29.4744088, 46.8406459], [29.474237, 46.8405448], [29.4725712, 46.8399273], [29.4698624, 46.8388957], [29.4702264, 46.8382148], [29.4726029, 46.8391212], [29.4730627, 46.8392972], [29.4749919, 46.8400339], [29.4744088, 46.8406459], [29.474237, 46.8405448], [29.4725712, 46.8399273], [29.4698624, 46.8388957], [29.468541, 46.8387606], [29.4682349, 46.8387271], [29.4678376, 46.8387238], [29.4674337, 46.8387505], [29.4665837, 46.8390075], [29.4659771, 46.8392014], [29.4648251, 46.8389247], [29.464687, 46.8389064], [29.4645217, 46.8389043], [29.4649966, 46.8384013], [29.4651789, 46.8381978], [29.4655567, 46.8377948], [29.4661982, 46.8371051], [29.4655567, 46.8377948], [29.4651789, 46.8381978], [29.4649966, 46.8384013], [29.4645217, 46.8389043], [29.4639849, 46.8394405], [29.463752, 46.8396805], [29.4632232, 46.8401972], [29.4631471, 46.8402705], [29.4627444, 46.8406643], [29.4620417, 46.8413472], [29.4618856, 46.8415145], [29.4610341, 46.8423121], [29.4609314, 46.8424108], [29.4607401, 46.8425915], [29.4606959, 46.8426327], [29.4604651, 46.8428465], [29.4598725, 46.8434041], [29.4595589, 46.8436857], [29.4593309, 46.8438427], [29.458747, 46.8442116], [29.4581422, 46.8445636], [29.458747, 46.8442116], [29.4593309, 46.8438427], [29.4595589, 46.8436857], [29.4598725, 46.8434041], [29.4604651, 46.8428465], [29.4604514, 46.8425378], [29.4604505, 46.842289], [29.4604692, 46.8420033], [29.4604723, 46.8419438], [29.4605235, 46.8409545], [29.4605235, 46.8409387], [29.4605216, 46.8402119], [29.4605418, 46.8397172], [29.4605455, 46.8394015], [29.460569, 46.8391301], [29.4605874, 46.838918], [29.4607758, 46.8381008], [29.4610738, 46.8370285], [29.4616242, 46.8348612], [29.4616823, 46.8347404], [29.4619524, 46.8347486], [29.4621882, 46.8347351], [29.4624803, 46.8346906], [29.4635642, 46.8345097], [29.4648095, 46.8342636], [29.4660669, 46.8340093], [29.4658653, 46.8335321], [29.4657565, 46.833268], [29.4655526, 46.8327725], [29.4652814, 46.8321137], [29.4651173, 46.831715], [29.4653034, 46.8316296], [29.4653702, 46.8316313], [29.4654371, 46.8316425], [29.4666895, 46.8323919], [29.4654371, 46.8316425], [29.4653702, 46.8316313], [29.4653034, 46.8316296], [29.4651173, 46.831715], [29.4650493, 46.8315499], [29.4650152, 46.831467], [29.4649381, 46.8312796], [29.4645917, 46.8310414], [29.4642782, 46.8308328], [29.4635053, 46.8309912], [29.4632748, 46.8310338], [29.4631031, 46.8310472], [29.4629232, 46.8310131], [29.4625624, 46.8308956], [29.4622198, 46.8307699], [29.4619318, 46.8306715], [29.4617707, 46.8305972], [29.4615673, 46.8305033], [29.4607903, 46.8301766], [29.4605238, 46.830081], [29.4604813, 46.8300658], [29.4593383, 46.829681], [29.459174, 46.8296257], [29.4589949, 46.8291907], [29.4589016, 46.8289642], [29.4583463, 46.8276797], [29.4578446, 46.8263986], [29.4572018, 46.8247602]]}, "properties": {"corridor": "BORISOVKA", "kind": "corridor_forced_forward", "distance_km": 10.5197}}, {"type": "Feature", "geometry": {"type": "LineString", "coordinates": [[29.4833491, 46.8241408], [29.4828438, 46.824291], [29.4824906, 46.8243959], [29.4823489, 46.8244436], [29.4822053, 46.8244879], [29.4819624, 46.8245628], [29.4816272, 46.8246662], [29.4813367, 46.8247556], [29.4806437, 46.8249655], [29.4805161, 46.8247484], [29.4803468, 46.8243558], [29.4802785, 46.8242086], [29.4802154, 46.8239631], [29.4801514, 46.8237755], [29.4801198, 46.8237067], [29.4801031, 46.8236747], [29.4800505, 46.8235557], [29.4800204, 46.8234875], [29.4799618, 46.8233549], [29.4799445, 46.82331], [29.4798845, 46.82318], [29.4797844, 46.8229533], [29.4792924, 46.8218583], [29.4791535, 46.8215255], [29.4790702, 46.8213369], [29.4789385, 46.8210387], [29.4789044, 46.8209615], [29.4785889, 46.8202474], [29.4784826, 46.8200069], [29.478371, 46.8197542], [29.47767, 46.8181675], [29.4760327, 46.8185274], [29.4759582, 46.8185441], [29.475908, 46.8184402], [29.4751197, 46.8166948], [29.4751073, 46.816658], [29.4750558, 46.816552], [29.4747947, 46.8159477], [29.4746783, 46.8156738], [29.4744973, 46.8152825], [29.4743418, 46.8149463], [29.4740063, 46.8147581], [29.473798, 46.814601], [29.4732482, 46.8139008], [29.4731518, 46.8137744], [29.4729387, 46.8134599], [29.4728889, 46.8133863], [29.472811, 46.8132714], [29.4724042, 46.8126802], [29.4722676, 46.8124623], [29.4720433, 46.812159], [29.4717729, 46.8117685], [29.4715932, 46.8115089], [29.4713871, 46.8112322], [29.4710803, 46.8108145], [29.4709145, 46.810614], [29.4708243, 46.810505], [29.4688974, 46.8087613], [29.4684966, 46.8083986], [29.4682943, 46.8082145], [29.4681838, 46.8081052], [29.4677944, 46.8081677], [29.4668575, 46.8083129], [29.4660128, 46.8084489], [29.4659437, 46.8084599], [29.4653427, 46.8085556], [29.4651945, 46.8085792], [29.4648217, 46.8086386], [29.4635543, 46.8088404], [29.4625944, 46.8089932], [29.4605927, 46.8093021], [29.4584888, 46.8096268], [29.4584456, 46.8096335], [29.4582601, 46.8096621], [29.4581156, 46.8096844], [29.4584307, 46.8115688], [29.4585364, 46.8122008], [29.458552, 46.8122959], [29.4586026, 46.8126111], [29.4586955, 46.8131903], [29.4587487, 46.8134962], [29.4588008, 46.8138142], [29.4590734, 46.8154776], [29.4591583, 46.816022], [29.459218, 46.8164049], [29.4592366, 46.8165394], [29.4592825, 46.8168786], [29.4593154, 46.817013], [29.4594576, 46.8174289], [29.459866, 46.8184759], [29.4602804, 46.8195809], [29.460603, 46.8205236], [29.459725, 46.8207021], [29.4593699, 46.8207872], [29.4593934, 46.8208499], [29.4594717, 46.8210591], [29.4595079, 46.8211496], [29.4596239, 46.8214671], [29.4597002, 46.821676], [29.4597309, 46.8217707], [29.4597454, 46.8218143], [29.458491, 46.8220461], [29.458796, 46.8228014], [29.4575845, 46.8230348], [29.4570269, 46.8247813], [29.4572018, 46.8247602]]}, "properties": {"corridor": "BORISOVKA", "kind": "true_shortest_unconstrained", "distance_km": 5.1884}}, {"type": "Feature", "geometry": {"type": "LineString", "coordinates": [[29.4833491, 46.8241408], [29.4828438, 46.824291], [29.4824906, 46.8243959], [29.4823489, 46.8244436], [29.4822053, 46.8244879], [29.4819624, 46.8245628], [29.4816272, 46.8246662], [29.4813367, 46.8247556], [29.4806437, 46.8249655], [29.4805161, 46.8247484], [29.4803468, 46.8243558], [29.4802785, 46.8242086], [29.4802154, 46.8239631], [29.4801514, 46.8237755], [29.4801198, 46.8237067], [29.4801031, 46.8236747], [29.4800505, 46.8235557], [29.4800204, 46.8234875], [29.4799618, 46.8233549], [29.4799445, 46.82331], [29.4798845, 46.82318], [29.4797844, 46.8229533], [29.4792924, 46.8218583], [29.4791535, 46.8215255], [29.4790702, 46.8213369], [29.4789385, 46.8210387], [29.4789044, 46.8209615], [29.4785889, 46.8202474], [29.4784826, 46.8200069], [29.478371, 46.8197542], [29.47767, 46.8181675], [29.4760327, 46.8185274], [29.4759582, 46.8185441], [29.475908, 46.8184402], [29.4751197, 46.8166948], [29.4751073, 46.816658], [29.4750558, 46.816552], [29.4747947, 46.8159477], [29.4746783, 46.8156738], [29.4744973, 46.8152825], [29.4743418, 46.8149463], [29.4740063, 46.8147581], [29.473798, 46.814601], [29.4732482, 46.8139008], [29.4731518, 46.8137744], [29.4729387, 46.8134599], [29.4728889, 46.8133863], [29.472811, 46.8132714], [29.4724042, 46.8126802], [29.4722676, 46.8124623], [29.4720433, 46.812159], [29.4717729, 46.8117685], [29.4715932, 46.8115089], [29.4713871, 46.8112322], [29.4710803, 46.8108145], [29.4709145, 46.810614], [29.4708243, 46.810505], [29.4688974, 46.8087613], [29.4684966, 46.8083986], [29.4682943, 46.8082145], [29.4681838, 46.8081052], [29.4680833, 46.808001], [29.4680265, 46.8079369], [29.4679188, 46.8078151], [29.4673488, 46.8071999], [29.4686558, 46.8072321], [29.4687174, 46.8071835], [29.4695179, 46.8065517], [29.4701859, 46.8060244], [29.4710274, 46.8053601], [29.4715649, 46.8049359], [29.4722536, 46.8044056], [29.473161, 46.8036652], [29.4735973, 46.8033305], [29.4742959, 46.8027615], [29.4745358, 46.8025705], [29.4748994, 46.802281], [29.4754336, 46.8018557], [29.4757298, 46.8016283], [29.4763602, 46.8011179], [29.4757298, 46.8016283], [29.4754336, 46.8018557], [29.4748994, 46.802281], [29.4745358, 46.8025705], [29.4742959, 46.8027615], [29.4735973, 46.8033305], [29.473161, 46.8036652], [29.4722536, 46.8044056], [29.4715649, 46.8049359], [29.4710274, 46.8053601], [29.4701859, 46.8060244], [29.4695179, 46.8065517], [29.4687174, 46.8071835], [29.4686558, 46.8072321], [29.4673488, 46.8071999], [29.4655561, 46.8074727], [29.4655044, 46.8074805], [29.4651186, 46.8075392], [29.4650465, 46.8075502], [29.4648079, 46.8075865], [29.4639349, 46.8077194], [29.4628597, 46.807883], [29.4626735, 46.8079113], [29.4622386, 46.8079775], [29.4603032, 46.8082719], [29.4591869, 46.8084418], [29.458931, 46.8084954], [29.4586826, 46.8085708], [29.4584922, 46.808687], [29.4584867, 46.8086916], [29.4583331, 46.8088218], [29.4582147, 46.8089766], [29.4581518, 46.8091026], [29.4581005, 46.8092487], [29.4580904, 46.8094698], [29.4581156, 46.8096844], [29.4584307, 46.8115688], [29.4585364, 46.8122008], [29.458552, 46.8122959], [29.4586026, 46.8126111], [29.4586955, 46.8131903], [29.4587487, 46.8134962], [29.4588008, 46.8138142], [29.4590734, 46.8154776], [29.4591583, 46.816022], [29.459218, 46.8164049], [29.4592366, 46.8165394], [29.4592825, 46.8168786], [29.4593154, 46.817013], [29.4594576, 46.8174289], [29.459866, 46.8184759], [29.4611119, 46.8185091], [29.4615585, 46.8185307], [29.4620084, 46.818559], [29.4628253, 46.8186104], [29.4629303, 46.818617], [29.4632817, 46.8186316], [29.464289, 46.8186417], [29.4644624, 46.8186391], [29.4645246, 46.8186208], [29.4645567, 46.8186829], [29.4653268, 46.820383], [29.4655141, 46.8203548], [29.4657573, 46.8202748], [29.4655141, 46.8203548], [29.4653268, 46.820383], [29.464513, 46.820628], [29.4642369, 46.8206994], [29.4633133, 46.8210372], [29.4629248, 46.8211559], [29.4622511, 46.8213369], [29.4616661, 46.8214725], [29.4610018, 46.8215709]]}, "properties": {"corridor": "KHOMUTYANOVKA_A", "kind": "corridor_forced_forward", "distance_km": 7.374}}, {"type": "Feature", "geometry": {"type": "LineString", "coordinates": [[29.4833491, 46.8241408], [29.4828438, 46.824291], [29.4824906, 46.8243959], [29.4823489, 46.8244436], [29.4822053, 46.8244879], [29.4819624, 46.8245628], [29.4816272, 46.8246662], [29.4813367, 46.8247556], [29.4806437, 46.8249655], [29.4805161, 46.8247484], [29.4803468, 46.8243558], [29.4802785, 46.8242086], [29.4802154, 46.8239631], [29.4801514, 46.8237755], [29.4801198, 46.8237067], [29.4801031, 46.8236747], [29.4800505, 46.8235557], [29.4800204, 46.8234875], [29.4799618, 46.8233549], [29.4799445, 46.82331], [29.4798845, 46.82318], [29.4797844, 46.8229533], [29.4792924, 46.8218583], [29.4791535, 46.8215255], [29.4790702, 46.8213369], [29.4789385, 46.8210387], [29.4789044, 46.8209615], [29.4785889, 46.8202474], [29.4784826, 46.8200069], [29.478371, 46.8197542], [29.47767, 46.8181675], [29.4760327, 46.8185274], [29.4759582, 46.8185441], [29.475908, 46.8184402], [29.4751197, 46.8166948], [29.4751073, 46.816658], [29.4750558, 46.816552], [29.4747947, 46.8159477], [29.4746783, 46.8156738], [29.4744973, 46.8152825], [29.4743418, 46.8149463], [29.4740063, 46.8147581], [29.473798, 46.814601], [29.4732482, 46.8139008], [29.4731518, 46.8137744], [29.4729387, 46.8134599], [29.4728889, 46.8133863], [29.472811, 46.8132714], [29.4724042, 46.8126802], [29.4722676, 46.8124623], [29.4720433, 46.812159], [29.4717729, 46.8117685], [29.4715932, 46.8115089], [29.4713871, 46.8112322], [29.4710803, 46.8108145], [29.4709145, 46.810614], [29.4708243, 46.810505], [29.4688974, 46.8087613], [29.4684966, 46.8083986], [29.4682943, 46.8082145], [29.4681838, 46.8081052], [29.4677944, 46.8081677], [29.4668575, 46.8083129], [29.4660128, 46.8084489], [29.4659437, 46.8084599], [29.4653427, 46.8085556], [29.4651945, 46.8085792], [29.4648217, 46.8086386], [29.4635543, 46.8088404], [29.4625944, 46.8089932], [29.4605927, 46.8093021], [29.4584888, 46.8096268], [29.4584456, 46.8096335], [29.4582601, 46.8096621], [29.4581156, 46.8096844], [29.4584307, 46.8115688], [29.4585364, 46.8122008], [29.458552, 46.8122959], [29.4586026, 46.8126111], [29.4586955, 46.8131903], [29.4587487, 46.8134962], [29.4588008, 46.8138142], [29.4590734, 46.8154776], [29.4591583, 46.816022], [29.459218, 46.8164049], [29.4592366, 46.8165394], [29.4592825, 46.8168786], [29.4593154, 46.817013], [29.4594576, 46.8174289], [29.459866, 46.8184759], [29.4602804, 46.8195809], [29.460603, 46.8205236], [29.4607188, 46.8208278], [29.4607774, 46.8209814], [29.4608478, 46.8211663], [29.4610018, 46.8215709]]}, "properties": {"corridor": "KHOMUTYANOVKA_A", "kind": "true_shortest_unconstrained", "distance_km": 4.5986}}, {"type": "Feature", "geometry": {"type": "LineString", "coordinates": [[29.4833491, 46.8241408], [29.4837817, 46.8240068], [29.4839385, 46.8239585], [29.4840972, 46.8239122], [29.4840449, 46.8238036], [29.4839675, 46.8236498], [29.4835984, 46.8229167], [29.4835408, 46.8228022], [29.483438, 46.8225974], [29.4834129, 46.8225481], [29.4832659, 46.8222562], [29.483156, 46.8220352], [29.4829869, 46.8216822], [29.4827018, 46.8210957], [29.4826651, 46.821016], [29.4825158, 46.8210518], [29.4810939, 46.8213813], [29.4809237, 46.8210213], [29.4805146, 46.8201589], [29.4802493, 46.8195996], [29.4801283, 46.8193385], [29.4799374, 46.8189281], [29.4794061, 46.8177741], [29.4788437, 46.816546], [29.4788106, 46.8164719], [29.4785421, 46.8158717], [29.4782948, 46.815367], [29.4782086, 46.8151727], [29.4780675, 46.8148628], [29.4779515, 46.8146104], [29.4777507, 46.8141413], [29.4790687, 46.8139604], [29.4777507, 46.8141413], [29.4773593, 46.8142035], [29.4759583, 46.8143781], [29.4754989, 46.8144176], [29.4748993, 46.8144822], [29.4747094, 46.8145027], [29.473798, 46.814601], [29.4732482, 46.8139008], [29.4731518, 46.8137744], [29.4729387, 46.8134599], [29.4728889, 46.8133863], [29.472811, 46.8132714], [29.4724042, 46.8126802], [29.4699582, 46.8133804], [29.4692693, 46.8136227], [29.4682594, 46.8141104], [29.4680151, 46.8142751], [29.4679427, 46.8143245], [29.4677047, 46.8144779], [29.4676425, 46.81452], [29.4674488, 46.814653], [29.4670855, 46.8149202], [29.4666193, 46.8151549], [29.4657122, 46.8155015], [29.4651595, 46.8157127], [29.4657122, 46.8155015], [29.4666193, 46.8151549], [29.4670855, 46.8149202], [29.4674488, 46.814653], [29.4676425, 46.81452], [29.4677047, 46.8144779], [29.4679427, 46.8143245], [29.4680151, 46.8142751], [29.4682594, 46.8141104], [29.4692693, 46.8136227], [29.4699582, 46.8133804], [29.4724042, 46.8126802], [29.4722676, 46.8124623], [29.4720433, 46.812159], [29.4717729, 46.8117685], [29.4715932, 46.8115089], [29.4713871, 46.8112322], [29.4710803, 46.8108145], [29.4709145, 46.810614], [29.4708243, 46.810505], [29.4688974, 46.8087613], [29.4684966, 46.8083986], [29.4682943, 46.8082145], [29.4681838, 46.8081052], [29.4680833, 46.808001], [29.4680265, 46.8079369], [29.4679188, 46.8078151], [29.4673488, 46.8071999], [29.4655561, 46.8074727], [29.4655044, 46.8074805], [29.4651186, 46.8075392], [29.4650465, 46.8075502], [29.4648079, 46.8075865], [29.4639349, 46.8077194], [29.4628597, 46.807883], [29.4626735, 46.8079113], [29.4628597, 46.807883], [29.4639349, 46.8077194], [29.4648079, 46.8075865], [29.4650465, 46.8075502], [29.4651186, 46.8075392], [29.4655044, 46.8074805], [29.4655561, 46.8074727], [29.4673488, 46.8071999], [29.4655561, 46.8074727], [29.4655044, 46.8074805], [29.4651186, 46.8075392], [29.4650465, 46.8075502], [29.4648079, 46.8075865], [29.4639349, 46.8077194], [29.4628597, 46.807883], [29.4626735, 46.8079113], [29.4622386, 46.8079775], [29.4603032, 46.8082719], [29.4591869, 46.8084418], [29.458931, 46.8084954], [29.4586826, 46.8085708], [29.4584922, 46.808687], [29.4584867, 46.8086916], [29.4583331, 46.8088218], [29.4582147, 46.8089766], [29.4581518, 46.8091026], [29.4581005, 46.8092487], [29.4580904, 46.8094698], [29.4581156, 46.8096844], [29.4584307, 46.8115688], [29.4585364, 46.8122008], [29.458552, 46.8122959], [29.4586026, 46.8126111], [29.4586955, 46.8131903], [29.4587487, 46.8134962], [29.4588008, 46.8138142], [29.4590734, 46.8154776], [29.4591583, 46.816022], [29.459218, 46.8164049], [29.4592366, 46.8165394], [29.4592825, 46.8168786], [29.4593154, 46.817013], [29.4594576, 46.8174289], [29.459866, 46.8184759], [29.4611119, 46.8185091], [29.4615585, 46.8185307], [29.4620084, 46.818559], [29.4628253, 46.8186104], [29.4629303, 46.818617], [29.4632817, 46.8186316], [29.464289, 46.8186417], [29.4644624, 46.8186391], [29.4645246, 46.8186208], [29.4645567, 46.8186829], [29.4653268, 46.820383], [29.4655141, 46.8203548], [29.4657573, 46.8202748], [29.4655141, 46.8203548], [29.4653268, 46.820383], [29.464513, 46.820628], [29.4642369, 46.8206994], [29.4633133, 46.8210372], [29.4629248, 46.8211559], [29.4622511, 46.8213369], [29.4616661, 46.8214725], [29.4610018, 46.8215709]]}, "properties": {"corridor": "KHOMUTYANOVKA_B", "kind": "corridor_forced_forward", "distance_km": 7.67}}, {"type": "Feature", "geometry": {"type": "LineString", "coordinates": [[29.4833491, 46.8241408], [29.4828438, 46.824291], [29.4824906, 46.8243959], [29.4823489, 46.8244436], [29.4822053, 46.8244879], [29.4819624, 46.8245628], [29.4816272, 46.8246662], [29.4813367, 46.8247556], [29.4806437, 46.8249655], [29.4805161, 46.8247484], [29.4803468, 46.8243558], [29.4802785, 46.8242086], [29.4802154, 46.8239631], [29.4801514, 46.8237755], [29.4801198, 46.8237067], [29.4801031, 46.8236747], [29.4800505, 46.8235557], [29.4800204, 46.8234875], [29.4799618, 46.8233549], [29.4799445, 46.82331], [29.4798845, 46.82318], [29.4797844, 46.8229533], [29.4792924, 46.8218583], [29.4791535, 46.8215255], [29.4790702, 46.8213369], [29.4789385, 46.8210387], [29.4789044, 46.8209615], [29.4785889, 46.8202474], [29.4784826, 46.8200069], [29.478371, 46.8197542], [29.47767, 46.8181675], [29.4760327, 46.8185274], [29.4759582, 46.8185441], [29.475908, 46.8184402], [29.4751197, 46.8166948], [29.4751073, 46.816658], [29.4750558, 46.816552], [29.4747947, 46.8159477], [29.4746783, 46.8156738], [29.4744973, 46.8152825], [29.4743418, 46.8149463], [29.4740063, 46.8147581], [29.473798, 46.814601], [29.4732482, 46.8139008], [29.4731518, 46.8137744], [29.4729387, 46.8134599], [29.4728889, 46.8133863], [29.472811, 46.8132714], [29.4724042, 46.8126802], [29.4722676, 46.8124623], [29.4720433, 46.812159], [29.4717729, 46.8117685], [29.4715932, 46.8115089], [29.4713871, 46.8112322], [29.4710803, 46.8108145], [29.4709145, 46.810614], [29.4708243, 46.810505], [29.4688974, 46.8087613], [29.4684966, 46.8083986], [29.4682943, 46.8082145], [29.4681838, 46.8081052], [29.4677944, 46.8081677], [29.4668575, 46.8083129], [29.4660128, 46.8084489], [29.4659437, 46.8084599], [29.4653427, 46.8085556], [29.4651945, 46.8085792], [29.4648217, 46.8086386], [29.4635543, 46.8088404], [29.4625944, 46.8089932], [29.4605927, 46.8093021], [29.4584888, 46.8096268], [29.4584456, 46.8096335], [29.4582601, 46.8096621], [29.4581156, 46.8096844], [29.4584307, 46.8115688], [29.4585364, 46.8122008], [29.458552, 46.8122959], [29.4586026, 46.8126111], [29.4586955, 46.8131903], [29.4587487, 46.8134962], [29.4588008, 46.8138142], [29.4590734, 46.8154776], [29.4591583, 46.816022], [29.459218, 46.8164049], [29.4592366, 46.8165394], [29.4592825, 46.8168786], [29.4593154, 46.817013], [29.4594576, 46.8174289], [29.459866, 46.8184759], [29.4602804, 46.8195809], [29.460603, 46.8205236], [29.4607188, 46.8208278], [29.4607774, 46.8209814], [29.4608478, 46.8211663], [29.4610018, 46.8215709]]}, "properties": {"corridor": "KHOMUTYANOVKA_B", "kind": "true_shortest_unconstrained", "distance_km": 4.5986}}, {"type": "Feature", "geometry": {"type": "LineString", "coordinates": [[29.4833491, 46.8241408], [29.4828438, 46.824291], [29.4824906, 46.8243959], [29.4823489, 46.8244436], [29.4822053, 46.8244879], [29.4819624, 46.8245628], [29.4816272, 46.8246662], [29.4813367, 46.8247556], [29.4806437, 46.8249655], [29.4805161, 46.8247484], [29.4803468, 46.8243558], [29.4802785, 46.8242086], [29.4802154, 46.8239631], [29.4801514, 46.8237755], [29.4801198, 46.8237067], [29.4801031, 46.8236747], [29.4800505, 46.8235557], [29.4800204, 46.8234875], [29.4799618, 46.8233549], [29.4799445, 46.82331], [29.4798845, 46.82318], [29.4797844, 46.8229533], [29.4792924, 46.8218583], [29.4791535, 46.8215255], [29.4790702, 46.8213369], [29.4789385, 46.8210387], [29.4789044, 46.8209615], [29.4785889, 46.8202474], [29.4784826, 46.8200069], [29.478371, 46.8197542], [29.47767, 46.8181675], [29.4760327, 46.8185274], [29.4759582, 46.8185441], [29.475908, 46.8184402], [29.4751197, 46.8166948], [29.4751073, 46.816658], [29.4750558, 46.816552], [29.4747947, 46.8159477], [29.4746783, 46.8156738], [29.4744973, 46.8152825], [29.4743418, 46.8149463], [29.4740063, 46.8147581], [29.473798, 46.814601], [29.4732482, 46.8139008], [29.4731518, 46.8137744], [29.4729387, 46.8134599], [29.4728889, 46.8133863], [29.472811, 46.8132714], [29.4724042, 46.8126802], [29.4722676, 46.8124623], [29.4720433, 46.812159], [29.4717729, 46.8117685], [29.4715932, 46.8115089], [29.4713871, 46.8112322], [29.4710803, 46.8108145], [29.4709145, 46.810614], [29.4708243, 46.810505], [29.4688974, 46.8087613], [29.4684966, 46.8083986], [29.4682943, 46.8082145], [29.4681838, 46.8081052], [29.4677944, 46.8081677], [29.4668575, 46.8083129], [29.4660128, 46.8084489], [29.4659437, 46.8084599], [29.4653427, 46.8085556], [29.4651945, 46.8085792], [29.4648217, 46.8086386], [29.4635543, 46.8088404], [29.4625944, 46.8089932], [29.4605927, 46.8093021], [29.4584888, 46.8096268], [29.4584456, 46.8096335], [29.4582601, 46.8096621], [29.4581156, 46.8096844], [29.4584307, 46.8115688], [29.4585364, 46.8122008], [29.458552, 46.8122959], [29.4586026, 46.8126111], [29.4586955, 46.8131903], [29.4587487, 46.8134962], [29.4588008, 46.8138142], [29.4590734, 46.8154776], [29.4591583, 46.816022], [29.459218, 46.8164049], [29.4592366, 46.8165394], [29.4592825, 46.8168786], [29.4593154, 46.817013], [29.4594576, 46.8174289], [29.459866, 46.8184759], [29.4611119, 46.8185091], [29.4615585, 46.8185307], [29.4620084, 46.818559], [29.4628253, 46.8186104], [29.4629303, 46.818617], [29.4632817, 46.8186316], [29.464289, 46.8186417], [29.4644624, 46.8186391], [29.4645246, 46.8186208], [29.4645567, 46.8186829], [29.4653268, 46.820383], [29.4655141, 46.8203548], [29.4657573, 46.8202748], [29.4655141, 46.8203548], [29.4653268, 46.820383], [29.464513, 46.820628], [29.4642369, 46.8206994], [29.4633133, 46.8210372], [29.4629248, 46.8211559], [29.4622511, 46.8213369], [29.4616661, 46.8214725], [29.4610018, 46.8215709], [29.4603235, 46.8217023], [29.4602981, 46.8216306], [29.460254, 46.8215865], [29.4597002, 46.821676], [29.4596239, 46.8214671], [29.4595079, 46.8211496], [29.4594717, 46.8210591], [29.4593934, 46.8208499], [29.4593699, 46.8207872], [29.4580927, 46.8210141], [29.4579877, 46.820743], [29.4577125, 46.8200341], [29.4575739, 46.8196747], [29.4572781, 46.818909], [29.4570885, 46.8184081], [29.4570457, 46.8183121], [29.4559125, 46.8179117], [29.4554103, 46.8184494], [29.455258, 46.8186644], [29.45443, 46.8183618], [29.4544021, 46.8183516], [29.4539785, 46.8181481], [29.4537614, 46.8180106], [29.4536595, 46.8180404], [29.4530627, 46.8186181], [29.4528197, 46.8188696], [29.4525388, 46.8191759], [29.4517528, 46.8201021], [29.4510833, 46.8209686], [29.4502246, 46.8220343], [29.4500803, 46.8223617], [29.4500997, 46.8225478], [29.4513793, 46.8225645]]}, "properties": {"corridor": "PROTYAGAILOVKA", "kind": "corridor_forced_forward", "distance_km": 6.8657}}, {"type": "Feature", "geometry": {"type": "LineString", "coordinates": [[29.4833491, 46.8241408], [29.4828438, 46.824291], [29.4824906, 46.8243959], [29.4823489, 46.8244436], [29.4822053, 46.8244879], [29.4819624, 46.8245628], [29.4816272, 46.8246662], [29.4813367, 46.8247556], [29.4806437, 46.8249655], [29.4805161, 46.8247484], [29.4803468, 46.8243558], [29.4802785, 46.8242086], [29.4802154, 46.8239631], [29.4801514, 46.8237755], [29.4801198, 46.8237067], [29.4801031, 46.8236747], [29.4800505, 46.8235557], [29.4800204, 46.8234875], [29.4799618, 46.8233549], [29.4799445, 46.82331], [29.4798845, 46.82318], [29.4797844, 46.8229533], [29.4792924, 46.8218583], [29.4791535, 46.8215255], [29.4790702, 46.8213369], [29.4789385, 46.8210387], [29.4789044, 46.8209615], [29.4785889, 46.8202474], [29.4784826, 46.8200069], [29.478371, 46.8197542], [29.47767, 46.8181675], [29.4760327, 46.8185274], [29.4759582, 46.8185441], [29.475908, 46.8184402], [29.4751197, 46.8166948], [29.4751073, 46.816658], [29.4750558, 46.816552], [29.4747947, 46.8159477], [29.4746783, 46.8156738], [29.4744973, 46.8152825], [29.4743418, 46.8149463], [29.4740063, 46.8147581], [29.473798, 46.814601], [29.4732482, 46.8139008], [29.4731518, 46.8137744], [29.4729387, 46.8134599], [29.4728889, 46.8133863], [29.472811, 46.8132714], [29.4724042, 46.8126802], [29.4722676, 46.8124623], [29.4720433, 46.812159], [29.4717729, 46.8117685], [29.4715932, 46.8115089], [29.4713871, 46.8112322], [29.4710803, 46.8108145], [29.4709145, 46.810614], [29.4708243, 46.810505], [29.4688974, 46.8087613], [29.4684966, 46.8083986], [29.4682943, 46.8082145], [29.4681838, 46.8081052], [29.4677944, 46.8081677], [29.4668575, 46.8083129], [29.4660128, 46.8084489], [29.4659437, 46.8084599], [29.4653427, 46.8085556], [29.4651945, 46.8085792], [29.4648217, 46.8086386], [29.4635543, 46.8088404], [29.4625944, 46.8089932], [29.4605927, 46.8093021], [29.4584888, 46.8096268], [29.4584456, 46.8096335], [29.4582601, 46.8096621], [29.4581156, 46.8096844], [29.4584307, 46.8115688], [29.4585364, 46.8122008], [29.458552, 46.8122959], [29.4586026, 46.8126111], [29.4586955, 46.8131903], [29.4587487, 46.8134962], [29.4588008, 46.8138142], [29.4590734, 46.8154776], [29.4591583, 46.816022], [29.459218, 46.8164049], [29.4592366, 46.8165394], [29.4592825, 46.8168786], [29.4593154, 46.817013], [29.4594576, 46.8174289], [29.4581095, 46.8174931], [29.4567453, 46.8176293], [29.4557401, 46.8177198], [29.4555404, 46.8178016], [29.4559125, 46.8179117], [29.4554103, 46.8184494], [29.455258, 46.8186644], [29.4542278, 46.8194117], [29.4539782, 46.8196256], [29.4527855, 46.8207808], [29.4520511, 46.8214129], [29.4516945, 46.8217832], [29.4514866, 46.8221008], [29.4514199, 46.8222171], [29.4513706, 46.8223334], [29.4513793, 46.8225645]]}, "properties": {"corridor": "PROTYAGAILOVKA", "kind": "true_shortest_unconstrained", "distance_km": 5.087}}]}